{"type": "FeatureCollection", "features": [{"type": "Feature", "properties": {"state": "Perlis", "seat": "N.01 Titi Tinggi", "seat_name": "Titi Tinggi"}, "geometry": {"type": "MultiPolygon", "coordinates": [[[[100.26065, 6.709], [100.26433, 6.69969], [100.26739, 6.69918], [100.27237, 6.70404], [100.279, 6.70441], [100.28005, 6.70745], [100.28512, 6.70912], [100.28761, 6.70819], [100.29059, 6.71034], [100.29518, 6.70694], [100.29579, 6.70428], [100.29201, 6.6991], [100.29077, 6.69101], [100.29471, 6.68084], [100.29828, 6.67896], [100.30255, 6.68061], [100.30677, 6.6692], [100.3128, 6.66691], [100.31604, 6.66801], [100.31873, 6.66469], [100.32439, 6.66564], [100.3273, 6.66392], [100.32399, 6.65654], [100.31979, 6.65376], [100.3228, 6.649], [100.32244, 6.64267], [100.31795, 6.64026], [100.31683, 6.63717], [100.31739, 6.63534], [100.32212, 6.63635], [100.32645, 6.62155], [100.31658, 6.61355], [100.31184, 6.61254], [100.31074, 6.61068], [100.3063, 6.61094], [100.30499, 6.60589], [100.2963, 6.60728], [100.28906, 6.61035], [100.28838, 6.60622], [100.28292, 6.59908], [100.28123, 6.59358], [100.26291, 6.59178], [100.2597, 6.57402], [100.25601, 6.57631], [100.25241, 6.58326], [100.25367, 6.59291], [100.24851, 6.59814], [100.23508, 6.60126], [100.22887, 6.60626], [100.23121, 6.61696], [100.23411, 6.62236], [100.2305, 6.62956], [100.22045, 6.63056], [100.21226, 6.62821], [100.20353, 6.63012], [100.20498, 6.63337], [100.20892, 6.6323], [100.21278, 6.63377], [100.21064, 6.63514], [100.21138, 6.64172], [100.21347, 6.64302], [100.21097, 6.64533], [100.21168, 6.64817], [100.20844, 6.65354], [100.20945, 6.66421], [100.2067, 6.67653], [100.20727, 6.68153], [100.20922, 6.68307], [100.21511, 6.6821], [100.2215, 6.69985], [100.22895, 6.69366], [100.23213, 6.69521], [100.23836, 6.69254], [100.24301, 6.69265], [100.24418, 6.6967], [100.24718, 6.69596], [100.25, 6.69854], [100.25072, 6.70271], [100.25336, 6.70397], [100.253, 6.70876], [100.25481, 6.70974], [100.25684, 6.70836], [100.25745, 6.71163], [100.26065, 6.709]]]]}}, {"type": "Feature", "properties": {"state": "Perlis", "seat": "N.02 Beseri", "seat_name": "Beseri"}, "geometry": {"type": "MultiPolygon", "coordinates": [[[[100.20522, 6.72236], [100.20788, 6.7194], [100.21212, 6.72066], [100.21473, 6.71957], [100.21624, 6.71286], [100.21939, 6.70826], [100.21862, 6.70339], [100.2215, 6.69985], [100.21511, 6.6821], [100.20922, 6.68307], [100.20727, 6.68153], [100.2067, 6.67653], [100.20945, 6.66421], [100.20844, 6.65354], [100.21168, 6.64817], [100.21097, 6.64533], [100.21347, 6.64302], [100.21138, 6.64172], [100.21064, 6.63514], [100.21278, 6.63377], [100.20892, 6.6323], [100.20498, 6.63337], [100.20358, 6.62921], [100.21226, 6.62821], [100.22463, 6.63077], [100.2305, 6.62956], [100.23411, 6.62236], [100.23121, 6.61696], [100.22887, 6.60626], [100.23508, 6.60126], [100.24851, 6.59814], [100.25367, 6.59291], [100.25241, 6.58326], [100.25601, 6.57631], [100.2597, 6.57402], [100.26, 6.54296], [100.25724, 6.52468], [100.2554, 6.51644], [100.24924, 6.51457], [100.2297, 6.51498], [100.22859, 6.53608], [100.2184, 6.53739], [100.21909, 6.53388], [100.21742, 6.52801], [100.20562, 6.53069], [100.20487, 6.52889], [100.20271, 6.52969], [100.20059, 6.53465], [100.19546, 6.52452], [100.18429, 6.51501], [100.1768, 6.57082], [100.17914, 6.5732], [100.18295, 6.57232], [100.1828, 6.57563], [100.1851, 6.57839], [100.18243, 6.58117], [100.17848, 6.59122], [100.18094, 6.60129], [100.17797, 6.60492], [100.17701, 6.60363], [100.17035, 6.60779], [100.16856, 6.62208], [100.16699, 6.62431], [100.16812, 6.62719], [100.16615, 6.63055], [100.16918, 6.6335], [100.16827, 6.64725], [100.17216, 6.65031], [100.17522, 6.65022], [100.18113, 6.65614], [100.17791, 6.66901], [100.18032, 6.67463], [100.1796, 6.68253], [100.17478, 6.68364], [100.1715, 6.6938], [100.17886, 6.69654], [100.1795, 6.70074], [100.18627, 6.71224], [100.18602, 6.71634], [100.19466, 6.71992], [100.19722, 6.72262], [100.19907, 6.7215], [100.20372, 6.72606], [100.20487, 6.72591], [100.20522, 6.72236]]]]}}, {"type": "Feature", "properties": {"state": "Perlis", "seat": "N.03 Chuping", "seat_name": "Chuping"}, "geometry": {"type": "MultiPolygon", "coordinates": [[[[100.28906, 6.61035], [100.2963, 6.60728], [100.30449, 6.60691], [100.30543, 6.60524], [100.30693, 6.60602], [100.3123, 6.60339], [100.31567, 6.6044], [100.32035, 6.59187], [100.32525, 6.58893], [100.32556, 6.58558], [100.33262, 6.58414], [100.33438, 6.58519], [100.33627, 6.58385], [100.33559, 6.58238], [100.34017, 6.58126], [100.34208, 6.57869], [100.34145, 6.57507], [100.34509, 6.57118], [100.35118, 6.57314], [100.3539, 6.56782], [100.35336, 6.56118], [100.35527, 6.5618], [100.35616, 6.55919], [100.35948, 6.55714], [100.35828, 6.55391], [100.35973, 6.54823], [100.36543, 6.54288], [100.37032, 6.53067], [100.36602, 6.48459], [100.35072, 6.47982], [100.34261, 6.48002], [100.33586, 6.47725], [100.33493, 6.47806], [100.33117, 6.47553], [100.33061, 6.47296], [100.32318, 6.47415], [100.31788, 6.4677], [100.31327, 6.46525], [100.31279, 6.46324], [100.30694, 6.46121], [100.30591, 6.46334], [100.30177, 6.46167], [100.30054, 6.46262], [100.29899, 6.46027], [100.2932, 6.46067], [100.29226, 6.45757], [100.27871, 6.46082], [100.28077, 6.46435], [100.28718, 6.46195], [100.29, 6.46441], [100.29, 6.46852], [100.28223, 6.47003], [100.28383, 6.47464], [100.28212, 6.47695], [100.28283, 6.48219], [100.28044, 6.48401], [100.27747, 6.48275], [100.27147, 6.4841], [100.26728, 6.49224], [100.26147, 6.49344], [100.259, 6.49919], [100.26048, 6.50926], [100.25845, 6.50991], [100.25383, 6.50607], [100.25475, 6.5126], [100.25079, 6.51229], [100.24971, 6.51474], [100.2554, 6.51644], [100.25956, 6.53815], [100.25903, 6.57187], [100.26164, 6.57966], [100.26291, 6.59178], [100.28123, 6.59358], [100.28292, 6.59908], [100.28838, 6.60622], [100.28906, 6.61035]]]]}}, {"type": "Feature", "properties": {"state": "Perlis", "seat": "N.04 Mata Ayer", "seat_name": "Mata Ayer"}, "geometry": {"type": "MultiPolygon", "coordinates": [[[[100.25475, 6.5126], [100.25383, 6.50607], [100.25845, 6.50991], [100.26053, 6.50916], [100.259, 6.49919], [100.26147, 6.49344], [100.26728, 6.49224], [100.27147, 6.4841], [100.27747, 6.48275], [100.28044, 6.48401], [100.28283, 6.48219], [100.28212, 6.47695], [100.28383, 6.47464], [100.28223, 6.47003], [100.29, 6.46852], [100.28885, 6.46266], [100.28718, 6.46195], [100.28077, 6.46435], [100.27871, 6.46082], [100.274, 6.46033], [100.26739, 6.46222], [100.26583, 6.45868], [100.26277, 6.46114], [100.25888, 6.45911], [100.25597, 6.46764], [100.25179, 6.46053], [100.24225, 6.46598], [100.23535, 6.45779], [100.23379, 6.45915], [100.23296, 6.4619], [100.23748, 6.46997], [100.23807, 6.47432], [100.23418, 6.47515], [100.2335, 6.47671], [100.23544, 6.47818], [100.23356, 6.479], [100.23508, 6.48347], [100.23347, 6.48408], [100.23624, 6.49306], [100.24188, 6.49305], [100.24229, 6.49842], [100.24492, 6.49888], [100.24583, 6.50302], [100.24853, 6.5041], [100.25079, 6.51229], [100.25475, 6.5126]]]]}}, {"type": "Feature", "properties": {"state": "Perlis", "seat": "N.05 Santan", "seat_name": "Santan"}, "geometry": {"type": "MultiPolygon", "coordinates": [[[[100.22111, 6.5367], [100.22859, 6.53608], [100.2297, 6.51498], [100.24971, 6.51474], [100.25106, 6.51129], [100.24853, 6.5041], [100.24583, 6.50302], [100.24492, 6.49888], [100.24229, 6.49842], [100.24188, 6.49305], [100.23624, 6.49306], [100.23347, 6.48408], [100.23508, 6.48347], [100.23356, 6.479], [100.23544, 6.47818], [100.2335, 6.47671], [100.23418, 6.47515], [100.23807, 6.47432], [100.23748, 6.46997], [100.23366, 6.46375], [100.23426, 6.46227], [100.23149, 6.46054], [100.22804, 6.46426], [100.22602, 6.46373], [100.22504, 6.46626], [100.22144, 6.46706], [100.2201, 6.46911], [100.22112, 6.47068], [100.21698, 6.4711], [100.215, 6.47385], [100.21164, 6.47432], [100.21405, 6.48328], [100.21469, 6.50163], [100.18496, 6.51004], [100.18429, 6.51501], [100.19546, 6.52452], [100.20059, 6.53465], [100.20271, 6.52969], [100.20487, 6.52889], [100.20562, 6.53069], [100.21742, 6.52801], [100.21909, 6.53388], [100.2184, 6.53739], [100.22111, 6.5367]]]]}}, {"type": "Feature", "properties": {"state": "Perlis", "seat": "N.06 Bintong", "seat_name": "Bintong"}, "geometry": {"type": "MultiPolygon", "coordinates": [[[[100.16474, 6.57058], [100.16628, 6.56974], [100.17098, 6.57414], [100.1761, 6.56647], [100.17681, 6.57078], [100.18496, 6.51004], [100.21291, 6.50236], [100.21469, 6.50163], [100.21403, 6.49906], [100.21528, 6.49857], [100.2118, 6.47475], [100.19994, 6.44617], [100.19685, 6.44452], [100.19637, 6.44633], [100.19043, 6.44478], [100.18909, 6.44288], [100.18792, 6.44806], [100.186, 6.44817], [100.18213, 6.44503], [100.18397, 6.43994], [100.18316, 6.43465], [100.18092, 6.43343], [100.17832, 6.43438], [100.17808, 6.43264], [100.17517, 6.4338], [100.17273, 6.43216], [100.16742, 6.43362], [100.16566, 6.43126], [100.16377, 6.43279], [100.16374, 6.43537], [100.15547, 6.43522], [100.15253, 6.45079], [100.14737, 6.45188], [100.14474, 6.46338], [100.14552, 6.46841], [100.15133, 6.47165], [100.15141, 6.47587], [100.15854, 6.47963], [100.15629, 6.48316], [100.15461, 6.48276], [100.15445, 6.4865], [100.15978, 6.48672], [100.16035, 6.48904], [100.15944, 6.49512], [100.16059, 6.50282], [100.15478, 6.52102], [100.15734, 6.52227], [100.15739, 6.53244], [100.15428, 6.54874], [100.15431, 6.55733], [100.16009, 6.56257], [100.15863, 6.57391], [100.15638, 6.57525], [100.15716, 6.57944], [100.16242, 6.57578], [100.16309, 6.57127], [100.16474, 6.57058]]]]}}, {"type": "Feature", "properties": {"state": "Perlis", "seat": "N.07 Sena", "seat_name": "Sena"}, "geometry": {"type": "MultiPolygon", "coordinates": [[[[100.21208, 6.47409], [100.215, 6.47385], [100.21698, 6.4711], [100.22112, 6.47068], [100.22013, 6.46883], [100.22504, 6.46626], [100.22602, 6.46373], [100.22804, 6.46426], [100.23149, 6.46054], [100.23296, 6.4619], [100.23495, 6.45796], [100.23651, 6.45874], [100.23586, 6.45615], [100.23736, 6.45436], [100.24351, 6.4559], [100.24523, 6.45435], [100.24397, 6.45465], [100.24517, 6.45213], [100.24195, 6.44735], [100.2399, 6.44756], [100.2382, 6.45002], [100.23534, 6.44815], [100.23262, 6.43163], [100.24136, 6.43001], [100.24282, 6.42747], [100.23953, 6.42368], [100.23266, 6.41976], [100.22976, 6.41958], [100.22509, 6.42303], [100.22311, 6.42144], [100.2175, 6.42454], [100.21148, 6.42526], [100.1953, 6.43793], [100.19727, 6.43968], [100.19737, 6.44472], [100.20133, 6.44869], [100.20902, 6.46981], [100.21208, 6.47409]]]]}}, {"type": "Feature", "properties": {"state": "Perlis", "seat": "N.08 Indera Kayangan", "seat_name": "Indera Kayangan"}, "geometry": {"type": "MultiPolygon", "coordinates": [[[[100.18785, 6.44663], [100.18909, 6.44288], [100.19034, 6.44474], [100.19656, 6.44621], [100.19787, 6.44369], [100.19727, 6.43968], [100.1953, 6.43793], [100.20419, 6.43139], [100.203, 6.42451], [100.20547, 6.42162], [100.20363, 6.41894], [100.20497, 6.41895], [100.20766, 6.41428], [100.2055, 6.40583], [100.19333, 6.40687], [100.19488, 6.42275], [100.19244, 6.42732], [100.19341, 6.42861], [100.19134, 6.43447], [100.18988, 6.43625], [100.18983, 6.43121], [100.18564, 6.43163], [100.18565, 6.43369], [100.18316, 6.43465], [100.18397, 6.43994], [100.18213, 6.44503], [100.186, 6.44817], [100.18792, 6.44806], [100.18785, 6.44663]]]]}}, {"type": "Feature", "properties": {"state": "Perlis", "seat": "N.09 Kuala Perlis", "seat_name": "Kuala Perlis"}, "geometry": {"type": "MultiPolygon", "coordinates": [[[[100.15261, 6.44825], [100.1567, 6.4283], [100.15495, 6.42216], [100.14999, 6.41658], [100.14828, 6.40586], [100.15111, 6.39771], [100.15306, 6.39729], [100.15137, 6.39273], [100.15722, 6.38222], [100.15631, 6.38051], [100.16013, 6.37515], [100.14603, 6.37043], [100.14076, 6.37213], [100.13592, 6.3852], [100.13013, 6.39466], [100.12867, 6.39435], [100.12652, 6.39678], [100.12913, 6.39854], [100.12859, 6.39955], [100.13206, 6.40075], [100.12763, 6.40157], [100.12427, 6.40463], [100.12161, 6.41043], [100.11959, 6.42218], [100.12319, 6.42234], [100.12985, 6.42833], [100.13295, 6.42877], [100.135, 6.43442], [100.13408, 6.43739], [100.13608, 6.44162], [100.1354, 6.44374], [100.13955, 6.44781], [100.14214, 6.44745], [100.14737, 6.45188], [100.15253, 6.45079], [100.15261, 6.44825]]]]}}, {"type": "Feature", "properties": {"state": "Perlis", "seat": "N.10 Kayang", "seat_name": "Kayang"}, "geometry": {"type": "MultiPolygon", "coordinates": [[[[100.19133, 6.43447], [100.19341, 6.42861], [100.19244, 6.42732], [100.19488, 6.42275], [100.19333, 6.40687], [100.19657, 6.407], [100.19546, 6.40638], [100.19768, 6.40429], [100.1972, 6.40295], [100.20015, 6.40049], [100.19859, 6.39132], [100.20186, 6.38708], [100.20091, 6.38177], [100.20464, 6.37879], [100.2013, 6.379], [100.20044, 6.37757], [100.19866, 6.3785], [100.19868, 6.3714], [100.18773, 6.37193], [100.18841, 6.37771], [100.18635, 6.37995], [100.18317, 6.37781], [100.18271, 6.38855], [100.17879, 6.39026], [100.17556, 6.3895], [100.17658, 6.38679], [100.16013, 6.37515], [100.15631, 6.38051], [100.15722, 6.38222], [100.15137, 6.39273], [100.15306, 6.39729], [100.15111, 6.39771], [100.14828, 6.40586], [100.14999, 6.41658], [100.15556, 6.42389], [100.15591, 6.43468], [100.16374, 6.43537], [100.16377, 6.43279], [100.16565, 6.43126], [100.16742, 6.43362], [100.17273, 6.43216], [100.18433, 6.43509], [100.18564, 6.43163], [100.18983, 6.43121], [100.18988, 6.43625], [100.19133, 6.43447]]]]}}, {"type": "Feature", "properties": {"state": "Perlis", "seat": "N.11 Pauh", "seat_name": "Pauh"}, "geometry": {"type": "MultiPolygon", "coordinates": [[[[100.36591, 6.48331], [100.36324, 6.45427], [100.31103, 6.40989], [100.30622, 6.40872], [100.30438, 6.41379], [100.30004, 6.41523], [100.2995, 6.41687], [100.29517, 6.4155], [100.29532, 6.41944], [100.28954, 6.41967], [100.28474, 6.4222], [100.28559, 6.42943], [100.27448, 6.42675], [100.27298, 6.42435], [100.27051, 6.42778], [100.26904, 6.42712], [100.25894, 6.45915], [100.26003, 6.45997], [100.26121, 6.45929], [100.26277, 6.46114], [100.26583, 6.45868], [100.26775, 6.46224], [100.274, 6.46033], [100.2813, 6.46086], [100.28768, 6.45785], [100.29226, 6.45757], [100.2932, 6.46067], [100.29899, 6.46027], [100.30054, 6.46262], [100.30177, 6.46167], [100.30591, 6.46334], [100.30694, 6.46121], [100.31279, 6.46324], [100.31327, 6.46525], [100.31788, 6.4677], [100.32318, 6.47415], [100.33061, 6.47296], [100.33117, 6.47553], [100.33493, 6.47806], [100.33586, 6.47725], [100.34261, 6.48002], [100.35072, 6.47982], [100.36547, 6.48454], [100.36591, 6.48331]]]]}}, {"type": "Feature", "properties": {"state": "Perlis", "seat": "N.12 Tambun Tulang", "seat_name": "Tambun Tulang"}, "geometry": {"type": "MultiPolygon", "coordinates": [[[[100.25613, 6.46715], [100.26904, 6.42712], [100.27051, 6.42778], [100.27217, 6.4247], [100.27196, 6.42342], [100.26939, 6.42433], [100.26892, 6.4233], [100.27111, 6.41604], [100.27686, 6.40466], [100.27309, 6.40174], [100.2728, 6.39894], [100.26942, 6.39829], [100.26024, 6.39168], [100.25683, 6.39587], [100.24759, 6.38599], [100.21572, 6.35823], [100.21533, 6.37101], [100.19868, 6.3714], [100.19866, 6.3785], [100.20044, 6.37757], [100.20467, 6.37956], [100.20091, 6.38177], [100.20186, 6.38708], [100.19859, 6.39132], [100.20015, 6.40049], [100.19546, 6.40638], [100.2055, 6.40583], [100.20766, 6.41428], [100.20497, 6.41895], [100.20363, 6.41894], [100.20547, 6.42162], [100.203, 6.42451], [100.20385, 6.43131], [100.21148, 6.42526], [100.2175, 6.42454], [100.22311, 6.42144], [100.22509, 6.42303], [100.22976, 6.41958], [100.23953, 6.42368], [100.24282, 6.42747], [100.24195, 6.4297], [100.23262, 6.43163], [100.23311, 6.4379], [100.23562, 6.4487], [100.2382, 6.45002], [100.2399, 6.44756], [100.24195, 6.44735], [100.24517, 6.45213], [100.24397, 6.45465], [100.24523, 6.45435], [100.24351, 6.4559], [100.23736, 6.45436], [100.23586, 6.45615], [100.23635, 6.45889], [100.24225, 6.46598], [100.25179, 6.46053], [100.25613, 6.46715]]]]}}, {"type": "Feature", "properties": {"state": "Perlis", "seat": "N.13 Guar Sanji", "seat_name": "Guar Sanji"}, "geometry": {"type": "MultiPolygon", "coordinates": [[[[100.28451, 6.42697], [100.28474, 6.4222], [100.28954, 6.41967], [100.29532, 6.41944], [100.29517, 6.4155], [100.29782, 6.41548], [100.29834, 6.41734], [100.30235, 6.41382], [100.30438, 6.41379], [100.30622, 6.40872], [100.30493, 6.40502], [100.29746, 6.39826], [100.27992, 6.37076], [100.25617, 6.34974], [100.24953, 6.33535], [100.24262, 6.3313], [100.23784, 6.32535], [100.22795, 6.31733], [100.22484, 6.32075], [100.22585, 6.32155], [100.22176, 6.3297], [100.22373, 6.33137], [100.2184, 6.33654], [100.21345, 6.3497], [100.21022, 6.35404], [100.23923, 6.37845], [100.25683, 6.39587], [100.26024, 6.39168], [100.26942, 6.39829], [100.2728, 6.39894], [100.27309, 6.40174], [100.27686, 6.40466], [100.27184, 6.41414], [100.26908, 6.42397], [100.27196, 6.42342], [100.27448, 6.42675], [100.28559, 6.42943], [100.28451, 6.42697]]]]}}, {"type": "Feature", "properties": {"state": "Perlis", "seat": "N.14 Simpang Empat", "seat_name": "Simpang Empat"}, "geometry": {"type": "MultiPolygon", "coordinates": [[[[100.17879, 6.39026], [100.18271, 6.38855], [100.18317, 6.37781], [100.18635, 6.37995], [100.18841, 6.37771], [100.18773, 6.37193], [100.21533, 6.37101], [100.21572, 6.35823], [100.2014, 6.34711], [100.19196, 6.34233], [100.19354, 6.33664], [100.19133, 6.33483], [100.19015, 6.33445], [100.18756, 6.34002], [100.1832, 6.33849], [100.1865, 6.32789], [100.18538, 6.32728], [100.18776, 6.32405], [100.17528, 6.31511], [100.17172, 6.31994], [100.16243, 6.30864], [100.13996, 6.37206], [100.14737, 6.37044], [100.15865, 6.37428], [100.17658, 6.38679], [100.17556, 6.3895], [100.17879, 6.39026]]]]}}, {"type": "Feature", "properties": {"state": "Perlis", "seat": "N.15 Sanglang", "seat_name": "Sanglang"}, "geometry": {"type": "MultiPolygon", "coordinates": [[[[100.21713, 6.33969], [100.21978, 6.3345], [100.22373, 6.33137], [100.22176, 6.3297], [100.22585, 6.32155], [100.22484, 6.32075], [100.22795, 6.31733], [100.21982, 6.30725], [100.2175, 6.29888], [100.20461, 6.29015], [100.20123, 6.2819], [100.20313, 6.27865], [100.2038, 6.27073], [100.19888, 6.26296], [100.19895, 6.2586], [100.19568, 6.25767], [100.1819, 6.27161], [100.18266, 6.27262], [100.17782, 6.27801], [100.173, 6.2872], [100.16953, 6.28907], [100.1667, 6.29514], [100.1652, 6.30496], [100.163, 6.30523], [100.16241, 6.30865], [100.17172, 6.31994], [100.17528, 6.31511], [100.18776, 6.32405], [100.18538, 6.32728], [100.1865, 6.32789], [100.1832, 6.33849], [100.18756, 6.34002], [100.19015, 6.33445], [100.19133, 6.33483], [100.19354, 6.33664], [100.19196, 6.34233], [100.19969, 6.34599], [100.21022, 6.35404], [100.21345, 6.3497], [100.21713, 6.33969]]]]}}], "_provenance": {"source": "https://github.com/atifmustaffa/malaysia-geojson (malaysia.dun.geojson)", "licence": "MIT (c) 2026 Atif Mustaffa — see LICENSE in this directory", "downloaded": "2026-08-29", "simplification": "none (original coordinates)", "modified_by": "HitungKerusi 222 research pipeline (seat-name normalisation, per-state split)"}}