{"type": "FeatureCollection", "features": [{"type": "Feature", "properties": {"state": "Pulau Pinang", "seat": "N.01 Penaga", "seat_name": "Penaga"}, "geometry": {"type": "MultiPolygon", "coordinates": [[[[100.37777, 5.57968], [100.3797, 5.57998], [100.38218, 5.58423], [100.38432, 5.58456], [100.38728, 5.57797], [100.39419, 5.57945], [100.40949, 5.57182], [100.40878, 5.56724], [100.41067, 5.56611], [100.42436, 5.56254], [100.43193, 5.56534], [100.43272, 5.56136], [100.43536, 5.56065], [100.43559, 5.55182], [100.43464, 5.54364], [100.4317, 5.53943], [100.42988, 5.53159], [100.42389, 5.53489], [100.42219, 5.53394], [100.42397, 5.533], [100.4208, 5.53017], [100.4197, 5.52465], [100.41608, 5.52324], [100.40576, 5.52705], [100.40425, 5.53774], [100.38508, 5.53554], [100.38201, 5.53247], [100.38281, 5.52677], [100.3742, 5.52224], [100.36489, 5.55207], [100.35583, 5.56321], [100.34801, 5.56819], [100.33964, 5.57039], [100.33827, 5.57318], [100.33935, 5.57658], [100.34389, 5.57725], [100.36396, 5.57392], [100.36759, 5.57677], [100.36855, 5.583], [100.37124, 5.58538], [100.37777, 5.57968]]]]}}, {"type": "Feature", "properties": {"state": "Pulau Pinang", "seat": "N.02 Bertam", "seat_name": "Bertam"}, "geometry": {"type": "MultiPolygon", "coordinates": [[[[100.40425, 5.53774], [100.40576, 5.52705], [100.4072, 5.52621], [100.41784, 5.52338], [100.4197, 5.52465], [100.4208, 5.53017], [100.42397, 5.533], [100.42219, 5.53394], [100.42389, 5.53489], [100.43388, 5.53065], [100.43279, 5.52982], [100.43253, 5.51706], [100.4498, 5.51817], [100.44817, 5.4947], [100.4425, 5.49728], [100.43195, 5.49662], [100.42848, 5.49808], [100.43469, 5.49967], [100.43475, 5.50258], [100.4298, 5.50456], [100.40952, 5.50619], [100.40367, 5.50249], [100.39869, 5.50703], [100.38456, 5.49687], [100.38259, 5.498], [100.37493, 5.49606], [100.3742, 5.52224], [100.38281, 5.52677], [100.38201, 5.53247], [100.38508, 5.53554], [100.40425, 5.53774]]]]}}, {"type": "Feature", "properties": {"state": "Pulau Pinang", "seat": "N.03 Pinang Tunggal", "seat_name": "Pinang Tunggal"}, "geometry": {"type": "MultiPolygon", "coordinates": [[[[100.49165, 5.56651], [100.50514, 5.56706], [100.50804, 5.55979], [100.51538, 5.56098], [100.51979, 5.55877], [100.52306, 5.55912], [100.524, 5.55055], [100.52631, 5.54983], [100.52879, 5.55176], [100.52733, 5.49533], [100.52118, 5.49992], [100.5183, 5.49726], [100.50907, 5.49425], [100.5038, 5.48513], [100.4988, 5.48586], [100.50364, 5.50388], [100.49493, 5.50734], [100.49165, 5.51023], [100.48977, 5.50536], [100.48668, 5.50305], [100.48699, 5.50046], [100.48936, 5.4987], [100.48289, 5.49598], [100.47818, 5.48864], [100.45742, 5.48892], [100.45714, 5.49793], [100.45137, 5.4978], [100.45133, 5.49372], [100.44817, 5.4947], [100.4498, 5.51817], [100.43253, 5.51706], [100.43279, 5.52982], [100.43407, 5.53016], [100.42997, 5.5318], [100.4317, 5.53943], [100.43464, 5.54364], [100.43607, 5.56487], [100.4442, 5.56687], [100.44908, 5.56174], [100.4511, 5.56669], [100.45343, 5.5674], [100.45918, 5.56413], [100.46463, 5.56597], [100.46978, 5.56498], [100.47386, 5.56153], [100.48006, 5.5645], [100.48635, 5.56073], [100.48671, 5.57076], [100.49165, 5.56651]]]]}}, {"type": "Feature", "properties": {"state": "Pulau Pinang", "seat": "N.04 Permatang Berangan", "seat_name": "Permatang Berangan"}, "geometry": {"type": "MultiPolygon", "coordinates": [[[[100.49829, 5.50595], [100.50364, 5.50388], [100.4988, 5.48586], [100.5038, 5.48513], [100.50907, 5.49425], [100.5183, 5.49726], [100.52118, 5.49992], [100.52733, 5.49533], [100.52564, 5.42861], [100.52259, 5.4295], [100.52048, 5.43423], [100.51441, 5.43253], [100.51219, 5.43621], [100.50753, 5.43374], [100.50342, 5.43369], [100.49843, 5.43696], [100.49568, 5.43574], [100.49272, 5.43005], [100.48822, 5.42879], [100.48333, 5.43234], [100.47761, 5.43303], [100.46916, 5.4401], [100.46614, 5.43855], [100.46266, 5.43964], [100.46051, 5.44598], [100.45722, 5.44621], [100.45552, 5.44253], [100.45439, 5.44397], [100.45303, 5.44329], [100.45386, 5.4478], [100.45271, 5.4491], [100.45592, 5.45137], [100.45331, 5.45202], [100.45318, 5.45451], [100.4557, 5.45272], [100.46129, 5.45979], [100.46747, 5.45783], [100.47115, 5.45989], [100.45712, 5.46969], [100.45374, 5.46867], [100.45381, 5.47286], [100.45137, 5.47439], [100.45266, 5.48023], [100.44732, 5.47644], [100.44366, 5.4806], [100.44102, 5.48015], [100.44106, 5.47135], [100.43637, 5.47106], [100.43618, 5.47434], [100.43411, 5.47497], [100.43632, 5.47688], [100.43633, 5.48042], [100.4378, 5.48185], [100.43722, 5.48947], [100.43605, 5.48947], [100.43672, 5.49719], [100.44381, 5.49701], [100.45133, 5.49372], [100.45137, 5.4978], [100.45714, 5.49793], [100.45742, 5.48892], [100.47707, 5.48831], [100.48002, 5.49048], [100.48289, 5.49598], [100.48936, 5.4987], [100.48699, 5.50046], [100.48668, 5.50305], [100.48977, 5.50536], [100.49118, 5.50994], [100.49829, 5.50595]]]]}}, {"type": "Feature", "properties": {"state": "Pulau Pinang", "seat": "N.05 Sungai Dua", "seat_name": "Sungai Dua"}, "geometry": {"type": "MultiPolygon", "coordinates": [[[[100.41652, 5.5056], [100.42695, 5.50504], [100.43475, 5.50258], [100.43469, 5.49967], [100.42848, 5.49808], [100.43144, 5.49665], [100.43672, 5.49719], [100.43605, 5.48947], [100.43722, 5.48947], [100.4378, 5.48185], [100.43633, 5.48042], [100.43632, 5.47688], [100.43405, 5.47595], [100.43618, 5.47434], [100.43637, 5.47106], [100.44183, 5.47239], [100.44102, 5.48015], [100.44366, 5.4806], [100.44732, 5.47644], [100.45266, 5.48023], [100.45137, 5.47439], [100.45381, 5.47286], [100.45374, 5.46867], [100.45712, 5.46969], [100.47115, 5.45989], [100.46747, 5.45783], [100.46129, 5.45979], [100.4557, 5.45272], [100.45318, 5.45451], [100.45331, 5.45202], [100.45592, 5.45137], [100.45277, 5.44924], [100.45386, 5.4478], [100.45205, 5.44505], [100.45055, 5.44753], [100.4484, 5.44581], [100.44641, 5.44784], [100.44658, 5.45002], [100.44274, 5.44961], [100.44491, 5.45186], [100.44231, 5.45376], [100.43897, 5.4521], [100.44033, 5.44451], [100.43669, 5.44556], [100.43754, 5.44001], [100.44087, 5.44141], [100.44399, 5.43987], [100.4442, 5.44423], [100.44666, 5.44111], [100.4423, 5.43603], [100.43897, 5.43848], [100.43866, 5.43293], [100.43496, 5.43276], [100.4372, 5.43644], [100.43635, 5.43777], [100.43401, 5.43743], [100.43095, 5.43172], [100.4292, 5.43248], [100.42875, 5.43684], [100.4271, 5.43689], [100.42462, 5.42968], [100.42083, 5.43358], [100.41566, 5.43498], [100.40997, 5.42735], [100.4061, 5.43209], [100.40769, 5.43554], [100.40989, 5.43532], [100.40946, 5.43718], [100.40417, 5.44117], [100.40537, 5.44667], [100.40216, 5.44823], [100.40203, 5.45004], [100.39999, 5.45006], [100.39913, 5.46026], [100.39737, 5.46132], [100.39467, 5.47253], [100.40548, 5.4744], [100.4182, 5.48131], [100.41866, 5.48445], [100.41469, 5.4859], [100.41375, 5.49298], [100.40764, 5.49423], [100.40792, 5.49689], [100.40469, 5.49831], [100.40356, 5.50282], [100.40551, 5.50404], [100.40615, 5.50295], [100.40952, 5.50619], [100.41652, 5.5056]]]]}}, {"type": "Feature", "properties": {"state": "Pulau Pinang", "seat": "N.06 Telok Ayer Tawar", "seat_name": "Telok Ayer Tawar"}, "geometry": {"type": "MultiPolygon", "coordinates": [[[[100.40367, 5.50249], [100.40469, 5.49831], [100.40792, 5.49689], [100.40764, 5.49423], [100.41375, 5.49298], [100.41469, 5.4859], [100.41866, 5.48445], [100.41887, 5.48288], [100.40564, 5.47446], [100.39467, 5.47253], [100.39737, 5.46132], [100.39913, 5.46026], [100.39888, 5.45676], [100.39382, 5.45608], [100.39328, 5.4524], [100.39014, 5.45173], [100.38971, 5.45046], [100.39402, 5.447], [100.38862, 5.44427], [100.37948, 5.44463], [100.37968, 5.44583], [100.37764, 5.4461], [100.37793, 5.46886], [100.37493, 5.49606], [100.38259, 5.498], [100.38456, 5.49687], [100.39869, 5.50703], [100.40367, 5.50249]]]]}}, {"type": "Feature", "properties": {"state": "Pulau Pinang", "seat": "N.07 Sungai Puyu", "seat_name": "Sungai Puyu"}, "geometry": {"type": "MultiPolygon", "coordinates": [[[[100.39893, 5.45617], [100.39999, 5.45006], [100.40203, 5.45004], [100.40216, 5.44823], [100.40537, 5.44667], [100.40417, 5.44117], [100.40542, 5.43916], [100.40751, 5.43931], [100.40989, 5.43532], [100.40769, 5.43554], [100.40609, 5.43267], [100.40641, 5.43141], [100.4084, 5.42962], [100.40894, 5.4286], [100.4091, 5.42808], [100.40928, 5.42756], [100.40931, 5.42747], [100.39998, 5.4282], [100.39973, 5.42423], [100.40264, 5.41837], [100.39664, 5.41922], [100.39448, 5.42189], [100.39465, 5.42579], [100.38842, 5.4276], [100.38616, 5.42588], [100.3835, 5.42693], [100.38499, 5.43285], [100.38681, 5.43249], [100.38732, 5.43532], [100.37635, 5.43578], [100.37764, 5.4461], [100.38296, 5.44391], [100.389, 5.44442], [100.39402, 5.447], [100.38971, 5.45046], [100.39014, 5.45173], [100.39328, 5.4524], [100.39382, 5.45608], [100.39893, 5.45617]]]]}}, {"type": "Feature", "properties": {"state": "Pulau Pinang", "seat": "N.08 Bagan Jermal", "seat_name": "Bagan Jermal"}, "geometry": {"type": "MultiPolygon", "coordinates": [[[[100.37803, 5.43535], [100.38732, 5.43532], [100.38313, 5.42735], [100.38616, 5.42588], [100.38842, 5.4276], [100.39465, 5.42579], [100.39448, 5.42189], [100.39664, 5.41922], [100.40264, 5.41837], [100.3985, 5.41257], [100.40397, 5.41044], [100.40382, 5.40723], [100.39795, 5.40598], [100.39292, 5.41396], [100.36844, 5.41339], [100.37635, 5.43578], [100.37803, 5.43535]]]]}}, {"type": "Feature", "properties": {"state": "Pulau Pinang", "seat": "N.09 Bagan Dalam", "seat_name": "Bagan Dalam"}, "geometry": {"type": "MultiPolygon", "coordinates": [[[[100.39009, 5.41405], [100.39309, 5.41333], [100.38865, 5.41097], [100.38653, 5.4067], [100.39101, 5.39783], [100.37866, 5.39641], [100.37531, 5.38794], [100.36519, 5.38247], [100.36376, 5.38484], [100.36771, 5.38708], [100.36693, 5.38974], [100.362, 5.39409], [100.36104, 5.39879], [100.36844, 5.41339], [100.39009, 5.41405]]]]}}, {"type": "Feature", "properties": {"state": "Pulau Pinang", "seat": "N.10 Seberang Jaya", "seat_name": "Seberang Jaya"}, "geometry": {"type": "MultiPolygon", "coordinates": [[[[100.3964, 5.40821], [100.39795, 5.40598], [100.40089, 5.40561], [100.4044, 5.40794], [100.40419, 5.41013], [100.40714, 5.4103], [100.40675, 5.40346], [100.40991, 5.40268], [100.40983, 5.40045], [100.41575, 5.39896], [100.43617, 5.40269], [100.43997, 5.39184], [100.44442, 5.393], [100.44439, 5.38876], [100.44311, 5.38908], [100.4417, 5.38546], [100.44465, 5.38468], [100.44829, 5.37949], [100.45022, 5.36598], [100.44139, 5.36696], [100.42821, 5.3623], [100.40622, 5.37053], [100.40698, 5.37322], [100.40866, 5.37345], [100.3949, 5.38071], [100.39883, 5.38886], [100.39462, 5.39156], [100.39324, 5.39767], [100.39008, 5.3971], [100.39115, 5.39942], [100.38658, 5.40621], [100.3877, 5.41], [100.39203, 5.41327], [100.39518, 5.41203], [100.3964, 5.40821]]]]}}, {"type": "Feature", "properties": {"state": "Pulau Pinang", "seat": "N.11 Permatang Pasir", "seat_name": "Permatang Pasir"}, "geometry": {"type": "MultiPolygon", "coordinates": [[[[100.43567, 5.43211], [100.4391, 5.43325], [100.4447, 5.43063], [100.44602, 5.4235], [100.4451, 5.42168], [100.44822, 5.42017], [100.45135, 5.42073], [100.45354, 5.41802], [100.4557, 5.41823], [100.45761, 5.42139], [100.46183, 5.42058], [100.46175, 5.42263], [100.46459, 5.42207], [100.46598, 5.42382], [100.46686, 5.42274], [100.46169, 5.41365], [100.46409, 5.41209], [100.46341, 5.40797], [100.46559, 5.40542], [100.46422, 5.40322], [100.46286, 5.38743], [100.46496, 5.37751], [100.46258, 5.36742], [100.46046, 5.36556], [100.45762, 5.36856], [100.45404, 5.36887], [100.45198, 5.36658], [100.45006, 5.367], [100.44829, 5.37949], [100.44465, 5.38468], [100.4417, 5.38546], [100.44311, 5.38908], [100.44439, 5.38876], [100.44442, 5.393], [100.43997, 5.39184], [100.43617, 5.40269], [100.41994, 5.40065], [100.41851, 5.3991], [100.40983, 5.40045], [100.40991, 5.40268], [100.40675, 5.40346], [100.40714, 5.4103], [100.3985, 5.41257], [100.40262, 5.41808], [100.39973, 5.42423], [100.40057, 5.42884], [100.41065, 5.42744], [100.41579, 5.43499], [100.42083, 5.43358], [100.42477, 5.42972], [100.42561, 5.43488], [100.42793, 5.43723], [100.4292, 5.43248], [100.43095, 5.43172], [100.43401, 5.43743], [100.43706, 5.43753], [100.43567, 5.43211]]]]}}, {"type": "Feature", "properties": {"state": "Pulau Pinang", "seat": "N.12 Penanti", "seat_name": "Penanti"}, "geometry": {"type": "MultiPolygon", "coordinates": [[[[100.44274, 5.44961], [100.44658, 5.45002], [100.44641, 5.44784], [100.4484, 5.44581], [100.45113, 5.44736], [100.45192, 5.44516], [100.45362, 5.44498], [100.45259, 5.44374], [100.45532, 5.44248], [100.45722, 5.44621], [100.46051, 5.44598], [100.46266, 5.43964], [100.46614, 5.43855], [100.46916, 5.4401], [100.47761, 5.43303], [100.48333, 5.43234], [100.48822, 5.42879], [100.49272, 5.43005], [100.49568, 5.43574], [100.49843, 5.43696], [100.50342, 5.43369], [100.50753, 5.43374], [100.51219, 5.43621], [100.51441, 5.43253], [100.52056, 5.43417], [100.52259, 5.4295], [100.52564, 5.42861], [100.52436, 5.37482], [100.51636, 5.37879], [100.51175, 5.37698], [100.50736, 5.37848], [100.50378, 5.37743], [100.48871, 5.38856], [100.4791, 5.3845], [100.47018, 5.38623], [100.46807, 5.36802], [100.46258, 5.36742], [100.46485, 5.37529], [100.46286, 5.38743], [100.46422, 5.40322], [100.46559, 5.40542], [100.46341, 5.40797], [100.46409, 5.41209], [100.46169, 5.41365], [100.46686, 5.42274], [100.46598, 5.42382], [100.46459, 5.42207], [100.46175, 5.42263], [100.46183, 5.42058], [100.45761, 5.42139], [100.45442, 5.41798], [100.45135, 5.42073], [100.44822, 5.42017], [100.4451, 5.42168], [100.44516, 5.42999], [100.43927, 5.43303], [100.43876, 5.43753], [100.43968, 5.43855], [100.44114, 5.43627], [100.44318, 5.4365], [100.44658, 5.44205], [100.4442, 5.44423], [100.44399, 5.43987], [100.44087, 5.44141], [100.43754, 5.44001], [100.43669, 5.44556], [100.44033, 5.44451], [100.43873, 5.45176], [100.44162, 5.45366], [100.44491, 5.45186], [100.44274, 5.44961]]]]}}, {"type": "Feature", "properties": {"state": "Pulau Pinang", "seat": "N.13 Berapit", "seat_name": "Berapit"}, "geometry": {"type": "MultiPolygon", "coordinates": [[[[100.47238, 5.38626], [100.47912, 5.38449], [100.4761, 5.38221], [100.47688, 5.38054], [100.47407, 5.37951], [100.47616, 5.37816], [100.47624, 5.37407], [100.47208, 5.37079], [100.47249, 5.36578], [100.47052, 5.36557], [100.47053, 5.36325], [100.46784, 5.36079], [100.46939, 5.36067], [100.46981, 5.35758], [100.47234, 5.35853], [100.47287, 5.35607], [100.47453, 5.35901], [100.47555, 5.35718], [100.47414, 5.35434], [100.48243, 5.35512], [100.48229, 5.35124], [100.48, 5.34848], [100.48271, 5.34529], [100.48014, 5.34214], [100.48264, 5.33661], [100.47801, 5.33449], [100.47648, 5.33015], [100.4685, 5.33471], [100.46846, 5.3421], [100.46384, 5.35387], [100.46375, 5.35727], [100.46646, 5.35795], [100.46494, 5.36239], [100.46337, 5.36189], [100.46046, 5.36556], [100.46258, 5.36742], [100.46807, 5.36802], [100.47018, 5.38623], [100.47238, 5.38626]]]]}}, {"type": "Feature", "properties": {"state": "Pulau Pinang", "seat": "N.14 Machang Bubuk", "seat_name": "Machang Bubuk"}, "geometry": {"type": "MultiPolygon", "coordinates": [[[[100.4906, 5.38633], [100.49504, 5.38511], [100.49683, 5.38205], [100.49987, 5.38146], [100.50378, 5.37743], [100.50736, 5.37848], [100.51175, 5.37698], [100.51636, 5.37879], [100.52436, 5.37482], [100.53382, 5.28548], [100.53153, 5.28804], [100.53139, 5.29135], [100.52988, 5.29104], [100.52388, 5.29748], [100.51821, 5.29896], [100.51171, 5.29659], [100.51114, 5.29781], [100.50353, 5.29898], [100.50055, 5.29546], [100.49122, 5.29107], [100.47969, 5.29249], [100.4766, 5.30119], [100.46944, 5.3069], [100.46199, 5.31582], [100.45679, 5.31689], [100.45616, 5.32008], [100.44842, 5.32437], [100.44667, 5.33411], [100.44448, 5.33646], [100.44708, 5.34236], [100.44847, 5.33547], [100.45336, 5.33756], [100.46897, 5.33463], [100.47648, 5.33015], [100.47801, 5.33449], [100.48232, 5.33603], [100.48014, 5.34214], [100.48271, 5.34529], [100.48, 5.34848], [100.48229, 5.35124], [100.4824, 5.35521], [100.47414, 5.35434], [100.47555, 5.35718], [100.47453, 5.35901], [100.47287, 5.35607], [100.47234, 5.35853], [100.46981, 5.35758], [100.46939, 5.36067], [100.46784, 5.36079], [100.47053, 5.36325], [100.47052, 5.36557], [100.47249, 5.36578], [100.47208, 5.37079], [100.47624, 5.37407], [100.47616, 5.37816], [100.47407, 5.37951], [100.47688, 5.38054], [100.4761, 5.38221], [100.48119, 5.38617], [100.48871, 5.38856], [100.4906, 5.38633]]]]}}, {"type": "Feature", "properties": {"state": "Pulau Pinang", "seat": "N.15 Padang Lalang", "seat_name": "Padang Lalang"}, "geometry": {"type": "MultiPolygon", "coordinates": [[[[100.45866, 5.36788], [100.46337, 5.36189], [100.46494, 5.36239], [100.46646, 5.35795], [100.46375, 5.35727], [100.46384, 5.35387], [100.46846, 5.3421], [100.4685, 5.33471], [100.45336, 5.33756], [100.44847, 5.33547], [100.44708, 5.34236], [100.44448, 5.33646], [100.44667, 5.33411], [100.44647, 5.33267], [100.43977, 5.33935], [100.44405, 5.35072], [100.43986, 5.35054], [100.43574, 5.35329], [100.43878, 5.357], [100.43903, 5.3617], [100.43768, 5.3621], [100.44065, 5.36676], [100.45022, 5.36598], [100.45404, 5.36887], [100.45866, 5.36788]]]]}}, {"type": "Feature", "properties": {"state": "Pulau Pinang", "seat": "N.16 Perai", "seat_name": "Perai"}, "geometry": {"type": "MultiPolygon", "coordinates": [[[[100.39351, 5.39727], [100.39462, 5.39156], [100.39883, 5.38886], [100.3949, 5.38071], [100.40361, 5.37608], [100.39467, 5.35899], [100.3917, 5.35463], [100.38883, 5.35371], [100.37829, 5.36857], [100.37661, 5.36812], [100.37369, 5.3752], [100.37135, 5.37387], [100.36671, 5.38222], [100.36519, 5.38247], [100.37531, 5.38794], [100.37866, 5.39641], [100.39351, 5.39727]]]]}}, {"type": "Feature", "properties": {"state": "Pulau Pinang", "seat": "N.17 Bukit Tengah", "seat_name": "Bukit Tengah"}, "geometry": {"type": "MultiPolygon", "coordinates": [[[[100.40847, 5.37355], [100.40622, 5.37053], [100.42754, 5.36241], [100.43161, 5.3626], [100.43993, 5.36643], [100.43768, 5.3621], [100.43903, 5.3617], [100.43878, 5.357], [100.43574, 5.35329], [100.43986, 5.35054], [100.44405, 5.35072], [100.43977, 5.33935], [100.44739, 5.33158], [100.44909, 5.32331], [100.45616, 5.32008], [100.45679, 5.31689], [100.46199, 5.31582], [100.47694, 5.30074], [100.47927, 5.29406], [100.47743, 5.28898], [100.4739, 5.28957], [100.47083, 5.28668], [100.47247, 5.29065], [100.47149, 5.29287], [100.46869, 5.28931], [100.46544, 5.29161], [100.465, 5.2905], [100.46958, 5.28678], [100.4691, 5.28549], [100.46015, 5.2863], [100.45569, 5.28306], [100.45349, 5.28387], [100.45219, 5.28869], [100.44957, 5.28474], [100.44546, 5.28569], [100.44332, 5.28456], [100.44274, 5.27737], [100.43714, 5.27577], [100.43489, 5.27611], [100.43372, 5.28272], [100.42999, 5.28568], [100.41605, 5.28275], [100.41373, 5.28756], [100.40933, 5.31183], [100.40083, 5.31801], [100.4006, 5.324], [100.40388, 5.3295], [100.40441, 5.3368], [100.40634, 5.33983], [100.38883, 5.35371], [100.3917, 5.35463], [100.39467, 5.35899], [100.40361, 5.37608], [100.40847, 5.37355]]]]}}, {"type": "Feature", "properties": {"state": "Pulau Pinang", "seat": "N.18 Bukit Tambun", "seat_name": "Bukit Tambun"}, "geometry": {"type": "MultiPolygon", "coordinates": [[[[100.38581, 5.25643], [100.38377, 5.25708], [100.38414, 5.2618], [100.3881, 5.26518], [100.38899, 5.26987], [100.39127, 5.26887], [100.39226, 5.26615], [100.39118, 5.26243], [100.38581, 5.25643]]], [[[100.38742, 5.28615], [100.38844, 5.27167], [100.38577, 5.267], [100.38431, 5.27419], [100.38715, 5.2782], [100.38542, 5.2801], [100.38742, 5.28615]]], [[[100.47929, 5.29358], [100.48281, 5.29161], [100.47837, 5.27882], [100.48246, 5.2601], [100.50189, 5.24995], [100.49595, 5.24267], [100.49781, 5.24048], [100.50638, 5.24014], [100.51746, 5.24228], [100.51811, 5.24074], [100.51584, 5.23772], [100.51938, 5.23521], [100.51782, 5.23061], [100.51645, 5.23085], [100.51638, 5.22498], [100.50858, 5.21654], [100.50336, 5.21971], [100.50482, 5.22157], [100.50633, 5.2212], [100.50595, 5.22231], [100.50311, 5.22232], [100.49967, 5.22492], [100.4916, 5.2231], [100.4914, 5.21977], [100.48784, 5.22049], [100.48736, 5.21658], [100.48454, 5.21844], [100.48006, 5.217], [100.47964, 5.21364], [100.47704, 5.21506], [100.47694, 5.21855], [100.47367, 5.21855], [100.47464, 5.22189], [100.47082, 5.22148], [100.47341, 5.22439], [100.47012, 5.22483], [100.47139, 5.22885], [100.46747, 5.2284], [100.46409, 5.23163], [100.45958, 5.2292], [100.45887, 5.22348], [100.45404, 5.22251], [100.44514, 5.21284], [100.42443, 5.20879], [100.42469, 5.22357], [100.41982, 5.24164], [100.41191, 5.26052], [100.40682, 5.26246], [100.40591, 5.26502], [100.41462, 5.27538], [100.41605, 5.28275], [100.42999, 5.28568], [100.43372, 5.28272], [100.43496, 5.27603], [100.43917, 5.27603], [100.44274, 5.27737], [100.44275, 5.28379], [100.44498, 5.28561], [100.44957, 5.28474], [100.45252, 5.28872], [100.4528, 5.28513], [100.45476, 5.28305], [100.46015, 5.2863], [100.46864, 5.28513], [100.46958, 5.28678], [100.46501, 5.29135], [100.46869, 5.28931], [100.47149, 5.29287], [100.47242, 5.29019], [100.47058, 5.28704], [100.47187, 5.28663], [100.4739, 5.28957], [100.47743, 5.28898], [100.47929, 5.29358]]]]}}, {"type": "Feature", "properties": {"state": "Pulau Pinang", "seat": "N.19 Jawi", "seat_name": "Jawi"}, "geometry": {"type": "MultiPolygon", "coordinates": [[[[100.46757, 5.22838], [100.47139, 5.22885], [100.47012, 5.22483], [100.47341, 5.22439], [100.47082, 5.22148], [100.47464, 5.22189], [100.47364, 5.2186], [100.47694, 5.21855], [100.47704, 5.21506], [100.47939, 5.2137], [100.48063, 5.21429], [100.48006, 5.217], [100.48454, 5.21844], [100.48736, 5.21658], [100.48784, 5.22049], [100.4914, 5.21977], [100.49182, 5.2232], [100.49616, 5.22357], [100.49796, 5.22058], [100.49668, 5.20345], [100.50039, 5.19836], [100.49721, 5.19578], [100.49717, 5.18606], [100.50095, 5.17973], [100.50191, 5.18058], [100.50627, 5.17626], [100.50532, 5.17529], [100.50707, 5.17228], [100.50448, 5.16378], [100.50126, 5.16162], [100.50032, 5.1589], [100.50281, 5.1581], [100.50027, 5.15232], [100.49368, 5.15993], [100.48573, 5.15832], [100.48133, 5.16375], [100.47857, 5.16425], [100.47509, 5.16218], [100.47391, 5.1568], [100.46977, 5.15316], [100.46839, 5.14761], [100.46568, 5.14682], [100.46333, 5.1498], [100.46368, 5.15648], [100.46219, 5.15926], [100.44702, 5.15644], [100.44456, 5.15718], [100.44443, 5.15984], [100.44884, 5.16644], [100.44795, 5.16992], [100.43812, 5.17321], [100.43153, 5.16681], [100.42903, 5.16663], [100.42425, 5.16894], [100.42396, 5.1728], [100.41612, 5.17626], [100.42058, 5.18592], [100.42049, 5.20076], [100.4224, 5.20701], [100.42447, 5.20884], [100.44386, 5.21212], [100.45421, 5.22264], [100.45895, 5.22356], [100.46016, 5.22982], [100.46409, 5.23163], [100.46757, 5.22838]]]]}}, {"type": "Feature", "properties": {"state": "Pulau Pinang", "seat": "N.20 Sungai Bakap", "seat_name": "Sungai Bakap"}, "geometry": {"type": "MultiPolygon", "coordinates": [[[[100.50543, 5.29818], [100.51114, 5.29781], [100.51171, 5.29659], [100.51821, 5.29896], [100.52326, 5.29778], [100.52988, 5.29104], [100.53139, 5.29135], [100.53153, 5.28804], [100.53382, 5.28548], [100.55048, 5.14304], [100.5435, 5.13852], [100.53985, 5.138], [100.50754, 5.1453], [100.49971, 5.14104], [100.49864, 5.14255], [100.50206, 5.14719], [100.50027, 5.15232], [100.50281, 5.1581], [100.50032, 5.1589], [100.50126, 5.16162], [100.50448, 5.16378], [100.50707, 5.17228], [100.50532, 5.17529], [100.50627, 5.17626], [100.50191, 5.18058], [100.50095, 5.17973], [100.49717, 5.18606], [100.49721, 5.19578], [100.50039, 5.19836], [100.49676, 5.20277], [100.49809, 5.22004], [100.49618, 5.22354], [100.49967, 5.22492], [100.50311, 5.22232], [100.50513, 5.22272], [100.50633, 5.2212], [100.50337, 5.22073], [100.5038, 5.21897], [100.50704, 5.21678], [100.50973, 5.21707], [100.51638, 5.22498], [100.51645, 5.23085], [100.51782, 5.23061], [100.51938, 5.23521], [100.51584, 5.23772], [100.51811, 5.24074], [100.51746, 5.24228], [100.50638, 5.24014], [100.49735, 5.24091], [100.49595, 5.24267], [100.50189, 5.24995], [100.48246, 5.2601], [100.47839, 5.27947], [100.48281, 5.29161], [100.49143, 5.29111], [100.50055, 5.29546], [100.50336, 5.29893], [100.50543, 5.29818]]]]}}, {"type": "Feature", "properties": {"state": "Pulau Pinang", "seat": "N.21 Sungai Acheh", "seat_name": "Sungai Acheh"}, "geometry": {"type": "MultiPolygon", "coordinates": [[[[100.44888, 5.16665], [100.44443, 5.15984], [100.44456, 5.15718], [100.44702, 5.15644], [100.46219, 5.15926], [100.46368, 5.15648], [100.4633, 5.14991], [100.46548, 5.14688], [100.46851, 5.14779], [100.46977, 5.15316], [100.47391, 5.1568], [100.47509, 5.16218], [100.4792, 5.16426], [100.48157, 5.16354], [100.48556, 5.15837], [100.49395, 5.15976], [100.50088, 5.15148], [100.50197, 5.14678], [100.49479, 5.13904], [100.49218, 5.13288], [100.40666, 5.12209], [100.40397, 5.1224], [100.4, 5.12576], [100.40883, 5.14843], [100.41145, 5.1505], [100.41116, 5.15359], [100.41867, 5.16442], [100.42425, 5.16894], [100.43135, 5.16669], [100.43823, 5.17322], [100.44795, 5.16992], [100.44888, 5.16665]]]]}}, {"type": "Feature", "properties": {"state": "Pulau Pinang", "seat": "N.22 Tanjong Bunga", "seat_name": "Tanjong Bunga"}, "geometry": {"type": "MultiPolygon", "coordinates": [[[[100.25569, 5.4828], [100.2577, 5.48135], [100.25969, 5.48198], [100.26231, 5.47836], [100.26676, 5.47764], [100.27004, 5.47918], [100.27463, 5.47803], [100.27757, 5.47501], [100.27762, 5.46851], [100.28085, 5.46685], [100.28028, 5.466], [100.29242, 5.46896], [100.29541, 5.46538], [100.30789, 5.46434], [100.30854, 5.46165], [100.31397, 5.4615], [100.31417, 5.45441], [100.31179, 5.44743], [100.30909, 5.44486], [100.30904, 5.44953], [100.30652, 5.4508], [100.30666, 5.45584], [100.30277, 5.45777], [100.30066, 5.45707], [100.29884, 5.45931], [100.29857, 5.45743], [100.29254, 5.45693], [100.29238, 5.45479], [100.28936, 5.45264], [100.28157, 5.45309], [100.28175, 5.45037], [100.27673, 5.44853], [100.27465, 5.45075], [100.27703, 5.45662], [100.27007, 5.45002], [100.26389, 5.44089], [100.25876, 5.43832], [100.25796, 5.44817], [100.2509, 5.45081], [100.24545, 5.44856], [100.24137, 5.45077], [100.23938, 5.45533], [100.24154, 5.45664], [100.24217, 5.46245], [100.24176, 5.46367], [100.23917, 5.46295], [100.23735, 5.46478], [100.24179, 5.46666], [100.24044, 5.46759], [100.2447, 5.47164], [100.24546, 5.4708], [100.24475, 5.47178], [100.25569, 5.4828]]]]}}, {"type": "Feature", "properties": {"state": "Pulau Pinang", "seat": "N.23 Air Putih", "seat_name": "Air Putih"}, "geometry": {"type": "MultiPolygon", "coordinates": [[[[100.27482, 5.45016], [100.27681, 5.44833], [100.27583, 5.44397], [100.27273, 5.44121], [100.2765, 5.43773], [100.27972, 5.44033], [100.28085, 5.4391], [100.28008, 5.42892], [100.28297, 5.42911], [100.28548, 5.42523], [100.28552, 5.42063], [100.28361, 5.41976], [100.2842, 5.41508], [100.29351, 5.40796], [100.29725, 5.40953], [100.298, 5.4076], [100.29136, 5.40479], [100.28527, 5.40444], [100.28304, 5.40572], [100.27067, 5.39773], [100.26677, 5.3968], [100.2663, 5.39803], [100.26193, 5.39551], [100.25335, 5.38538], [100.25364, 5.38128], [100.25686, 5.38031], [100.25639, 5.37886], [100.25407, 5.37713], [100.2507, 5.37736], [100.25026, 5.37954], [100.2481, 5.38037], [100.24949, 5.38192], [100.24447, 5.38542], [100.24227, 5.38073], [100.24056, 5.38876], [100.23504, 5.39491], [100.24296, 5.40609], [100.24151, 5.40803], [100.24156, 5.41375], [100.24752, 5.41575], [100.24697, 5.41772], [100.24394, 5.41827], [100.24267, 5.41614], [100.24191, 5.41814], [100.24181, 5.42133], [100.24374, 5.42184], [100.24356, 5.42614], [100.2384, 5.44515], [100.24137, 5.45077], [100.24545, 5.44856], [100.2509, 5.45081], [100.25454, 5.44993], [100.25796, 5.44817], [100.2585, 5.43908], [100.2607, 5.4383], [100.27703, 5.45662], [100.27482, 5.45016]]]]}}, {"type": "Feature", "properties": {"state": "Pulau Pinang", "seat": "N.24 Kebun Bunga", "seat_name": "Kebun Bunga"}, "geometry": {"type": "MultiPolygon", "coordinates": [[[[100.3006, 5.45766], [100.30689, 5.45529], [100.30558, 5.4512], [100.30193, 5.45261], [100.30265, 5.44527], [100.29959, 5.44516], [100.30026, 5.44126], [100.2976, 5.43919], [100.29769, 5.43295], [100.30318, 5.42331], [100.30334, 5.42158], [100.30088, 5.4197], [100.30266, 5.40796], [100.298, 5.4076], [100.29725, 5.40953], [100.29351, 5.40796], [100.28776, 5.41144], [100.28811, 5.41278], [100.28333, 5.41699], [100.28368, 5.41992], [100.28552, 5.42063], [100.28548, 5.42523], [100.28297, 5.42911], [100.28008, 5.42892], [100.28085, 5.4391], [100.27972, 5.44033], [100.2765, 5.43773], [100.27273, 5.44121], [100.27512, 5.44253], [100.27673, 5.44853], [100.28175, 5.45037], [100.28157, 5.45309], [100.28936, 5.45264], [100.29358, 5.45756], [100.29857, 5.45743], [100.29884, 5.45931], [100.3006, 5.45766]]]]}}, {"type": "Feature", "properties": {"state": "Pulau Pinang", "seat": "N.25 Pulau Tikus", "seat_name": "Pulau Tikus"}, "geometry": {"type": "MultiPolygon", "coordinates": [[[[100.30648, 5.45164], [100.30929, 5.4405], [100.32116, 5.42977], [100.31679, 5.42442], [100.31603, 5.41286], [100.30534, 5.41863], [100.29769, 5.43295], [100.2976, 5.43919], [100.30026, 5.44126], [100.29959, 5.44516], [100.30265, 5.44527], [100.30193, 5.45261], [100.30558, 5.4512], [100.30606, 5.45304], [100.30648, 5.45164]]]]}}, {"type": "Feature", "properties": {"state": "Pulau Pinang", "seat": "N.26 Padang Kota", "seat_name": "Padang Kota"}, "geometry": {"type": "MultiPolygon", "coordinates": [[[[100.3219, 5.42899], [100.33098, 5.42413], [100.34476, 5.42159], [100.34583, 5.42013], [100.346, 5.41683], [100.34537, 5.41864], [100.34309, 5.41423], [100.34128, 5.41669], [100.33827, 5.4146], [100.33748, 5.41639], [100.33022, 5.42007], [100.32897, 5.41768], [100.32721, 5.41919], [100.32479, 5.41594], [100.3194, 5.41847], [100.31704, 5.4198], [100.31679, 5.42442], [100.32116, 5.42977], [100.3219, 5.42899]]]]}}, {"type": "Feature", "properties": {"state": "Pulau Pinang", "seat": "N.27 Pengkalan Kota", "seat_name": "Pengkalan Kota"}, "geometry": {"type": "MultiPolygon", "coordinates": [[[[100.34274, 5.41359], [100.34326, 5.41231], [100.34146, 5.41323], [100.3406, 5.41114], [100.3392, 5.41241], [100.33735, 5.4107], [100.3383, 5.40905], [100.33505, 5.40287], [100.32603, 5.40441], [100.32864, 5.41413], [100.33172, 5.41261], [100.33326, 5.41426], [100.33586, 5.41265], [100.34128, 5.41669], [100.34274, 5.41359]]]]}}, {"type": "Feature", "properties": {"state": "Pulau Pinang", "seat": "N.28 Komtar", "seat_name": "Komtar"}, "geometry": {"type": "MultiPolygon", "coordinates": [[[[100.33369, 5.41804], [100.33827, 5.4146], [100.33586, 5.41265], [100.33326, 5.41426], [100.33172, 5.41261], [100.32864, 5.41413], [100.32563, 5.40428], [100.32592, 5.40784], [100.32351, 5.40819], [100.32387, 5.41249], [100.31603, 5.41286], [100.31704, 5.4198], [100.32479, 5.41594], [100.32721, 5.41919], [100.32897, 5.41768], [100.33022, 5.42007], [100.33369, 5.41804]]]]}}, {"type": "Feature", "properties": {"state": "Pulau Pinang", "seat": "N.29 Datok Keramat", "seat_name": "Datok Keramat"}, "geometry": {"type": "MultiPolygon", "coordinates": [[[[100.31572, 5.41298], [100.32387, 5.41249], [100.32351, 5.40819], [100.31597, 5.41029], [100.32214, 5.40355], [100.32109, 5.40251], [100.31846, 5.40166], [100.31539, 5.40375], [100.30395, 5.40183], [100.30088, 5.4197], [100.30334, 5.42158], [100.3057, 5.41824], [100.31572, 5.41298]]]]}}, {"type": "Feature", "properties": {"state": "Pulau Pinang", "seat": "N.30 Sungai Pinang", "seat_name": "Sungai Pinang"}, "geometry": {"type": "MultiPolygon", "coordinates": [[[[100.31826, 5.40895], [100.32567, 5.40811], [100.32538, 5.40437], [100.32909, 5.40415], [100.33281, 5.40112], [100.32961, 5.39828], [100.33036, 5.39746], [100.32794, 5.3968], [100.329, 5.39658], [100.32885, 5.3962], [100.32595, 5.39594], [100.32653, 5.3933], [100.32571, 5.39168], [100.32415, 5.39309], [100.3179, 5.37891], [100.31319, 5.38026], [100.30785, 5.37937], [100.30829, 5.38341], [100.31241, 5.38657], [100.3132, 5.39119], [100.3191, 5.39722], [100.31491, 5.39936], [100.31539, 5.40375], [100.31846, 5.40166], [100.32214, 5.40355], [100.31597, 5.41029], [100.31826, 5.40895]]]]}}, {"type": "Feature", "properties": {"state": "Pulau Pinang", "seat": "N.31 Batu Lancang", "seat_name": "Batu Lancang"}, "geometry": {"type": "MultiPolygon", "coordinates": [[[[100.31523, 5.40322], [100.31491, 5.39936], [100.3191, 5.39722], [100.3132, 5.39119], [100.31241, 5.38657], [100.30829, 5.38341], [100.30785, 5.37937], [100.30245, 5.39114], [100.30395, 5.40183], [100.31523, 5.40322]]]]}}, {"type": "Feature", "properties": {"state": "Pulau Pinang", "seat": "N.32 Seri Delima", "seat_name": "Seri Delima"}, "geometry": {"type": "MultiPolygon", "coordinates": [[[[100.29729, 5.40002], [100.30368, 5.39867], [100.30245, 5.39114], [100.30785, 5.37937], [100.31319, 5.38026], [100.3179, 5.37891], [100.31412, 5.3666], [100.31489, 5.36528], [100.31501, 5.36741], [100.31786, 5.36676], [100.31725, 5.36032], [100.31319, 5.35642], [100.31382, 5.36157], [100.31107, 5.36298], [100.31008, 5.36876], [100.30314, 5.36845], [100.29861, 5.37358], [100.30007, 5.37496], [100.29684, 5.37897], [100.29888, 5.38371], [100.2979, 5.38621], [100.29452, 5.38707], [100.29123, 5.38495], [100.28829, 5.38621], [100.29277, 5.39199], [100.29088, 5.39624], [100.29729, 5.40002]]]]}}, {"type": "Feature", "properties": {"state": "Pulau Pinang", "seat": "N.33 Air Itam", "seat_name": "Air Itam"}, "geometry": {"type": "MultiPolygon", "coordinates": [[[[100.30276, 5.40758], [100.30368, 5.39867], [100.29705, 5.4006], [100.29488, 5.39778], [100.29194, 5.39749], [100.29099, 5.39523], [100.28961, 5.39622], [100.28818, 5.3937], [100.28361, 5.39372], [100.28011, 5.39565], [100.27803, 5.39487], [100.27675, 5.39626], [100.27558, 5.39418], [100.27253, 5.3952], [100.27502, 5.40054], [100.28304, 5.40572], [100.28527, 5.40444], [100.29136, 5.40479], [100.29816, 5.40771], [100.30276, 5.40758]]]]}}, {"type": "Feature", "properties": {"state": "Pulau Pinang", "seat": "N.34 Paya Terubong", "seat_name": "Paya Terubong"}, "geometry": {"type": "MultiPolygon", "coordinates": [[[[100.27487, 5.40026], [100.27253, 5.3952], [100.27558, 5.39418], [100.27675, 5.39626], [100.27803, 5.39487], [100.28011, 5.39565], [100.28361, 5.39372], [100.28818, 5.3937], [100.28961, 5.39622], [100.29267, 5.39431], [100.29277, 5.39199], [100.28829, 5.38621], [100.29123, 5.38495], [100.29452, 5.38707], [100.29885, 5.38491], [100.2969, 5.38032], [100.29817, 5.37716], [100.29476, 5.37638], [100.29339, 5.37239], [100.2953, 5.37295], [100.29684, 5.37113], [100.29598, 5.36548], [100.29251, 5.36619], [100.29209, 5.36211], [100.28836, 5.35774], [100.29296, 5.35667], [100.29157, 5.34951], [100.29233, 5.34482], [100.2878, 5.3399], [100.2817, 5.34257], [100.28311, 5.34041], [100.27952, 5.33652], [100.27968, 5.33076], [100.27719, 5.33027], [100.27475, 5.33584], [100.27036, 5.3376], [100.26784, 5.34273], [100.26429, 5.34555], [100.26323, 5.35062], [100.25875, 5.35247], [100.25856, 5.36647], [100.25543, 5.36845], [100.25884, 5.37367], [100.25875, 5.37747], [100.25692, 5.37804], [100.2583, 5.38107], [100.25756, 5.38248], [100.25368, 5.38123], [100.25322, 5.38432], [100.26155, 5.39526], [100.27487, 5.40026]]]]}}, {"type": "Feature", "properties": {"state": "Pulau Pinang", "seat": "N.35 Batu Uban", "seat_name": "Batu Uban"}, "geometry": {"type": "MultiPolygon", "coordinates": [[[[100.29941, 5.37302], [100.30314, 5.36845], [100.31008, 5.36876], [100.31107, 5.36298], [100.31382, 5.36157], [100.31319, 5.35642], [100.31725, 5.36032], [100.31255, 5.34023], [100.30749, 5.34249], [100.30892, 5.34596], [100.30401, 5.34712], [100.3004, 5.34214], [100.29862, 5.34318], [100.29834, 5.33749], [100.29527, 5.33266], [100.28865, 5.33294], [100.27968, 5.33076], [100.27952, 5.33652], [100.28311, 5.34041], [100.2817, 5.34257], [100.2878, 5.3399], [100.29233, 5.34482], [100.29157, 5.34951], [100.29296, 5.35667], [100.28836, 5.35774], [100.29209, 5.36211], [100.29251, 5.36619], [100.29598, 5.36548], [100.29684, 5.37113], [100.2953, 5.37295], [100.29339, 5.37239], [100.29476, 5.37638], [100.29817, 5.37716], [100.30007, 5.37496], [100.29941, 5.37302]]]]}}, {"type": "Feature", "properties": {"state": "Pulau Pinang", "seat": "N.36 Pantai Jerejak", "seat_name": "Pantai Jerejak"}, "geometry": {"type": "MultiPolygon", "coordinates": [[[[100.3218, 5.33603], [100.32356, 5.33548], [100.32337, 5.3321], [100.32683, 5.32628], [100.32462, 5.32191], [100.32515, 5.31802], [100.31647, 5.31287], [100.31574, 5.31403], [100.31382, 5.31324], [100.31251, 5.31121], [100.31357, 5.30599], [100.31193, 5.30221], [100.30932, 5.30135], [100.30696, 5.31264], [100.30985, 5.31569], [100.31224, 5.32487], [100.31509, 5.32677], [100.31771, 5.33282], [100.31984, 5.33313], [100.3218, 5.33603]]], [[[100.30514, 5.34697], [100.30892, 5.34596], [100.30749, 5.34249], [100.31255, 5.34023], [100.30854, 5.32913], [100.30128, 5.31618], [100.29809, 5.30344], [100.29162, 5.31558], [100.27794, 5.3199], [100.27836, 5.32148], [100.28129, 5.32071], [100.28166, 5.3273], [100.27817, 5.32788], [100.28019, 5.33088], [100.28865, 5.33294], [100.29527, 5.33266], [100.29834, 5.33749], [100.29862, 5.34318], [100.3004, 5.34214], [100.30277, 5.3466], [100.30514, 5.34697]]]]}}, {"type": "Feature", "properties": {"state": "Pulau Pinang", "seat": "N.37 Batu Maung", "seat_name": "Batu Maung"}, "geometry": {"type": "MultiPolygon", "coordinates": [[[[100.27639, 5.25037], [100.27551, 5.244], [100.27322, 5.24619], [100.26982, 5.24508], [100.26867, 5.24862], [100.27044, 5.24999], [100.27317, 5.24835], [100.27639, 5.25037]]], [[[100.28142, 5.323], [100.28129, 5.32071], [100.27836, 5.32148], [100.27794, 5.3199], [100.29162, 5.31558], [100.29809, 5.30344], [100.29701, 5.29642], [100.2905, 5.28542], [100.291, 5.27995], [100.28655, 5.27601], [100.28256, 5.26944], [100.28178, 5.26428], [100.28323, 5.25913], [100.28062, 5.25723], [100.27514, 5.25742], [100.27262, 5.2627], [100.27313, 5.26481], [100.26882, 5.26945], [100.26729, 5.2736], [100.25531, 5.28025], [100.25805, 5.28232], [100.25861, 5.28559], [100.26304, 5.28976], [100.26479, 5.29418], [100.27164, 5.29578], [100.27534, 5.30009], [100.27006, 5.30151], [100.26898, 5.3048], [100.26452, 5.30737], [100.26555, 5.30979], [100.26379, 5.31201], [100.25578, 5.31359], [100.25988, 5.32163], [100.25846, 5.32315], [100.26617, 5.32538], [100.2717, 5.32271], [100.27189, 5.32646], [100.27389, 5.32911], [100.28019, 5.33088], [100.27817, 5.32788], [100.28166, 5.3273], [100.28142, 5.323]]]]}}, {"type": "Feature", "properties": {"state": "Pulau Pinang", "seat": "N.38 Bayan Lepas", "seat_name": "Bayan Lepas"}, "geometry": {"type": "MultiPolygon", "coordinates": [[[[100.18135, 5.23668], [100.1796, 5.22771], [100.177, 5.22482], [100.17828, 5.23009], [100.17652, 5.23258], [100.17941, 5.23635], [100.18135, 5.23668]]], [[[100.26204, 5.35162], [100.26429, 5.34555], [100.26784, 5.34273], [100.27036, 5.3376], [100.27475, 5.33584], [100.27719, 5.33027], [100.27306, 5.3286], [100.2717, 5.32271], [100.26617, 5.32538], [100.25846, 5.32315], [100.25988, 5.32163], [100.25578, 5.31359], [100.26379, 5.31201], [100.26555, 5.30979], [100.26452, 5.30737], [100.26898, 5.3048], [100.27006, 5.30151], [100.27534, 5.30009], [100.27164, 5.29578], [100.26579, 5.29513], [100.26295, 5.29212], [100.26304, 5.28976], [100.25861, 5.28559], [100.25805, 5.28232], [100.25307, 5.279], [100.248, 5.27907], [100.24721, 5.27471], [100.24498, 5.27348], [100.23868, 5.28329], [100.22548, 5.28803], [100.22305, 5.28555], [100.22397, 5.28358], [100.2219, 5.28008], [100.21637, 5.28246], [100.20945, 5.28214], [100.20943, 5.28034], [100.20684, 5.27876], [100.20315, 5.27898], [100.19817, 5.28238], [100.18913, 5.281], [100.18552, 5.27516], [100.18646, 5.26871], [100.18491, 5.2669], [100.18169, 5.27125], [100.18128, 5.27769], [100.17862, 5.27902], [100.17766, 5.28256], [100.18047, 5.28757], [100.18012, 5.28974], [100.18421, 5.29509], [100.18501, 5.30007], [100.18282, 5.30491], [100.18448, 5.30556], [100.1894, 5.30342], [100.19112, 5.29794], [100.1947, 5.2975], [100.19628, 5.29571], [100.19844, 5.29723], [100.19951, 5.29336], [100.20234, 5.29153], [100.2091, 5.29796], [100.21636, 5.30018], [100.21756, 5.3051], [100.22103, 5.30721], [100.22042, 5.30882], [100.22376, 5.31204], [100.22684, 5.31165], [100.22763, 5.31502], [100.233, 5.31564], [100.23582, 5.31942], [100.23435, 5.32266], [100.23984, 5.32496], [100.24038, 5.32871], [100.24453, 5.33035], [100.24763, 5.33866], [100.25092, 5.33912], [100.2489, 5.34042], [100.2512, 5.35061], [100.25432, 5.35207], [100.26204, 5.35162]]]]}}, {"type": "Feature", "properties": {"state": "Pulau Pinang", "seat": "N.39 Pulau Betong", "seat_name": "Pulau Betong"}, "geometry": {"type": "MultiPolygon", "coordinates": [[[[100.18523, 5.31285], [100.18479, 5.3133], [100.18537, 5.31392], [100.18551, 5.31356], [100.18523, 5.31285]]], [[[100.18395, 5.31521], [100.18469, 5.31479], [100.1842, 5.31343], [100.18274, 5.31492], [100.18395, 5.31521]]], [[[100.23516, 5.39474], [100.24056, 5.38876], [100.24227, 5.38073], [100.24421, 5.3855], [100.24949, 5.38192], [100.2481, 5.38037], [100.25026, 5.37954], [100.2507, 5.37736], [100.25491, 5.3774], [100.25694, 5.38006], [100.25512, 5.38129], [100.258, 5.38183], [100.25692, 5.37804], [100.25875, 5.37747], [100.25884, 5.37367], [100.25543, 5.36845], [100.25856, 5.36647], [100.25875, 5.35247], [100.2609, 5.35222], [100.2512, 5.35061], [100.2489, 5.34042], [100.25092, 5.33912], [100.24763, 5.33866], [100.24453, 5.33035], [100.24038, 5.32871], [100.23984, 5.32496], [100.23435, 5.32266], [100.23582, 5.31942], [100.233, 5.31564], [100.22763, 5.31502], [100.22684, 5.31165], [100.22376, 5.31204], [100.22042, 5.30882], [100.22103, 5.30721], [100.21756, 5.3051], [100.21636, 5.30018], [100.2091, 5.29796], [100.20181, 5.29146], [100.19951, 5.29336], [100.19875, 5.29699], [100.19628, 5.29571], [100.1947, 5.2975], [100.19112, 5.29794], [100.1894, 5.30342], [100.18448, 5.30556], [100.18973, 5.30918], [100.19214, 5.30911], [100.19257, 5.30793], [100.19447, 5.30667], [100.1971, 5.31016], [100.19515, 5.3257], [100.19592, 5.3258], [100.19648, 5.32653], [100.1951, 5.32613], [100.19448, 5.33803], [100.19343, 5.33817], [100.19609, 5.33918], [100.19343, 5.33863], [100.19222, 5.3439], [100.20248, 5.3457], [100.21117, 5.34351], [100.21536, 5.36093], [100.21273, 5.36327], [100.2167, 5.3654], [100.21859, 5.36386], [100.22111, 5.36779], [100.22042, 5.36886], [100.21729, 5.36807], [100.21643, 5.37288], [100.2229, 5.37569], [100.22558, 5.37857], [100.22873, 5.38393], [100.22813, 5.38864], [100.23055, 5.39036], [100.23043, 5.39216], [100.23516, 5.39474]]]]}}, {"type": "Feature", "properties": {"state": "Pulau Pinang", "seat": "N.40 Telok Bahang", "seat_name": "Telok Bahang"}, "geometry": {"type": "MultiPolygon", "coordinates": [[[[100.18676, 5.47677], [100.18565, 5.47219], [100.18729, 5.47098], [100.19202, 5.47053], [100.19553, 5.47267], [100.19816, 5.46773], [100.20357, 5.46832], [100.20259, 5.46285], [100.20636, 5.46029], [100.21447, 5.46011], [100.2226, 5.46527], [100.22767, 5.46322], [100.22966, 5.46468], [100.23088, 5.46287], [100.23371, 5.46318], [100.23555, 5.46539], [100.24217, 5.46245], [100.24154, 5.45664], [100.23938, 5.45533], [100.24185, 5.45162], [100.2382, 5.44391], [100.24356, 5.42614], [100.24374, 5.42184], [100.24171, 5.42095], [100.24232, 5.41688], [100.24394, 5.41827], [100.24697, 5.41772], [100.24752, 5.41575], [100.24156, 5.41375], [100.24263, 5.40524], [100.23516, 5.39469], [100.23043, 5.39216], [100.23055, 5.39036], [100.22813, 5.38864], [100.22873, 5.38393], [100.22558, 5.37857], [100.2229, 5.37569], [100.21643, 5.37288], [100.21729, 5.36807], [100.22042, 5.36886], [100.22111, 5.36779], [100.21859, 5.36386], [100.2167, 5.3654], [100.21273, 5.36327], [100.21536, 5.36093], [100.21117, 5.34351], [100.20248, 5.3457], [100.19228, 5.3442], [100.19235, 5.34864], [100.19565, 5.35213], [100.19459, 5.35334], [100.19279, 5.35157], [100.19007, 5.35853], [100.18861, 5.37688], [100.19295, 5.3921], [100.19626, 5.392], [100.1912, 5.39418], [100.19681, 5.42025], [100.19601, 5.42225], [100.19245, 5.42209], [100.18883, 5.42406], [100.18927, 5.42938], [100.18768, 5.43099], [100.18338, 5.4305], [100.17711, 5.43383], [100.18101, 5.44135], [100.17799, 5.4448], [100.17972, 5.4486], [100.18246, 5.4494], [100.18425, 5.4543], [100.1816, 5.46053], [100.18199, 5.46564], [100.17746, 5.46774], [100.17531, 5.47181], [100.17683, 5.47542], [100.1797, 5.47692], [100.18576, 5.47818], [100.18676, 5.47677]]]]}}], "_provenance": {"source": "https://github.com/atifmustaffa/malaysia-geojson (malaysia.dun.geojson)", "licence": "MIT (c) 2026 Atif Mustaffa — see LICENSE in this directory", "downloaded": "2026-08-29", "simplification": "none (original coordinates)", "modified_by": "HitungKerusi 222 research pipeline (seat-name normalisation, per-state split)"}}