{"type": "FeatureCollection", "features": [{"type": "Feature", "properties": {"state": "Terengganu", "seat": "N.01 Kuala Besut", "seat_name": "Kuala Besut"}, "geometry": {"type": "MultiPolygon", "coordinates": [[[[102.55888, 5.80504], [102.55802, 5.80215], [102.55453, 5.80062], [102.55126, 5.8047], [102.54865, 5.80443], [102.54776, 5.80228], [102.54958, 5.79921], [102.5476, 5.79718], [102.54278, 5.79968], [102.5381, 5.79562], [102.52715, 5.7927], [102.52668, 5.78886], [102.53138, 5.78318], [102.53041, 5.77996], [102.51976, 5.77849], [102.51299, 5.77221], [102.50122, 5.76805], [102.50136, 5.75979], [102.5074, 5.74948], [102.5069, 5.74694], [102.50335, 5.74404], [102.49378, 5.74063], [102.48915, 5.74366], [102.48888, 5.74569], [102.48217, 5.74619], [102.48245, 5.74736], [102.47672, 5.74983], [102.47632, 5.74878], [102.46715, 5.75177], [102.46741, 5.75368], [102.46431, 5.754], [102.46308, 5.75065], [102.46008, 5.75166], [102.46054, 5.75416], [102.46234, 5.75418], [102.46141, 5.75949], [102.45963, 5.76008], [102.45955, 5.76248], [102.4564, 5.76341], [102.48805, 5.79055], [102.53545, 5.8458], [102.54918, 5.83655], [102.5601, 5.83147], [102.55854, 5.82668], [102.55986, 5.81787], [102.55888, 5.80504]]], [[[102.77069, 5.91163], [102.76959, 5.90154], [102.77329, 5.89396], [102.771, 5.88557], [102.76673, 5.88719], [102.76393, 5.88463], [102.75477, 5.89552], [102.74812, 5.89181], [102.74591, 5.88365], [102.74225, 5.8817], [102.74268, 5.88491], [102.73988, 5.88674], [102.7378, 5.8944], [102.73905, 5.90191], [102.73789, 5.90299], [102.74251, 5.90267], [102.74457, 5.90781], [102.74921, 5.91072], [102.75327, 5.91096], [102.76111, 5.92467], [102.76263, 5.92357], [102.76314, 5.91771], [102.768, 5.9152], [102.77069, 5.91163]]], [[[102.66706, 5.94175], [102.66772, 5.94139], [102.66753, 5.94082], [102.66662, 5.94151], [102.66706, 5.94175]]], [[[102.72238, 5.9396], [102.72865, 5.9387], [102.72784, 5.93407], [102.72391, 5.9339], [102.72273, 5.93134], [102.72287, 5.92874], [102.72713, 5.92519], [102.7272, 5.92348], [102.72275, 5.92108], [102.72234, 5.91766], [102.73103, 5.91129], [102.73336, 5.9055], [102.73244, 5.89807], [102.72744, 5.89279], [102.71628, 5.89558], [102.71483, 5.89759], [102.71499, 5.90876], [102.71693, 5.91447], [102.71536, 5.91498], [102.717, 5.91791], [102.71557, 5.92135], [102.71777, 5.9238], [102.71743, 5.92914], [102.71914, 5.93228], [102.7177, 5.93561], [102.72007, 5.93845], [102.72076, 5.94352], [102.72238, 5.9396]]], [[[102.66706, 5.94175], [102.66716, 5.94397], [102.66922, 5.94327], [102.66903, 5.94226], [102.66706, 5.94175]]], [[[102.669, 5.95914], [102.66957, 5.95915], [102.66973, 5.95884], [102.66834, 5.95938], [102.669, 5.95914]]], [[[102.65532, 5.96099], [102.65499, 5.96107], [102.65495, 5.9613], [102.65523, 5.96121], [102.65532, 5.96099]]], [[[102.66457, 5.9615], [102.66724, 5.9598], [102.66584, 5.9561], [102.66138, 5.95927], [102.66256, 5.96137], [102.66457, 5.9615]]], [[[102.67781, 5.96254], [102.67808, 5.9619], [102.67522, 5.9624], [102.67668, 5.96318], [102.67781, 5.96254]]], [[[102.68338, 5.95993], [102.68265, 5.95962], [102.68074, 5.9633], [102.68301, 5.96348], [102.68338, 5.95993]]], [[[102.66709, 5.96216], [102.66603, 5.96262], [102.66604, 5.96418], [102.66667, 5.96393], [102.66709, 5.96216]]], [[[102.66122, 5.96623], [102.66111, 5.96613], [102.66093, 5.96613], [102.66113, 5.96647], [102.66122, 5.96623]]]]}}, {"type": "Feature", "properties": {"state": "Terengganu", "seat": "N.02 Kota Putera", "seat_name": "Kota Putera"}, "geometry": {"type": "MultiPolygon", "coordinates": [[[[102.9846, 5.57131], [102.98443, 5.57131], [102.98452, 5.57148], [102.9846, 5.57131]]], [[[102.98547, 5.57162], [102.98491, 5.57149], [102.98482, 5.57205], [102.98525, 5.57215], [102.98547, 5.57162]]], [[[102.96783, 5.64026], [102.96722, 5.64043], [102.96778, 5.6422], [102.96861, 5.64043], [102.96783, 5.64026]]], [[[102.96781, 5.64233], [102.96734, 5.64237], [102.96768, 5.64289], [102.9678, 5.64267], [102.96781, 5.64233]]], [[[102.95536, 5.64462], [102.95488, 5.64464], [102.95476, 5.6448], [102.95511, 5.6451], [102.95536, 5.64462]]], [[[102.95473, 5.64549], [102.95428, 5.64578], [102.95476, 5.64633], [102.95507, 5.6458], [102.95473, 5.64549]]], [[[102.95394, 5.64672], [102.95368, 5.64689], [102.95412, 5.64711], [102.95416, 5.6469], [102.95394, 5.64672]]], [[[102.90503, 5.79135], [102.90401, 5.78786], [102.90187, 5.78715], [102.89276, 5.79101], [102.89269, 5.79632], [102.88973, 5.79853], [102.88979, 5.80163], [102.89241, 5.80184], [102.89832, 5.79692], [102.90008, 5.79327], [102.90503, 5.79135]]], [[[102.61581, 5.8289], [102.61456, 5.82785], [102.60876, 5.82763], [102.61059, 5.83147], [102.61311, 5.83232], [102.61581, 5.8289]]], [[[102.56419, 5.83177], [102.57708, 5.82059], [102.59359, 5.81302], [102.60462, 5.8024], [102.60783, 5.80138], [102.61446, 5.79395], [102.61398, 5.79128], [102.61184, 5.79098], [102.61724, 5.79101], [102.62251, 5.78295], [102.63151, 5.78019], [102.67183, 5.7241], [102.66849, 5.72219], [102.666, 5.72557], [102.66344, 5.72356], [102.66551, 5.72061], [102.66386, 5.71955], [102.66029, 5.72598], [102.64947, 5.7193], [102.64132, 5.72296], [102.64984, 5.71083], [102.64445, 5.70703], [102.63554, 5.71072], [102.63196, 5.70954], [102.63126, 5.71083], [102.63386, 5.71377], [102.62911, 5.72], [102.63129, 5.72132], [102.63322, 5.72026], [102.63142, 5.72296], [102.62855, 5.72198], [102.62766, 5.72403], [102.61946, 5.72646], [102.61257, 5.72591], [102.6102, 5.72429], [102.60695, 5.72616], [102.59409, 5.72558], [102.59229, 5.72766], [102.58607, 5.72249], [102.56731, 5.73264], [102.56947, 5.73852], [102.56458, 5.73879], [102.56532, 5.74104], [102.56686, 5.74159], [102.56743, 5.74501], [102.569, 5.74484], [102.56923, 5.74756], [102.57236, 5.7466], [102.5729, 5.74821], [102.56881, 5.75548], [102.56433, 5.75528], [102.56373, 5.75914], [102.5601, 5.76016], [102.56006, 5.75903], [102.55019, 5.76273], [102.53318, 5.77207], [102.52952, 5.77789], [102.53122, 5.78367], [102.52631, 5.7911], [102.52783, 5.79301], [102.53828, 5.79571], [102.54278, 5.79968], [102.54592, 5.79697], [102.54792, 5.79733], [102.54961, 5.79952], [102.54769, 5.80321], [102.54938, 5.80479], [102.55126, 5.8047], [102.55379, 5.80074], [102.55802, 5.80215], [102.55978, 5.81077], [102.55867, 5.82782], [102.5601, 5.83147], [102.56419, 5.83177]]]]}}, {"type": "Feature", "properties": {"state": "Terengganu", "seat": "N.03 Jertih", "seat_name": "Jertih"}, "geometry": {"type": "MultiPolygon", "coordinates": [[[[102.52934, 5.77932], [102.53361, 5.77175], [102.55019, 5.76273], [102.56006, 5.75903], [102.5601, 5.76016], [102.56373, 5.75914], [102.56433, 5.75528], [102.56881, 5.75548], [102.5729, 5.74821], [102.57236, 5.7466], [102.56923, 5.74756], [102.569, 5.74484], [102.56743, 5.74501], [102.56458, 5.73879], [102.5642, 5.74018], [102.56156, 5.74051], [102.55056, 5.74035], [102.54939, 5.73425], [102.54673, 5.7343], [102.54344, 5.73196], [102.54261, 5.72684], [102.5408, 5.72725], [102.5373, 5.71852], [102.53618, 5.70846], [102.53793, 5.70471], [102.52916, 5.70524], [102.5209, 5.69838], [102.51543, 5.70767], [102.51287, 5.70787], [102.51272, 5.71095], [102.5111, 5.71079], [102.50619, 5.71692], [102.50495, 5.72391], [102.50276, 5.72211], [102.49802, 5.72235], [102.49826, 5.72544], [102.49548, 5.72707], [102.49515, 5.72963], [102.49195, 5.73069], [102.49177, 5.72931], [102.48688, 5.72978], [102.48717, 5.73322], [102.47903, 5.72636], [102.47932, 5.72015], [102.47665, 5.71765], [102.47911, 5.71541], [102.47444, 5.71399], [102.47473, 5.71152], [102.47971, 5.70856], [102.4745, 5.70534], [102.47704, 5.69878], [102.47544, 5.69677], [102.46587, 5.69698], [102.46616, 5.69954], [102.4622, 5.69706], [102.45869, 5.69864], [102.45892, 5.70024], [102.39602, 5.69603], [102.39781, 5.69636], [102.39966, 5.70261], [102.40178, 5.70381], [102.40291, 5.70959], [102.41954, 5.72808], [102.43144, 5.74586], [102.4564, 5.76341], [102.45955, 5.76248], [102.45963, 5.76008], [102.46141, 5.75949], [102.46234, 5.75418], [102.46054, 5.75416], [102.46008, 5.75166], [102.46308, 5.75065], [102.46431, 5.754], [102.46741, 5.75368], [102.46715, 5.75177], [102.47632, 5.74878], [102.47672, 5.74983], [102.48245, 5.74736], [102.48217, 5.74619], [102.48888, 5.74569], [102.48915, 5.74366], [102.49378, 5.74063], [102.50335, 5.74404], [102.50735, 5.74792], [102.50653, 5.75255], [102.50136, 5.75979], [102.50122, 5.76805], [102.51299, 5.77221], [102.51976, 5.77849], [102.52934, 5.77932]]]]}}, {"type": "Feature", "properties": {"state": "Terengganu", "seat": "N.04 Hulu Besut", "seat_name": "Hulu Besut"}, "geometry": {"type": "MultiPolygon", "coordinates": [[[[102.48686, 5.7298], [102.49515, 5.72963], [102.49548, 5.72707], [102.49826, 5.72544], [102.49802, 5.72235], [102.50276, 5.72211], [102.50495, 5.72391], [102.50619, 5.71692], [102.5111, 5.71079], [102.51272, 5.71095], [102.51287, 5.70787], [102.51543, 5.70767], [102.52, 5.70034], [102.5209, 5.69838], [102.5181, 5.69616], [102.51941, 5.68749], [102.52507, 5.67672], [102.52327, 5.67374], [102.52781, 5.67087], [102.53034, 5.66164], [102.53155, 5.65944], [102.53269, 5.6601], [102.53017, 5.65703], [102.53358, 5.65528], [102.53478, 5.65611], [102.53499, 5.65149], [102.54071, 5.64466], [102.54808, 5.60817], [102.61572, 5.5777], [102.61572, 5.57021], [102.62135, 5.55892], [102.61909, 5.55222], [102.61315, 5.54588], [102.609, 5.536], [102.62244, 5.5218], [102.62211, 5.52027], [102.61859, 5.5166], [102.60514, 5.51292], [102.60267, 5.50978], [102.60296, 5.50657], [102.59603, 5.49028], [102.59121, 5.48833], [102.58853, 5.48459], [102.59451, 5.48087], [102.59324, 5.47618], [102.58781, 5.46935], [102.59642, 5.45271], [102.5944, 5.44837], [102.59496, 5.44548], [102.58833, 5.43832], [102.59271, 5.43653], [102.59234, 5.42903], [102.58538, 5.4254], [102.58195, 5.4205], [102.57741, 5.41857], [102.5826, 5.41539], [102.58819, 5.40103], [102.58752, 5.39602], [102.57906, 5.38966], [102.57638, 5.38435], [102.57855, 5.37808], [102.58231, 5.37696], [102.58537, 5.37062], [102.58253, 5.36818], [102.57433, 5.36637], [102.57077, 5.36924], [102.56604, 5.36952], [102.55565, 5.36375], [102.55242, 5.35919], [102.5479, 5.3573], [102.54404, 5.35792], [102.53639, 5.34135], [102.52971, 5.33469], [102.52524, 5.33238], [102.51073, 5.33612], [102.51053, 5.3381], [102.51389, 5.34206], [102.50685, 5.35049], [102.50053, 5.35279], [102.49348, 5.35197], [102.49133, 5.35397], [102.48894, 5.35341], [102.48374, 5.35658], [102.48147, 5.36037], [102.47113, 5.35826], [102.46736, 5.35569], [102.46636, 5.35139], [102.45868, 5.34914], [102.44539, 5.35582], [102.44436, 5.35938], [102.44116, 5.36152], [102.44225, 5.36395], [102.43923, 5.36944], [102.43571, 5.37151], [102.42987, 5.36962], [102.42921, 5.3728], [102.42663, 5.37353], [102.4237, 5.38243], [102.4197, 5.38631], [102.422, 5.39157], [102.42138, 5.39405], [102.41547, 5.39111], [102.40883, 5.39871], [102.40459, 5.39658], [102.39431, 5.40603], [102.3931, 5.41344], [102.38911, 5.41249], [102.38767, 5.41566], [102.38173, 5.41683], [102.38201, 5.42244], [102.38922, 5.42812], [102.39475, 5.42597], [102.39721, 5.42923], [102.39759, 5.43342], [102.40002, 5.43325], [102.40422, 5.4389], [102.40442, 5.44257], [102.39941, 5.45148], [102.40005, 5.45387], [102.39785, 5.45592], [102.39957, 5.46147], [102.3977, 5.46195], [102.39486, 5.47031], [102.38914, 5.47457], [102.39031, 5.49608], [102.3869, 5.50285], [102.3883, 5.52077], [102.39446, 5.5277], [102.39852, 5.53598], [102.40444, 5.54092], [102.40536, 5.54515], [102.39997, 5.5525], [102.40188, 5.55629], [102.40218, 5.56628], [102.39904, 5.57364], [102.39997, 5.57644], [102.39598, 5.58144], [102.39573, 5.59396], [102.3971, 5.59752], [102.39592, 5.60073], [102.39692, 5.60621], [102.39883, 5.60837], [102.39818, 5.61039], [102.40087, 5.61283], [102.39598, 5.6199], [102.39257, 5.62111], [102.39328, 5.62748], [102.38687, 5.63282], [102.38891, 5.64082], [102.38483, 5.6515], [102.38706, 5.65828], [102.38536, 5.66192], [102.38762, 5.66513], [102.38524, 5.66985], [102.38677, 5.67329], [102.38441, 5.67994], [102.38414, 5.69124], [102.38653, 5.69654], [102.39325, 5.69941], [102.39602, 5.69603], [102.45892, 5.70024], [102.45869, 5.69864], [102.4622, 5.69706], [102.46616, 5.69954], [102.46587, 5.69698], [102.47544, 5.69677], [102.47704, 5.69878], [102.4745, 5.70534], [102.47971, 5.70856], [102.47473, 5.71152], [102.47444, 5.71399], [102.47918, 5.71554], [102.47665, 5.71773], [102.47929, 5.72005], [102.4799, 5.72762], [102.48717, 5.73322], [102.48686, 5.7298]]]]}}, {"type": "Feature", "properties": {"state": "Terengganu", "seat": "N.05 Jabi", "seat_name": "Jabi"}, "geometry": {"type": "MultiPolygon", "coordinates": [[[[102.55795, 5.74056], [102.56947, 5.73852], [102.56731, 5.73264], [102.58607, 5.72249], [102.59229, 5.72766], [102.59409, 5.72558], [102.60695, 5.72616], [102.6102, 5.72429], [102.61257, 5.72591], [102.61946, 5.72646], [102.62766, 5.72403], [102.62855, 5.72198], [102.63142, 5.72296], [102.63322, 5.72026], [102.63129, 5.72132], [102.62911, 5.72], [102.63386, 5.71377], [102.63126, 5.71083], [102.63196, 5.70954], [102.63554, 5.71072], [102.64445, 5.70703], [102.64984, 5.71083], [102.66483, 5.68818], [102.66665, 5.67333], [102.66586, 5.65235], [102.6708, 5.64893], [102.66884, 5.6479], [102.66756, 5.64141], [102.66523, 5.63672], [102.66332, 5.63608], [102.66434, 5.6347], [102.6624, 5.63054], [102.65217, 5.62572], [102.64173, 5.60743], [102.64056, 5.59865], [102.63546, 5.59257], [102.61572, 5.5777], [102.54808, 5.60817], [102.54071, 5.64466], [102.53499, 5.65149], [102.53478, 5.65611], [102.53358, 5.65528], [102.53017, 5.65703], [102.53269, 5.6601], [102.53155, 5.65944], [102.53034, 5.66164], [102.52781, 5.67087], [102.52327, 5.67374], [102.52507, 5.67672], [102.51936, 5.68763], [102.51814, 5.69644], [102.52916, 5.70524], [102.53793, 5.70471], [102.5362, 5.71051], [102.5373, 5.71852], [102.5408, 5.72725], [102.54261, 5.72684], [102.54344, 5.73196], [102.54673, 5.7343], [102.54939, 5.73425], [102.55056, 5.74035], [102.55476, 5.73943], [102.55795, 5.74056]]]]}}, {"type": "Feature", "properties": {"state": "Terengganu", "seat": "N.06 Permaisuri", "seat_name": "Permaisuri"}, "geometry": {"type": "MultiPolygon", "coordinates": [[[[102.66231, 5.72159], [102.66386, 5.71955], [102.66551, 5.72061], [102.66344, 5.72356], [102.666, 5.72557], [102.66849, 5.72219], [102.67183, 5.7241], [102.69343, 5.70276], [102.72635, 5.67464], [102.76058, 5.65142], [102.77152, 5.64594], [102.79233, 5.62939], [102.84189, 5.58117], [102.85099, 5.57451], [102.86337, 5.56706], [102.86676, 5.56709], [102.89896, 5.54544], [102.91578, 5.53836], [102.93431, 5.53658], [102.91653, 5.53713], [102.90764, 5.54016], [102.91229, 5.5379], [102.91782, 5.53108], [102.92167, 5.53067], [102.93183, 5.53373], [102.94309, 5.53248], [102.94297, 5.53026], [102.94107, 5.52904], [102.93724, 5.5305], [102.93369, 5.52949], [102.93241, 5.52303], [102.937, 5.52886], [102.94078, 5.52631], [102.94316, 5.52658], [102.94618, 5.53202], [102.9431, 5.53476], [102.93741, 5.53507], [102.93712, 5.53835], [102.948, 5.53835], [102.96346, 5.53251], [102.97806, 5.52341], [103.00183, 5.49986], [102.97867, 5.48267], [102.93724, 5.43671], [102.91432, 5.45235], [102.91727, 5.45306], [102.91666, 5.45434], [102.90332, 5.45881], [102.8985, 5.46414], [102.8982, 5.4801], [102.90127, 5.49306], [102.90282, 5.49357], [102.89942, 5.49945], [102.89554, 5.50069], [102.89281, 5.49897], [102.88278, 5.4994], [102.87767, 5.50243], [102.87229, 5.50261], [102.86993, 5.50424], [102.86871, 5.50787], [102.85852, 5.51231], [102.85589, 5.51689], [102.85571, 5.52224], [102.85213, 5.52546], [102.85094, 5.53162], [102.84968, 5.53179], [102.84611, 5.52468], [102.84706, 5.52259], [102.84535, 5.51257], [102.8372, 5.51392], [102.83439, 5.51687], [102.81623, 5.50175], [102.80928, 5.50835], [102.80615, 5.5072], [102.7915, 5.4919], [102.79636, 5.48569], [102.79642, 5.47759], [102.78702, 5.47231], [102.78982, 5.46833], [102.79009, 5.46316], [102.79163, 5.46234], [102.79113, 5.4585], [102.7946, 5.45635], [102.79352, 5.45337], [102.78464, 5.45671], [102.78312, 5.45055], [102.78696, 5.4477], [102.78221, 5.43088], [102.77652, 5.43305], [102.77042, 5.4305], [102.76177, 5.41785], [102.7553, 5.41128], [102.7498, 5.41693], [102.74643, 5.4172], [102.7384, 5.42207], [102.73722, 5.4267], [102.73553, 5.42776], [102.727, 5.42365], [102.72455, 5.42629], [102.71988, 5.42158], [102.72074, 5.41861], [102.71586, 5.41317], [102.71504, 5.40861], [102.71886, 5.40168], [102.71668, 5.39569], [102.70714, 5.39912], [102.70085, 5.39944], [102.69715, 5.3966], [102.6927, 5.39651], [102.68867, 5.40139], [102.68064, 5.39773], [102.67389, 5.40036], [102.67285, 5.39691], [102.66949, 5.39731], [102.66256, 5.39214], [102.65402, 5.39056], [102.64943, 5.39755], [102.65253, 5.401], [102.65103, 5.40676], [102.65706, 5.41685], [102.65166, 5.43604], [102.64317, 5.44188], [102.63401, 5.45509], [102.63196, 5.45441], [102.62583, 5.45853], [102.62037, 5.47281], [102.61507, 5.47427], [102.60789, 5.48035], [102.60446, 5.47912], [102.59451, 5.48076], [102.58853, 5.48459], [102.59121, 5.48833], [102.59603, 5.49028], [102.60296, 5.50657], [102.60267, 5.50978], [102.60514, 5.51292], [102.61859, 5.5166], [102.62211, 5.52027], [102.62244, 5.5218], [102.609, 5.536], [102.61315, 5.54588], [102.61909, 5.55222], [102.62135, 5.55892], [102.61572, 5.57021], [102.61571, 5.57802], [102.63546, 5.59257], [102.64112, 5.59935], [102.64173, 5.60743], [102.65217, 5.62572], [102.6624, 5.63054], [102.66434, 5.6347], [102.66332, 5.63608], [102.6654, 5.63694], [102.66884, 5.6479], [102.6708, 5.64893], [102.66586, 5.65235], [102.66665, 5.67333], [102.66483, 5.68818], [102.65263, 5.70815], [102.64115, 5.72273], [102.64947, 5.7193], [102.66029, 5.72598], [102.66231, 5.72159]]]]}}, {"type": "Feature", "properties": {"state": "Terengganu", "seat": "N.07 Langkap", "seat_name": "Langkap"}, "geometry": {"type": "MultiPolygon", "coordinates": [[[[102.85548, 5.52228], [102.85589, 5.51689], [102.85852, 5.51231], [102.86871, 5.50787], [102.86993, 5.50424], [102.87229, 5.50261], [102.87767, 5.50243], [102.88278, 5.4994], [102.89281, 5.49897], [102.89554, 5.50069], [102.89942, 5.49945], [102.90282, 5.49357], [102.90127, 5.49306], [102.8982, 5.4801], [102.8985, 5.46414], [102.90332, 5.45881], [102.91744, 5.45377], [102.9142, 5.45242], [102.90902, 5.44442], [102.91257, 5.43306], [102.91142, 5.42367], [102.91598, 5.41025], [102.92171, 5.37533], [102.91579, 5.36473], [102.9142, 5.36471], [102.9143, 5.36095], [102.9161, 5.36065], [102.9164, 5.35691], [102.9217, 5.35156], [102.91827, 5.34045], [102.92263, 5.33025], [102.91961, 5.32705], [102.9238, 5.32504], [102.92539, 5.32246], [102.90959, 5.31056], [102.90698, 5.30772], [102.90701, 5.30561], [102.91699, 5.30292], [102.91882, 5.29851], [102.92893, 5.29557], [102.93428, 5.28083], [102.93156, 5.2708], [102.9364, 5.26461], [102.94281, 5.26251], [102.95139, 5.25625], [102.94905, 5.2535], [102.95175, 5.24856], [102.94991, 5.24594], [102.95717, 5.24459], [102.95806, 5.24672], [102.96152, 5.24627], [102.96935, 5.23855], [102.97145, 5.23986], [102.97221, 5.2374], [102.97396, 5.23809], [102.97611, 5.23253], [102.98307, 5.22884], [102.98801, 5.22296], [102.97161, 5.20714], [102.97197, 5.2049], [102.9691, 5.2056], [102.97055, 5.20086], [102.96888, 5.20106], [102.96709, 5.19738], [102.96286, 5.19682], [102.96235, 5.2], [102.94889, 5.20437], [102.94443, 5.20207], [102.94128, 5.19801], [102.94226, 5.19438], [102.93376, 5.19145], [102.9309, 5.18671], [102.92436, 5.18986], [102.92212, 5.19585], [102.91843, 5.19527], [102.91882, 5.20022], [102.91484, 5.2014], [102.90952, 5.20675], [102.90563, 5.21517], [102.90235, 5.21222], [102.89731, 5.21864], [102.89614, 5.22433], [102.89356, 5.22779], [102.90052, 5.23526], [102.89471, 5.24455], [102.89554, 5.24571], [102.89317, 5.24625], [102.89297, 5.24251], [102.88846, 5.23951], [102.88405, 5.24308], [102.88124, 5.24298], [102.8794, 5.24628], [102.87551, 5.24542], [102.87396, 5.24193], [102.86834, 5.24957], [102.86582, 5.24894], [102.86369, 5.25414], [102.85946, 5.25364], [102.85795, 5.26187], [102.85178, 5.26629], [102.84818, 5.26583], [102.84652, 5.25896], [102.84305, 5.25824], [102.83712, 5.25295], [102.8262, 5.24996], [102.82488, 5.24431], [102.82223, 5.2416], [102.81491, 5.23889], [102.80051, 5.22694], [102.79124, 5.22178], [102.78092, 5.22119], [102.77741, 5.22385], [102.77199, 5.2235], [102.76745, 5.22665], [102.75789, 5.24046], [102.74988, 5.24612], [102.745, 5.24759], [102.73477, 5.25788], [102.7257, 5.2587], [102.72347, 5.27724], [102.72736, 5.28898], [102.72761, 5.29495], [102.72412, 5.30543], [102.72751, 5.31552], [102.72236, 5.32707], [102.72194, 5.33161], [102.71576, 5.33516], [102.71232, 5.33951], [102.70463, 5.33766], [102.69408, 5.33877], [102.68117, 5.34568], [102.68211, 5.36671], [102.67952, 5.38671], [102.68203, 5.396], [102.68071, 5.39821], [102.68867, 5.40139], [102.6927, 5.39651], [102.69715, 5.3966], [102.70085, 5.39944], [102.70714, 5.39912], [102.71668, 5.39569], [102.71886, 5.40168], [102.71504, 5.40861], [102.71586, 5.41317], [102.72074, 5.41861], [102.71988, 5.42158], [102.72455, 5.42629], [102.727, 5.42365], [102.73553, 5.42776], [102.73722, 5.4267], [102.7384, 5.42207], [102.74643, 5.4172], [102.7498, 5.41693], [102.7553, 5.41128], [102.76177, 5.41785], [102.77042, 5.4305], [102.77652, 5.43305], [102.78221, 5.43088], [102.78696, 5.4477], [102.78312, 5.45055], [102.78464, 5.45671], [102.79352, 5.45337], [102.7946, 5.45635], [102.79113, 5.4585], [102.79163, 5.46234], [102.79009, 5.46316], [102.78982, 5.46833], [102.78702, 5.47231], [102.79642, 5.47759], [102.79636, 5.48569], [102.7915, 5.4919], [102.80615, 5.5072], [102.80928, 5.50835], [102.81623, 5.50175], [102.83439, 5.51687], [102.8372, 5.51392], [102.84535, 5.51257], [102.84706, 5.52259], [102.84611, 5.52468], [102.84968, 5.53179], [102.85094, 5.53162], [102.85213, 5.52546], [102.85548, 5.52228]]]]}}, {"type": "Feature", "properties": {"state": "Terengganu", "seat": "N.08 Batu Rakit", "seat_name": "Batu Rakit"}, "geometry": {"type": "MultiPolygon", "coordinates": [[[[103.02192, 5.47344], [103.02123, 5.47249], [103.02678, 5.47467], [103.04193, 5.45711], [103.08263, 5.42085], [103.08486, 5.41851], [103.08526, 5.4134], [103.08261, 5.41376], [103.08053, 5.41752], [103.07687, 5.41833], [103.07223, 5.41564], [103.07004, 5.41761], [103.06631, 5.41759], [103.06085, 5.41391], [103.0503, 5.41237], [103.05502, 5.38218], [103.04951, 5.37975], [103.04643, 5.38153], [103.04565, 5.38066], [103.04622, 5.38606], [103.04208, 5.38681], [103.04229, 5.38562], [103.04149, 5.38726], [103.0384, 5.38442], [103.03612, 5.38568], [103.03728, 5.38974], [103.03582, 5.38896], [103.03602, 5.39127], [103.03033, 5.39349], [103.02934, 5.39025], [103.02634, 5.39178], [103.0246, 5.39086], [103.02439, 5.39379], [103.02212, 5.3935], [103.02152, 5.39564], [103.01852, 5.39353], [103.01643, 5.3947], [103.01295, 5.39123], [103.01082, 5.39208], [103.00723, 5.38893], [102.99261, 5.39008], [102.99443, 5.38716], [102.99176, 5.37113], [102.98307, 5.37012], [102.98455, 5.37259], [102.98049, 5.37795], [102.97777, 5.38846], [102.9821, 5.39042], [102.98048, 5.39423], [102.97861, 5.39499], [102.9791, 5.39641], [102.97425, 5.40048], [102.97242, 5.42171], [102.96788, 5.43436], [102.96117, 5.4337], [102.95029, 5.4278], [102.93724, 5.43671], [102.97867, 5.48267], [103.00183, 5.49986], [103.02356, 5.47686], [103.02192, 5.47344]]], [[[103.0672, 5.59651], [103.06455, 5.5938], [103.06303, 5.59475], [103.06477, 5.59748], [103.06769, 5.59804], [103.0672, 5.59651]]], [[[103.07, 5.6242], [103.07172, 5.61773], [103.06995, 5.61301], [103.0659, 5.60941], [103.06147, 5.6101], [103.05939, 5.61321], [103.0565, 5.61433], [103.05694, 5.62168], [103.0624, 5.62756], [103.07, 5.6242]]], [[[103.0704, 5.65453], [103.06869, 5.65318], [103.068, 5.65718], [103.06924, 5.65823], [103.0709, 5.65682], [103.0704, 5.65453]]], [[[103.07353, 5.66509], [103.07296, 5.66485], [103.07232, 5.66677], [103.07381, 5.66598], [103.07353, 5.66509]]], [[[103.07265, 5.66709], [103.07167, 5.66691], [103.07136, 5.66815], [103.07233, 5.66827], [103.07265, 5.66709]]], [[[102.9978, 5.73082], [102.99736, 5.73086], [102.99743, 5.73127], [102.99779, 5.73122], [102.9978, 5.73082]]], [[[103.02014, 5.73318], [103.01965, 5.73305], [103.01946, 5.73411], [103.02042, 5.7339], [103.02014, 5.73318]]], [[[103.03183, 5.73911], [103.03314, 5.7372], [103.03101, 5.73598], [103.03133, 5.73772], [103.02893, 5.73593], [103.02879, 5.73865], [103.03304, 5.74201], [103.03183, 5.73911]]], [[[103.00671, 5.73509], [103.00156, 5.73492], [102.99939, 5.73031], [102.998, 5.73584], [102.99997, 5.73918], [102.99903, 5.74477], [103.00064, 5.74728], [103.00741, 5.73798], [103.00671, 5.73509]]], [[[103.02934, 5.75126], [103.02793, 5.75291], [103.02999, 5.75487], [103.03045, 5.75286], [103.02934, 5.75126]]], [[[103.03035, 5.75724], [103.03018, 5.75704], [103.02872, 5.75718], [103.03111, 5.75868], [103.03035, 5.75724]]], [[[103.03904, 5.77161], [103.03885, 5.7723], [103.04045, 5.77257], [103.03987, 5.77175], [103.03904, 5.77161]]], [[[103.03609, 5.77304], [103.03744, 5.77145], [103.03696, 5.77054], [103.03466, 5.77298], [103.03609, 5.77304]]], [[[103.05979, 5.7742], [103.06379, 5.77096], [103.06317, 5.76932], [103.05909, 5.77237], [103.0586, 5.77391], [103.05979, 5.7742]]], [[[103.04332, 5.77581], [103.04154, 5.7765], [103.04215, 5.77749], [103.04414, 5.77705], [103.04332, 5.77581]]], [[[103.01431, 5.81401], [103.01501, 5.80969], [103.02046, 5.80219], [103.02032, 5.8001], [103.01691, 5.79825], [103.01828, 5.79545], [103.01433, 5.79155], [103.01436, 5.78636], [103.02065, 5.78553], [103.02475, 5.7919], [103.03182, 5.79132], [103.03647, 5.78888], [103.04266, 5.78897], [103.04368, 5.7862], [103.03696, 5.77856], [103.0343, 5.77816], [103.03288, 5.77042], [103.0367, 5.76871], [103.03406, 5.76891], [103.03415, 5.76679], [103.02987, 5.76677], [103.03203, 5.7654], [103.0323, 5.76126], [103.03027, 5.76103], [103.03007, 5.76494], [103.02741, 5.76474], [103.01976, 5.75465], [103.02007, 5.75139], [103.01129, 5.74879], [103.0057, 5.75156], [103.00529, 5.76248], [103.00072, 5.75376], [102.99901, 5.75338], [102.9989, 5.74857], [102.99537, 5.75802], [102.99632, 5.76442], [102.98937, 5.78245], [102.99095, 5.78518], [102.99557, 5.78632], [102.996, 5.79666], [102.99359, 5.80382], [102.99759, 5.81325], [103.0007, 5.81549], [103.00683, 5.81569], [103.00865, 5.81115], [103.01028, 5.81148], [103.01235, 5.8162], [103.01431, 5.81401]]]]}}, {"type": "Feature", "properties": {"state": "Terengganu", "seat": "N.09 Tepuh", "seat_name": "Tepuh"}, "geometry": {"type": "MultiPolygon", "coordinates": [[[[102.9142, 5.45242], [102.95029, 5.4278], [102.96117, 5.4337], [102.96788, 5.43436], [102.97242, 5.42171], [102.97425, 5.40048], [102.9791, 5.39641], [102.97861, 5.39499], [102.98048, 5.39423], [102.9821, 5.39042], [102.97777, 5.38846], [102.98049, 5.37795], [102.98455, 5.37259], [102.98307, 5.37012], [102.99176, 5.37113], [102.99443, 5.38716], [102.99261, 5.39008], [103.00723, 5.38893], [103.01082, 5.39208], [103.01295, 5.39123], [103.01643, 5.3947], [103.01852, 5.39353], [103.02152, 5.39564], [103.02212, 5.3935], [103.02439, 5.39379], [103.0246, 5.39086], [103.02634, 5.39178], [103.02934, 5.39025], [103.03033, 5.39349], [103.03602, 5.39127], [103.03582, 5.38896], [103.03728, 5.38974], [103.03612, 5.38568], [103.0384, 5.38442], [103.04149, 5.38726], [103.04229, 5.38562], [103.04208, 5.38681], [103.04622, 5.38606], [103.04615, 5.38041], [103.04643, 5.38153], [103.04951, 5.37975], [103.05502, 5.38218], [103.0503, 5.41237], [103.06085, 5.41391], [103.06631, 5.41759], [103.07004, 5.41761], [103.07223, 5.41564], [103.07687, 5.41833], [103.08053, 5.41752], [103.08464, 5.41264], [103.08459, 5.40841], [103.08669, 5.40581], [103.08025, 5.38816], [103.08498, 5.37228], [103.09493, 5.35614], [103.09288, 5.34922], [103.08947, 5.34986], [103.08831, 5.34786], [103.08305, 5.3479], [103.08251, 5.34262], [103.0762, 5.34172], [103.06933, 5.34358], [103.06785, 5.34603], [103.06897, 5.34877], [103.06685, 5.34981], [103.06404, 5.34129], [103.04986, 5.33018], [103.04562, 5.32355], [103.03631, 5.32211], [103.02761, 5.31721], [103.02343, 5.32097], [103.01826, 5.32072], [103.01555, 5.32603], [103.00696, 5.32088], [103.00122, 5.32196], [102.99857, 5.32427], [102.99122, 5.32363], [102.99319, 5.30794], [102.98684, 5.30198], [102.98116, 5.30351], [102.98154, 5.29793], [102.97998, 5.29679], [102.9856, 5.28926], [102.9858, 5.28269], [102.98815, 5.28199], [102.98907, 5.27455], [102.99129, 5.27362], [102.98818, 5.26999], [102.99162, 5.26633], [102.98099, 5.26426], [102.98028, 5.26286], [102.98217, 5.26174], [102.97813, 5.25894], [102.98027, 5.25722], [102.97866, 5.25652], [102.9781, 5.25358], [102.98132, 5.25326], [102.98, 5.25256], [102.98064, 5.25], [102.97836, 5.24889], [102.98239, 5.24081], [102.98195, 5.238], [102.9836, 5.23902], [102.98631, 5.23768], [102.98524, 5.23544], [102.97842, 5.2312], [102.97611, 5.23253], [102.97396, 5.23809], [102.97221, 5.2374], [102.97145, 5.23986], [102.96935, 5.23855], [102.96152, 5.24627], [102.95806, 5.24672], [102.95717, 5.24459], [102.94991, 5.24594], [102.95175, 5.24856], [102.94905, 5.2535], [102.95139, 5.25625], [102.94281, 5.26251], [102.9364, 5.26461], [102.93156, 5.2708], [102.93428, 5.28083], [102.92893, 5.29557], [102.91882, 5.29851], [102.91699, 5.30292], [102.90701, 5.30561], [102.90698, 5.30772], [102.90959, 5.31056], [102.92539, 5.32246], [102.9238, 5.32504], [102.91961, 5.32705], [102.92263, 5.33025], [102.91827, 5.34045], [102.9217, 5.35156], [102.9164, 5.35691], [102.9161, 5.36065], [102.9143, 5.36095], [102.9142, 5.36471], [102.91579, 5.36473], [102.92171, 5.37533], [102.91598, 5.41025], [102.91142, 5.42367], [102.91257, 5.43306], [102.90902, 5.44442], [102.9142, 5.45242]]]]}}, {"type": "Feature", "properties": {"state": "Terengganu", "seat": "N.10 Buluh Gading", "seat_name": "Buluh Gading"}, "geometry": {"type": "MultiPolygon", "coordinates": [[[[103.0762, 5.34172], [103.08679, 5.34195], [103.10089, 5.33432], [103.1017, 5.33244], [103.09922, 5.32971], [103.0989, 5.32615], [103.1011, 5.32581], [103.10084, 5.32384], [103.09513, 5.32197], [103.09033, 5.31548], [103.08538, 5.31656], [103.08498, 5.31842], [103.08177, 5.31775], [103.07983, 5.31898], [103.08121, 5.31271], [103.08014, 5.31161], [103.07025, 5.30988], [103.06286, 5.30088], [103.05863, 5.30399], [103.05817, 5.29879], [103.05552, 5.29667], [103.05342, 5.29625], [103.05095, 5.29983], [103.04891, 5.29808], [103.04772, 5.29562], [103.05161, 5.29282], [103.05201, 5.28778], [103.04919, 5.28695], [103.04841, 5.28817], [103.04442, 5.28541], [103.04434, 5.28336], [103.0395, 5.28339], [103.02912, 5.27819], [103.02207, 5.26531], [103.02081, 5.26558], [103.02098, 5.25998], [103.01355, 5.25398], [103.01449, 5.25206], [103.01153, 5.24964], [103.01021, 5.24297], [103.00724, 5.24145], [103.0059, 5.23462], [103.00184, 5.23166], [103.00207, 5.2296], [103.00053, 5.23088], [102.99797, 5.22967], [102.99687, 5.23135], [102.98801, 5.22296], [102.98307, 5.22884], [102.97842, 5.2312], [102.98524, 5.23544], [102.98631, 5.23768], [102.9836, 5.23902], [102.98195, 5.238], [102.98239, 5.24081], [102.97836, 5.24889], [102.98064, 5.25], [102.98, 5.25256], [102.98132, 5.25326], [102.9781, 5.25358], [102.97866, 5.25652], [102.98027, 5.25722], [102.97812, 5.25889], [102.98217, 5.26174], [102.98028, 5.26286], [102.98099, 5.26426], [102.99161, 5.26627], [102.98818, 5.26999], [102.99129, 5.27362], [102.98907, 5.27455], [102.98815, 5.28199], [102.9858, 5.28269], [102.9856, 5.28926], [102.97998, 5.29679], [102.98154, 5.29793], [102.98116, 5.30351], [102.98684, 5.30198], [102.99319, 5.30794], [102.99122, 5.32363], [102.99857, 5.32427], [103.00122, 5.32196], [103.00696, 5.32088], [103.01555, 5.32603], [103.01826, 5.32072], [103.02343, 5.32097], [103.02761, 5.31721], [103.03631, 5.32211], [103.04562, 5.32355], [103.04986, 5.33018], [103.06404, 5.34129], [103.06685, 5.34981], [103.06897, 5.34877], [103.06785, 5.34603], [103.06933, 5.34358], [103.0762, 5.34172]]]]}}, {"type": "Feature", "properties": {"state": "Terengganu", "seat": "N.11 Seberang Takir", "seat_name": "Seberang Takir"}, "geometry": {"type": "MultiPolygon", "coordinates": [[[[103.08495, 5.41843], [103.09236, 5.41213], [103.11319, 5.38786], [103.13196, 5.35325], [103.13858, 5.34587], [103.14228, 5.34553], [103.14415, 5.34339], [103.13976, 5.34417], [103.1411, 5.3434], [103.14021, 5.34062], [103.13191, 5.34215], [103.12415, 5.33815], [103.1194, 5.34316], [103.11738, 5.35149], [103.11569, 5.3531], [103.10555, 5.35176], [103.10324, 5.35364], [103.10356, 5.3567], [103.10058, 5.36178], [103.09428, 5.35758], [103.08498, 5.37228], [103.08025, 5.38816], [103.08669, 5.40581], [103.08459, 5.40841], [103.08495, 5.41843]]]]}}, {"type": "Feature", "properties": {"state": "Terengganu", "seat": "N.12 Bukit Tunggal", "seat_name": "Bukit Tunggal"}, "geometry": {"type": "MultiPolygon", "coordinates": [[[[103.10453, 5.35257], [103.11569, 5.3531], [103.11738, 5.35149], [103.1194, 5.34316], [103.12415, 5.33815], [103.13191, 5.34215], [103.13513, 5.34161], [103.13549, 5.33987], [103.13006, 5.33395], [103.13002, 5.32925], [103.12811, 5.3261], [103.12227, 5.32404], [103.11296, 5.32619], [103.10643, 5.32466], [103.10149, 5.32291], [103.09794, 5.31881], [103.09276, 5.31777], [103.09513, 5.32197], [103.10084, 5.32384], [103.1011, 5.32581], [103.0989, 5.32615], [103.09901, 5.32895], [103.10169, 5.33326], [103.09007, 5.34064], [103.08251, 5.34262], [103.08305, 5.3479], [103.08831, 5.34786], [103.08947, 5.34986], [103.09288, 5.34922], [103.09534, 5.35442], [103.09428, 5.35758], [103.10058, 5.36178], [103.10453, 5.35257]]]]}}, {"type": "Feature", "properties": {"state": "Terengganu", "seat": "N.13 Wakaf Mempelam", "seat_name": "Wakaf Mempelam"}, "geometry": {"type": "MultiPolygon", "coordinates": [[[[103.11533, 5.32475], [103.12454, 5.3244], [103.12623, 5.32179], [103.12007, 5.31917], [103.12053, 5.31684], [103.11533, 5.31742], [103.11613, 5.31096], [103.11869, 5.31347], [103.12119, 5.30998], [103.11819, 5.305], [103.12226, 5.30443], [103.12988, 5.30851], [103.1313, 5.30317], [103.13333, 5.30192], [103.1298, 5.29567], [103.13151, 5.29357], [103.12816, 5.28018], [103.12997, 5.27779], [103.12572, 5.27435], [103.124, 5.27549], [103.12067, 5.27432], [103.10955, 5.27544], [103.10568, 5.27882], [103.09714, 5.2822], [103.09397, 5.28538], [103.09484, 5.29041], [103.08941, 5.2961], [103.08717, 5.30113], [103.08748, 5.30679], [103.09185, 5.31718], [103.09794, 5.31881], [103.10283, 5.32352], [103.11296, 5.32619], [103.11533, 5.32475]]]]}}, {"type": "Feature", "properties": {"state": "Terengganu", "seat": "N.14 Bandar", "seat_name": "Bandar"}, "geometry": {"type": "MultiPolygon", "coordinates": [[[[103.14023, 5.33852], [103.14571, 5.33823], [103.1453, 5.33624], [103.14419, 5.33728], [103.14387, 5.33623], [103.14679, 5.33283], [103.14195, 5.33032], [103.14352, 5.32815], [103.13598, 5.33004], [103.13394, 5.32604], [103.13608, 5.32197], [103.13304, 5.31644], [103.13777, 5.31327], [103.13217, 5.31075], [103.1326, 5.30804], [103.12988, 5.30851], [103.12292, 5.30466], [103.11868, 5.30438], [103.11838, 5.30627], [103.12119, 5.30998], [103.11869, 5.31347], [103.11613, 5.31096], [103.11533, 5.31742], [103.12053, 5.31684], [103.12007, 5.31917], [103.12623, 5.32179], [103.12454, 5.3244], [103.12872, 5.32701], [103.13006, 5.33395], [103.1353, 5.34082], [103.14021, 5.34062], [103.14023, 5.33852]]]]}}, {"type": "Feature", "properties": {"state": "Terengganu", "seat": "N.15 Ladang", "seat_name": "Ladang"}, "geometry": {"type": "MultiPolygon", "coordinates": [[[[103.14721, 5.33657], [103.15239, 5.32897], [103.14765, 5.32684], [103.14932, 5.325], [103.14668, 5.32327], [103.14648, 5.32094], [103.14973, 5.31583], [103.15055, 5.30817], [103.14442, 5.30809], [103.14369, 5.30162], [103.14641, 5.29473], [103.13525, 5.29453], [103.13556, 5.29009], [103.14251, 5.28439], [103.14196, 5.28049], [103.13961, 5.27954], [103.14042, 5.27556], [103.13554, 5.27719], [103.13369, 5.27545], [103.12816, 5.2802], [103.13151, 5.29357], [103.1298, 5.29567], [103.13333, 5.30192], [103.1313, 5.30317], [103.13019, 5.30811], [103.1326, 5.30804], [103.13217, 5.31075], [103.13777, 5.31327], [103.13304, 5.31644], [103.13608, 5.32197], [103.13394, 5.32604], [103.13598, 5.33004], [103.14352, 5.32815], [103.14195, 5.33032], [103.14679, 5.33283], [103.14383, 5.33663], [103.1463, 5.33765], [103.14721, 5.33657]]]]}}, {"type": "Feature", "properties": {"state": "Terengganu", "seat": "N.16 Batu Buruk", "seat_name": "Batu Buruk"}, "geometry": {"type": "MultiPolygon", "coordinates": [[[[103.15366, 5.32682], [103.16007, 5.3168], [103.17382, 5.28694], [103.18466, 5.26917], [103.18673, 5.26816], [103.1788, 5.26218], [103.17901, 5.25888], [103.17709, 5.25843], [103.17462, 5.24983], [103.16556, 5.25585], [103.16197, 5.24922], [103.15655, 5.2486], [103.15128, 5.26203], [103.1527, 5.26287], [103.15264, 5.27043], [103.14957, 5.27381], [103.14429, 5.27504], [103.14396, 5.27927], [103.14196, 5.28049], [103.14251, 5.28439], [103.13556, 5.29009], [103.13525, 5.29453], [103.14641, 5.29473], [103.14369, 5.30162], [103.14442, 5.30809], [103.15055, 5.30817], [103.14973, 5.31583], [103.14648, 5.32094], [103.14668, 5.32327], [103.14932, 5.325], [103.14765, 5.32684], [103.1501, 5.32857], [103.15239, 5.32897], [103.15366, 5.32682]]]]}}, {"type": "Feature", "properties": {"state": "Terengganu", "seat": "N.17 Alur Limbat", "seat_name": "Alur Limbat"}, "geometry": {"type": "MultiPolygon", "coordinates": [[[[103.09806, 5.28178], [103.10568, 5.27882], [103.10716, 5.27643], [103.11281, 5.2749], [103.124, 5.27549], [103.12572, 5.27435], [103.12878, 5.27779], [103.13162, 5.2772], [103.12899, 5.27134], [103.12433, 5.26828], [103.12338, 5.26478], [103.11695, 5.26256], [103.11764, 5.25868], [103.11634, 5.25721], [103.11428, 5.25743], [103.11213, 5.25507], [103.10728, 5.25784], [103.10789, 5.26318], [103.10403, 5.26082], [103.09874, 5.26288], [103.0958, 5.25755], [103.09437, 5.25761], [103.09297, 5.25389], [103.09871, 5.23821], [103.09477, 5.23531], [103.09309, 5.23185], [103.09585, 5.23214], [103.09794, 5.22983], [103.09428, 5.22684], [103.09824, 5.2233], [103.09367, 5.22201], [103.09182, 5.21884], [103.09082, 5.21995], [103.08987, 5.21898], [103.09099, 5.21476], [103.08919, 5.21232], [103.09013, 5.21171], [103.08808, 5.20322], [103.08272, 5.19606], [103.08113, 5.19637], [103.07536, 5.18723], [103.07517, 5.18045], [103.07268, 5.17843], [103.07345, 5.17466], [103.07201, 5.17475], [103.07263, 5.1717], [103.07104, 5.16949], [103.06676, 5.16887], [103.06616, 5.17077], [103.06211, 5.16757], [103.05479, 5.16726], [103.05533, 5.16998], [103.05691, 5.16995], [103.0559, 5.1751], [103.05382, 5.17584], [103.0557, 5.17833], [103.05273, 5.1786], [103.05482, 5.18386], [103.05253, 5.18299], [103.05253, 5.18763], [103.05071, 5.19012], [103.05172, 5.19181], [103.04766, 5.19301], [103.0467, 5.19676], [103.04979, 5.19806], [103.04981, 5.20195], [103.0514, 5.20339], [103.04404, 5.20449], [103.04444, 5.21097], [103.04696, 5.21208], [103.03727, 5.2178], [103.03909, 5.22387], [103.03536, 5.2435], [103.03679, 5.25871], [103.03959, 5.26417], [103.04355, 5.26718], [103.06157, 5.26702], [103.07101, 5.27196], [103.08007, 5.27904], [103.09397, 5.28538], [103.09806, 5.28178]]]]}}, {"type": "Feature", "properties": {"state": "Terengganu", "seat": "N.18 Bukit Payung", "seat_name": "Bukit Payung"}, "geometry": {"type": "MultiPolygon", "coordinates": [[[[103.14421, 5.27514], [103.14957, 5.27381], [103.15264, 5.27043], [103.1527, 5.26287], [103.15128, 5.26203], [103.156, 5.25231], [103.15593, 5.2502], [103.15376, 5.24849], [103.1536, 5.24344], [103.1464, 5.22838], [103.14785, 5.22367], [103.14964, 5.22385], [103.14674, 5.21513], [103.14297, 5.21659], [103.13585, 5.21601], [103.13505, 5.21232], [103.13317, 5.21335], [103.13066, 5.21153], [103.12709, 5.21191], [103.12637, 5.21047], [103.12208, 5.21128], [103.12098, 5.20959], [103.11466, 5.20843], [103.11238, 5.20869], [103.11423, 5.21678], [103.11192, 5.21993], [103.10401, 5.21823], [103.09241, 5.21898], [103.09367, 5.22201], [103.09824, 5.2233], [103.09428, 5.22684], [103.09794, 5.22983], [103.09585, 5.23214], [103.09311, 5.23173], [103.09477, 5.23531], [103.09871, 5.23821], [103.09297, 5.25389], [103.09874, 5.26288], [103.10403, 5.26082], [103.10802, 5.26311], [103.1071, 5.258], [103.11213, 5.25507], [103.11764, 5.25868], [103.11705, 5.26266], [103.12362, 5.26503], [103.12439, 5.26837], [103.12923, 5.27169], [103.13129, 5.27708], [103.13381, 5.27545], [103.13601, 5.27715], [103.13977, 5.27518], [103.13968, 5.27974], [103.14165, 5.28055], [103.14396, 5.27927], [103.14421, 5.27514]]]]}}, {"type": "Feature", "properties": {"state": "Terengganu", "seat": "N.19 Ru Rendang", "seat_name": "Ru Rendang"}, "geometry": {"type": "MultiPolygon", "coordinates": [[[[103.26818, 5.23072], [103.26781, 5.23055], [103.26777, 5.23113], [103.26789, 5.23118], [103.26818, 5.23072]]], [[[103.26767, 5.23185], [103.26708, 5.2322], [103.26749, 5.23278], [103.2677, 5.23252], [103.26767, 5.23185]]], [[[103.27314, 5.21296], [103.2713, 5.20525], [103.26699, 5.21207], [103.2633, 5.21325], [103.26035, 5.21877], [103.26137, 5.22489], [103.2661, 5.22797], [103.26795, 5.23011], [103.26926, 5.23311], [103.27386, 5.22184], [103.27314, 5.21296]]], [[[103.26576, 5.23428], [103.26525, 5.23406], [103.26493, 5.23478], [103.2655, 5.23483], [103.26576, 5.23428]]], [[[103.26416, 5.23342], [103.26257, 5.2323], [103.26077, 5.23254], [103.26406, 5.23498], [103.26416, 5.23342]]], [[[103.18654, 5.26732], [103.18851, 5.26022], [103.18211, 5.25801], [103.18368, 5.2536], [103.19204, 5.23635], [103.22116, 5.19393], [103.23623, 5.15824], [103.277, 5.07925], [103.26753, 5.07468], [103.25495, 5.07127], [103.25195, 5.07212], [103.25059, 5.06973], [103.24272, 5.06676], [103.24099, 5.07062], [103.23435, 5.0772], [103.23735, 5.08479], [103.23463, 5.08901], [103.2216, 5.08821], [103.217, 5.09193], [103.21684, 5.09508], [103.22024, 5.10124], [103.22159, 5.10804], [103.21976, 5.11008], [103.20925, 5.11336], [103.20467, 5.12375], [103.20408, 5.13283], [103.20076, 5.13413], [103.19334, 5.13268], [103.18722, 5.14166], [103.18669, 5.15068], [103.18074, 5.15163], [103.17499, 5.15933], [103.15186, 5.15883], [103.14807, 5.16407], [103.14756, 5.1705], [103.14229, 5.17394], [103.14253, 5.18141], [103.14733, 5.18352], [103.14197, 5.18794], [103.14403, 5.19157], [103.14821, 5.19449], [103.14417, 5.20169], [103.14407, 5.20818], [103.14964, 5.22385], [103.14785, 5.22367], [103.1464, 5.22838], [103.1536, 5.24344], [103.15376, 5.24849], [103.15593, 5.2502], [103.15655, 5.2486], [103.16197, 5.24922], [103.16556, 5.25585], [103.17462, 5.24983], [103.17709, 5.25843], [103.17901, 5.25888], [103.1788, 5.26218], [103.18654, 5.26732]]]]}}, {"type": "Feature", "properties": {"state": "Terengganu", "seat": "N.20 Pengkalan Berangan", "seat_name": "Pengkalan Berangan"}, "geometry": {"type": "MultiPolygon", "coordinates": [[[[103.11192, 5.21993], [103.11423, 5.21678], [103.11238, 5.20869], [103.11723, 5.20846], [103.12295, 5.21144], [103.12637, 5.21047], [103.12709, 5.21191], [103.13066, 5.21153], [103.13317, 5.21335], [103.13505, 5.21232], [103.13585, 5.21601], [103.14297, 5.21659], [103.14676, 5.21512], [103.14407, 5.20818], [103.14417, 5.20169], [103.14821, 5.19449], [103.14403, 5.19157], [103.14197, 5.18794], [103.14733, 5.18352], [103.14253, 5.18141], [103.14212, 5.1747], [103.14407, 5.17188], [103.14756, 5.1705], [103.14807, 5.16407], [103.15292, 5.15842], [103.17499, 5.15933], [103.18074, 5.15163], [103.18669, 5.15068], [103.18722, 5.14166], [103.19334, 5.13268], [103.20076, 5.13413], [103.20408, 5.13283], [103.20467, 5.12375], [103.20925, 5.11336], [103.21976, 5.11008], [103.22159, 5.10804], [103.22024, 5.10124], [103.21684, 5.09508], [103.217, 5.09193], [103.2216, 5.08821], [103.23463, 5.08901], [103.23735, 5.08479], [103.23435, 5.0772], [103.24099, 5.07062], [103.24272, 5.06676], [103.25059, 5.06973], [103.25195, 5.07212], [103.25495, 5.07127], [103.26753, 5.07468], [103.277, 5.07925], [103.29428, 5.04524], [103.29405, 5.04351], [103.29237, 5.04369], [103.29656, 5.03719], [103.29372, 5.03385], [103.29403, 5.03165], [103.29926, 5.0237], [103.30406, 5.02142], [103.30363, 5.0145], [103.31008, 5.00803], [103.30883, 5.01159], [103.3059, 5.01272], [103.30473, 5.01511], [103.30494, 5.02149], [103.29976, 5.02468], [103.29477, 5.03178], [103.29499, 5.03365], [103.29861, 5.03347], [103.30238, 5.02658], [103.30732, 5.02164], [103.37093, 4.9047], [103.3883, 4.87842], [103.37397, 4.8709], [103.37415, 4.86486], [103.36867, 4.85812], [103.35556, 4.85315], [103.35276, 4.8506], [103.34846, 4.85021], [103.34437, 4.85252], [103.34042, 4.84856], [103.33935, 4.85166], [103.33409, 4.8555], [103.33261, 4.86268], [103.32126, 4.87173], [103.32131, 4.87403], [103.31611, 4.87332], [103.30848, 4.87949], [103.30411, 4.87807], [103.29896, 4.86983], [103.28885, 4.86802], [103.28521, 4.87095], [103.28455, 4.87598], [103.28161, 4.8792], [103.28002, 4.88598], [103.27177, 4.88828], [103.27088, 4.89509], [103.26887, 4.89774], [103.26373, 4.90098], [103.23455, 4.9095], [103.22846, 4.95528], [103.21685, 4.9637], [103.2132, 4.9857], [103.20512, 4.99531], [103.20384, 4.99929], [103.19168, 5.00796], [103.18665, 5.01668], [103.17993, 5.01851], [103.17582, 5.03055], [103.17183, 5.03312], [103.16705, 5.04178], [103.15938, 5.04676], [103.15785, 5.05257], [103.15267, 5.04751], [103.15087, 5.05154], [103.14871, 5.05127], [103.14676, 5.05913], [103.14495, 5.05804], [103.13889, 5.0647], [103.13936, 5.06838], [103.13168, 5.06974], [103.13181, 5.07608], [103.1282, 5.07666], [103.13007, 5.08026], [103.12751, 5.08185], [103.12978, 5.08258], [103.13081, 5.08637], [103.12917, 5.08621], [103.12747, 5.09046], [103.12633, 5.09004], [103.12443, 5.0987], [103.12295, 5.09816], [103.12157, 5.10016], [103.12129, 5.10462], [103.11888, 5.1032], [103.11873, 5.10471], [103.12072, 5.1056], [103.11981, 5.10743], [103.11767, 5.10528], [103.11251, 5.10841], [103.10934, 5.10346], [103.1059, 5.10306], [103.1058, 5.10133], [103.10016, 5.09708], [103.09262, 5.10348], [103.09122, 5.10833], [103.08802, 5.107], [103.08461, 5.11029], [103.07853, 5.11017], [103.07882, 5.11559], [103.07625, 5.12095], [103.07376, 5.12196], [103.07404, 5.12392], [103.0729, 5.12354], [103.06928, 5.12924], [103.06816, 5.1288], [103.06123, 5.14055], [103.05708, 5.14288], [103.05211, 5.14901], [103.05182, 5.1523], [103.04895, 5.15339], [103.05112, 5.15868], [103.05523, 5.16062], [103.05603, 5.16479], [103.05773, 5.1642], [103.05569, 5.16727], [103.06371, 5.16807], [103.06616, 5.17077], [103.06676, 5.16887], [103.07104, 5.16949], [103.07263, 5.1717], [103.07201, 5.17475], [103.07345, 5.17466], [103.07268, 5.17843], [103.07517, 5.18045], [103.07536, 5.18723], [103.08113, 5.19637], [103.08272, 5.19606], [103.08808, 5.20322], [103.09013, 5.21171], [103.08919, 5.21232], [103.09099, 5.21476], [103.08987, 5.21898], [103.09082, 5.21995], [103.10401, 5.21823], [103.11192, 5.21993]]]]}}, {"type": "Feature", "properties": {"state": "Terengganu", "seat": "N.21 Telemung", "seat_name": "Telemung"}, "geometry": {"type": "MultiPolygon", "coordinates": [[[[102.59785, 5.48095], [102.60446, 5.47912], [102.60789, 5.48035], [102.61507, 5.47427], [102.62054, 5.47267], [102.62583, 5.45853], [102.63196, 5.45441], [102.63401, 5.45509], [102.64317, 5.44188], [102.65166, 5.43604], [102.65706, 5.41685], [102.65103, 5.40676], [102.65253, 5.401], [102.64943, 5.39755], [102.65402, 5.39056], [102.66256, 5.39214], [102.66949, 5.39731], [102.67285, 5.39691], [102.67389, 5.40036], [102.68194, 5.39624], [102.67952, 5.38671], [102.68211, 5.36671], [102.6814, 5.345], [102.69408, 5.33877], [102.70463, 5.33766], [102.71379, 5.33875], [102.71576, 5.33516], [102.72194, 5.33161], [102.72236, 5.32707], [102.72751, 5.31552], [102.72412, 5.30543], [102.72761, 5.29495], [102.72736, 5.28898], [102.72347, 5.27724], [102.7257, 5.2587], [102.73477, 5.25788], [102.745, 5.24759], [102.74988, 5.24612], [102.75789, 5.24046], [102.76745, 5.22665], [102.77199, 5.2235], [102.77741, 5.22385], [102.78092, 5.22119], [102.79124, 5.22178], [102.80051, 5.22694], [102.81491, 5.23889], [102.82223, 5.2416], [102.82488, 5.24431], [102.8262, 5.24996], [102.83712, 5.25295], [102.84305, 5.25824], [102.84652, 5.25896], [102.84818, 5.26583], [102.85178, 5.26629], [102.85795, 5.26187], [102.85946, 5.25364], [102.86369, 5.25414], [102.86582, 5.24894], [102.86834, 5.24957], [102.87396, 5.24193], [102.87551, 5.24542], [102.8794, 5.24628], [102.88124, 5.24298], [102.88405, 5.24308], [102.88846, 5.23951], [102.89297, 5.24251], [102.89317, 5.24625], [102.89554, 5.24571], [102.89471, 5.24455], [102.90052, 5.23526], [102.89356, 5.22779], [102.89614, 5.22433], [102.89731, 5.21864], [102.90235, 5.21222], [102.90563, 5.21517], [102.90952, 5.20675], [102.91484, 5.2014], [102.91882, 5.20022], [102.91843, 5.19527], [102.92212, 5.19585], [102.92436, 5.18986], [102.93042, 5.18661], [102.93376, 5.19145], [102.94226, 5.19438], [102.94128, 5.19801], [102.94443, 5.20207], [102.94889, 5.20437], [102.96235, 5.2], [102.96286, 5.19682], [102.96709, 5.19738], [102.96888, 5.20106], [102.97055, 5.20086], [102.9691, 5.2056], [102.97197, 5.2049], [102.97161, 5.20714], [102.97565, 5.21152], [102.99687, 5.23135], [102.99797, 5.22967], [103.00423, 5.23039], [103.00795, 5.2271], [103.00957, 5.2284], [103.00687, 5.22999], [103.00938, 5.23161], [103.01064, 5.23556], [103.01268, 5.23384], [103.01337, 5.23704], [103.01944, 5.23433], [103.01881, 5.23263], [103.02069, 5.23136], [103.02399, 5.23309], [103.03272, 5.22907], [103.03286, 5.23041], [103.038, 5.23075], [103.03909, 5.22387], [103.03799, 5.21875], [103.03531, 5.21656], [103.02967, 5.21566], [103.02849, 5.21363], [103.02969, 5.21023], [103.03655, 5.20303], [103.03119, 5.1977], [103.03147, 5.19518], [103.02201, 5.19081], [103.02179, 5.18892], [103.01881, 5.18948], [103.01098, 5.18212], [103.00714, 5.18124], [103.00579, 5.17822], [103.00787, 5.17648], [103.00767, 5.17465], [103.01227, 5.1716], [103.01195, 5.16785], [103.01457, 5.1653], [103.01332, 5.16506], [103.01566, 5.15996], [103.01961, 5.15992], [103.01968, 5.1576], [103.01479, 5.15132], [103.01247, 5.15175], [103.00983, 5.1453], [103.00265, 5.14539], [102.99965, 5.14739], [102.99929, 5.14463], [102.9961, 5.14464], [102.99386, 5.14218], [102.99175, 5.14274], [102.99075, 5.13888], [102.98747, 5.13919], [102.97497, 5.1224], [102.97216, 5.12169], [102.975, 5.11996], [102.97229, 5.11379], [102.97292, 5.11084], [102.97419, 5.1108], [102.97416, 5.10718], [102.97248, 5.10715], [102.97267, 5.10584], [102.97447, 5.10329], [102.98055, 5.1016], [102.97934, 5.09706], [102.97619, 5.09458], [102.9742, 5.0951], [102.9711, 5.08966], [102.9777, 5.0867], [102.97795, 5.06638], [102.98293, 5.06503], [102.98525, 5.06019], [102.98449, 5.05906], [102.98346, 5.06119], [102.98181, 5.06092], [102.98229, 5.05805], [102.98005, 5.05712], [102.97968, 5.05836], [102.97679, 5.05617], [102.97825, 5.05455], [102.97835, 5.04967], [102.97694, 5.04942], [102.97763, 5.04821], [102.9738, 5.04813], [102.97066, 5.03901], [102.98426, 5.03834], [102.98574, 5.04139], [102.98802, 5.0395], [102.98856, 5.04187], [102.99098, 5.04233], [102.99238, 5.04041], [102.99522, 5.04416], [103.00152, 5.04047], [103.00233, 5.03713], [103.00415, 5.03829], [103.00309, 5.03523], [103.00456, 5.03449], [103.00479, 5.03168], [103.00705, 5.03238], [103.00758, 5.03111], [103.00561, 5.03017], [103.01035, 5.03083], [103.01308, 5.02921], [103.0136, 5.02023], [103.01813, 5.01402], [103.01764, 5.01215], [103.01149, 5.00909], [103.01161, 4.99758], [103.02256, 4.99984], [103.02291, 4.99813], [103.02327, 4.99324], [103.01704, 4.9916], [103.01636, 4.98626], [103.01709, 4.98346], [103.02527, 4.98278], [103.01677, 4.97682], [103.0128, 4.9759], [103.01348, 4.97383], [103.0114, 4.96981], [103.00703, 4.96913], [103.01277, 4.9645], [103.01106, 4.96268], [103.00956, 4.96443], [103.00716, 4.96335], [103.00756, 4.95546], [103.01095, 4.9458], [103.00963, 4.93743], [103.00532, 4.93563], [102.99853, 4.93844], [102.99302, 4.93641], [102.99291, 4.93305], [102.98978, 4.93289], [102.99006, 4.92319], [102.98493, 4.91848], [102.98583, 4.91393], [102.98294, 4.90758], [102.97802, 4.90944], [102.97585, 4.90418], [102.96853, 4.89993], [102.96658, 4.90163], [102.96336, 4.9009], [102.9552, 4.90397], [102.95348, 4.90257], [102.94953, 4.90639], [102.94438, 4.90669], [102.94087, 4.90501], [102.93788, 4.90656], [102.93293, 4.9059], [102.92711, 4.91191], [102.91801, 4.9078], [102.91409, 4.90255], [102.91246, 4.89535], [102.90538, 4.89019], [102.89923, 4.8822], [102.8969, 4.87725], [102.89798, 4.87334], [102.89351, 4.86569], [102.89212, 4.85538], [102.88087, 4.84326], [102.87128, 4.84216], [102.86408, 4.83791], [102.86527, 4.82842], [102.87946, 4.81663], [102.87896, 4.8138], [102.87322, 4.80954], [102.87308, 4.80653], [102.88973, 4.80894], [102.89512, 4.80194], [102.89481, 4.79321], [102.88855, 4.78489], [102.88906, 4.77937], [102.88731, 4.77587], [102.88782, 4.76973], [102.89025, 4.76862], [102.89417, 4.761], [102.89334, 4.75293], [102.89112, 4.74883], [102.88803, 4.7472], [102.87864, 4.74399], [102.87533, 4.74431], [102.87064, 4.74123], [102.8669, 4.73792], [102.86715, 4.73454], [102.85488, 4.73262], [102.84347, 4.72792], [102.8414, 4.72336], [102.84444, 4.71334], [102.84175, 4.70818], [102.84466, 4.69969], [102.8427, 4.69268], [102.84296, 4.68148], [102.84087, 4.67875], [102.82274, 4.68047], [102.80476, 4.67589], [102.78934, 4.67434], [102.78048, 4.66973], [102.77698, 4.67086], [102.77322, 4.67476], [102.76599, 4.67229], [102.76102, 4.6811], [102.75172, 4.67898], [102.74643, 4.6826], [102.74284, 4.68772], [102.72976, 4.6832], [102.72346, 4.69005], [102.71073, 4.69671], [102.70779, 4.70382], [102.69996, 4.71101], [102.69791, 4.71509], [102.69124, 4.71253], [102.68222, 4.71439], [102.67758, 4.71878], [102.67733, 4.72268], [102.67402, 4.72631], [102.67222, 4.73226], [102.66264, 4.73896], [102.65808, 4.7482], [102.66032, 4.75556], [102.65526, 4.76052], [102.65807, 4.76694], [102.66196, 4.7707], [102.66172, 4.77408], [102.66458, 4.78047], [102.65841, 4.78655], [102.65561, 4.80132], [102.6519, 4.80813], [102.64723, 4.81235], [102.64176, 4.81444], [102.64292, 4.81948], [102.64116, 4.82411], [102.64402, 4.83034], [102.65134, 4.83726], [102.64789, 4.84131], [102.64825, 4.84437], [102.6466, 4.84639], [102.64463, 4.8475], [102.64164, 4.84638], [102.6335, 4.84999], [102.63021, 4.8545], [102.62531, 4.85428], [102.62048, 4.85835], [102.61451, 4.8583], [102.60682, 4.86487], [102.60461, 4.86997], [102.60204, 4.87185], [102.59157, 4.87117], [102.58682, 4.87278], [102.57704, 4.88655], [102.57233, 4.88832], [102.56888, 4.89252], [102.55578, 4.89597], [102.55201, 4.89971], [102.54491, 4.89959], [102.54012, 4.90238], [102.53486, 4.90254], [102.52704, 4.89278], [102.52495, 4.89237], [102.51585, 4.89744], [102.50305, 4.90073], [102.5017, 4.90259], [102.50251, 4.90518], [102.50657, 4.90956], [102.50917, 4.91809], [102.50851, 4.93328], [102.51149, 4.93737], [102.5172, 4.94003], [102.51724, 4.94232], [102.51168, 4.94825], [102.51174, 4.95208], [102.51682, 4.9591], [102.50789, 4.96824], [102.49862, 4.98158], [102.49527, 4.99197], [102.49644, 4.99876], [102.49515, 5.00538], [102.50447, 5.00633], [102.50811, 5.00828], [102.51649, 5.02327], [102.51261, 5.02931], [102.51267, 5.03253], [102.50711, 5.03891], [102.50772, 5.04749], [102.50993, 5.05143], [102.50292, 5.06236], [102.50273, 5.06872], [102.49986, 5.07092], [102.4946, 5.07181], [102.50116, 5.08439], [102.50898, 5.08257], [102.51432, 5.08493], [102.51677, 5.09285], [102.51439, 5.09703], [102.52283, 5.10264], [102.52604, 5.10679], [102.51081, 5.12039], [102.51091, 5.12575], [102.49336, 5.13285], [102.48457, 5.13464], [102.48047, 5.14545], [102.47381, 5.15128], [102.47156, 5.15767], [102.46391, 5.15965], [102.45955, 5.16666], [102.4559, 5.1681], [102.44975, 5.16667], [102.44135, 5.16792], [102.43218, 5.17756], [102.41168, 5.17868], [102.40822, 5.18227], [102.41545, 5.19348], [102.41826, 5.21443], [102.41712, 5.21936], [102.41129, 5.22758], [102.41296, 5.2625], [102.41522, 5.26905], [102.41514, 5.27319], [102.41174, 5.28076], [102.41183, 5.28566], [102.41418, 5.28899], [102.41259, 5.29439], [102.41495, 5.29833], [102.41901, 5.31659], [102.42095, 5.31919], [102.4272, 5.32036], [102.42856, 5.32325], [102.42498, 5.33499], [102.42905, 5.34419], [102.42882, 5.34728], [102.42573, 5.35032], [102.42749, 5.35457], [102.42964, 5.35682], [102.43475, 5.3569], [102.43822, 5.35524], [102.44116, 5.36152], [102.44436, 5.35938], [102.44539, 5.35582], [102.45868, 5.34914], [102.46636, 5.35139], [102.46736, 5.35569], [102.47113, 5.35826], [102.48147, 5.36037], [102.48374, 5.35658], [102.48894, 5.35341], [102.49133, 5.35397], [102.49348, 5.35197], [102.50053, 5.35279], [102.50685, 5.35049], [102.51389, 5.34206], [102.51053, 5.3381], [102.51073, 5.33612], [102.52524, 5.33238], [102.52971, 5.33469], [102.53639, 5.34135], [102.54404, 5.35792], [102.5479, 5.3573], [102.55242, 5.35919], [102.55577, 5.36384], [102.56649, 5.36965], [102.57077, 5.36924], [102.57413, 5.36636], [102.58431, 5.36931], [102.58536, 5.37101], [102.58396, 5.37468], [102.58185, 5.37729], [102.57855, 5.37808], [102.57647, 5.38513], [102.57906, 5.38966], [102.58752, 5.39602], [102.58819, 5.40103], [102.5826, 5.41539], [102.57741, 5.41857], [102.58261, 5.42098], [102.58538, 5.4254], [102.59285, 5.43029], [102.59271, 5.43653], [102.58833, 5.43832], [102.59496, 5.44548], [102.5944, 5.44837], [102.59646, 5.4531], [102.58781, 5.46935], [102.59324, 5.47618], [102.5941, 5.48045], [102.59785, 5.48095]]]]}}, {"type": "Feature", "properties": {"state": "Terengganu", "seat": "N.22 Manir", "seat_name": "Manir"}, "geometry": {"type": "MultiPolygon", "coordinates": [[[[103.08154, 5.31792], [103.08498, 5.31842], [103.08538, 5.31656], [103.09033, 5.31548], [103.08704, 5.30198], [103.08899, 5.2967], [103.09491, 5.29027], [103.09421, 5.28563], [103.08007, 5.27904], [103.06216, 5.2672], [103.04553, 5.26767], [103.04049, 5.26519], [103.03711, 5.25955], [103.0355, 5.2526], [103.03559, 5.24087], [103.038, 5.23075], [103.03286, 5.23041], [103.03272, 5.22907], [103.02399, 5.23309], [103.02069, 5.23136], [103.01881, 5.23263], [103.01944, 5.23433], [103.01337, 5.23704], [103.01268, 5.23384], [103.01064, 5.23556], [103.00938, 5.23161], [103.00687, 5.22999], [103.00957, 5.2284], [103.00795, 5.2271], [103.00423, 5.23039], [103.00223, 5.22955], [103.00184, 5.23166], [103.0059, 5.23462], [103.00724, 5.24145], [103.01021, 5.24297], [103.01153, 5.24964], [103.01449, 5.25206], [103.01355, 5.25398], [103.02098, 5.25998], [103.02081, 5.26558], [103.02207, 5.26531], [103.02912, 5.27819], [103.0395, 5.28339], [103.04434, 5.28336], [103.04442, 5.28541], [103.04841, 5.28817], [103.04919, 5.28695], [103.05201, 5.28778], [103.05161, 5.29282], [103.04772, 5.29562], [103.04891, 5.29808], [103.05095, 5.29983], [103.05342, 5.29625], [103.05718, 5.29761], [103.05862, 5.30105], [103.05748, 5.30209], [103.05942, 5.30421], [103.06286, 5.30088], [103.07025, 5.30988], [103.08014, 5.31161], [103.08121, 5.31271], [103.07983, 5.31898], [103.08154, 5.31792]]]]}}, {"type": "Feature", "properties": {"state": "Terengganu", "seat": "N.23 Kuala Berang", "seat_name": "Kuala Berang"}, "geometry": {"type": "MultiPolygon", "coordinates": [[[[103.03991, 5.21641], [103.04696, 5.21208], [103.04444, 5.21097], [103.04404, 5.20449], [103.0514, 5.20339], [103.04981, 5.20195], [103.04979, 5.19806], [103.0467, 5.19676], [103.04766, 5.19301], [103.05172, 5.19181], [103.05071, 5.19012], [103.05253, 5.18763], [103.05253, 5.18299], [103.05482, 5.18386], [103.05273, 5.1786], [103.0557, 5.17833], [103.05382, 5.17584], [103.0559, 5.1751], [103.05691, 5.16995], [103.05533, 5.16998], [103.05479, 5.16726], [103.05765, 5.16541], [103.05773, 5.1642], [103.05603, 5.16479], [103.05394, 5.15898], [103.05112, 5.15868], [103.04895, 5.15339], [103.05182, 5.1523], [103.05211, 5.14901], [103.05708, 5.14288], [103.06123, 5.14055], [103.06816, 5.1288], [103.06928, 5.12924], [103.0729, 5.12354], [103.07404, 5.12392], [103.07376, 5.12196], [103.07625, 5.12095], [103.07882, 5.11559], [103.07864, 5.10785], [103.08135, 5.10439], [103.06852, 5.10634], [103.06646, 5.1042], [103.06407, 5.10565], [103.06269, 5.10381], [103.05389, 5.10578], [103.05162, 5.10443], [103.04577, 5.10487], [103.04546, 5.10608], [103.0439, 5.10482], [103.04019, 5.10585], [103.03522, 5.10458], [103.03484, 5.10588], [103.03313, 5.10482], [103.03121, 5.09114], [103.03211, 5.0882], [103.03028, 5.08848], [103.02996, 5.08415], [103.03329, 5.08358], [103.03309, 5.08166], [103.03653, 5.08163], [103.03743, 5.07919], [103.04191, 5.07658], [103.0475, 5.07656], [103.04991, 5.0798], [103.05359, 5.07388], [103.05307, 5.06989], [103.04069, 5.06958], [103.03744, 5.06706], [103.03745, 5.0624], [103.04102, 5.06206], [103.04289, 5.05939], [103.03744, 5.05971], [103.03784, 5.05544], [103.03501, 5.05514], [103.03409, 5.05933], [103.02679, 5.05926], [103.02605, 5.06509], [103.02135, 5.06591], [103.02278, 5.054], [103.02748, 5.05322], [103.02964, 5.05059], [103.02986, 5.04558], [103.02687, 5.04276], [103.02961, 5.03986], [103.02965, 5.03725], [103.01942, 5.03445], [103.01396, 5.02852], [103.01035, 5.03083], [103.00561, 5.03017], [103.00758, 5.03111], [103.00705, 5.03238], [103.00479, 5.03168], [103.00456, 5.03449], [103.00309, 5.03523], [103.00415, 5.03829], [103.00233, 5.03713], [103.00152, 5.04047], [102.99522, 5.04416], [102.99238, 5.04041], [102.99098, 5.04233], [102.98856, 5.04187], [102.98802, 5.0395], [102.98574, 5.04139], [102.98426, 5.03834], [102.98191, 5.03936], [102.97158, 5.03841], [102.97056, 5.03973], [102.97256, 5.04635], [102.97835, 5.04967], [102.97825, 5.05455], [102.97667, 5.05598], [102.97957, 5.05832], [102.98005, 5.05712], [102.98229, 5.05805], [102.98154, 5.06079], [102.98346, 5.06119], [102.98449, 5.05906], [102.98525, 5.06019], [102.98293, 5.06503], [102.97795, 5.06638], [102.9777, 5.0867], [102.9711, 5.08966], [102.9742, 5.0951], [102.97619, 5.09458], [102.97934, 5.09706], [102.98055, 5.1016], [102.97447, 5.10329], [102.97267, 5.10584], [102.97248, 5.10715], [102.97416, 5.10718], [102.97419, 5.1108], [102.97292, 5.11084], [102.97229, 5.11379], [102.975, 5.11996], [102.97216, 5.12169], [102.97497, 5.1224], [102.98747, 5.13919], [102.99075, 5.13888], [102.99175, 5.14274], [102.99386, 5.14218], [102.9961, 5.14464], [102.99929, 5.14463], [102.99965, 5.14739], [103.0082, 5.14457], [103.01107, 5.14732], [103.01247, 5.15175], [103.01479, 5.15132], [103.01739, 5.15388], [103.01961, 5.15992], [103.01566, 5.15996], [103.01332, 5.16506], [103.01457, 5.1653], [103.01195, 5.16785], [103.01227, 5.1716], [103.00767, 5.17465], [103.00635, 5.17999], [103.01681, 5.1865], [103.01881, 5.18948], [103.02179, 5.18892], [103.02201, 5.19081], [103.03147, 5.19518], [103.03119, 5.1977], [103.03655, 5.20303], [103.02944, 5.21057], [103.02867, 5.21462], [103.03727, 5.2178], [103.03991, 5.21641]]]]}}, {"type": "Feature", "properties": {"state": "Terengganu", "seat": "N.24 Ajil", "seat_name": "Ajil"}, "geometry": {"type": "MultiPolygon", "coordinates": [[[[103.08263, 5.11037], [103.08802, 5.107], [103.09122, 5.10833], [103.09262, 5.10348], [103.10016, 5.09708], [103.1058, 5.10133], [103.1059, 5.10306], [103.10934, 5.10346], [103.11251, 5.10841], [103.11767, 5.10528], [103.11981, 5.10743], [103.12072, 5.1056], [103.11873, 5.10471], [103.11888, 5.1032], [103.12129, 5.10462], [103.12157, 5.10016], [103.12295, 5.09816], [103.12443, 5.0987], [103.12633, 5.09004], [103.12747, 5.09046], [103.12917, 5.08621], [103.13081, 5.08637], [103.12978, 5.08258], [103.12751, 5.08185], [103.13007, 5.08026], [103.1282, 5.07666], [103.13181, 5.07608], [103.13168, 5.06974], [103.13936, 5.06838], [103.13889, 5.0647], [103.14495, 5.05804], [103.14676, 5.05913], [103.14871, 5.05127], [103.15087, 5.05154], [103.15267, 5.04751], [103.15785, 5.05257], [103.15938, 5.04676], [103.16705, 5.04178], [103.17183, 5.03312], [103.17582, 5.03055], [103.17993, 5.01851], [103.18665, 5.01668], [103.19168, 5.00796], [103.20384, 4.99929], [103.20512, 4.99531], [103.2132, 4.9857], [103.21685, 4.9637], [103.22846, 4.95528], [103.22275, 4.95067], [103.21107, 4.94969], [103.20767, 4.94051], [103.21264, 4.93172], [103.21139, 4.92842], [103.19375, 4.92036], [103.19022, 4.91606], [103.18664, 4.91832], [103.18276, 4.91518], [103.17821, 4.91425], [103.17548, 4.90918], [103.17755, 4.90761], [103.17776, 4.90478], [103.18005, 4.90488], [103.17996, 4.90244], [103.17728, 4.90065], [103.17831, 4.89903], [103.1753, 4.89568], [103.17097, 4.89587], [103.16794, 4.89921], [103.16105, 4.89686], [103.15661, 4.8931], [103.14509, 4.89031], [103.13676, 4.8917], [103.1346, 4.89575], [103.12407, 4.90336], [103.12023, 4.89494], [103.11374, 4.89746], [103.09865, 4.9179], [103.09012, 4.92312], [103.0872, 4.92284], [103.08725, 4.92414], [103.08405, 4.9256], [103.07851, 4.92651], [103.07998, 4.9216], [103.07836, 4.91807], [103.07995, 4.91554], [103.07653, 4.91159], [103.0805, 4.90817], [103.08379, 4.90022], [103.08473, 4.8912], [103.08198, 4.88756], [103.08586, 4.88397], [103.0845, 4.88263], [103.08682, 4.87596], [103.08151, 4.87025], [103.08109, 4.86047], [103.07535, 4.86348], [103.06997, 4.86409], [103.06757, 4.86177], [103.06899, 4.85761], [103.06669, 4.85621], [103.06483, 4.85642], [103.06313, 4.85918], [103.05764, 4.85957], [103.05443, 4.85494], [103.05128, 4.85718], [103.05062, 4.86235], [103.04494, 4.86478], [103.04373, 4.86257], [103.03574, 4.85855], [103.03648, 4.85365], [103.03897, 4.85211], [103.03962, 4.84568], [103.03508, 4.83893], [103.02946, 4.83488], [103.0177, 4.83499], [103.00345, 4.83995], [103.00143, 4.84347], [102.99242, 4.84654], [102.99023, 4.8437], [102.98485, 4.84306], [102.97597, 4.82179], [102.96935, 4.81991], [102.96112, 4.8219], [102.95372, 4.81851], [102.94795, 4.81248], [102.94326, 4.81042], [102.92972, 4.81143], [102.92656, 4.81425], [102.91814, 4.81746], [102.90689, 4.81394], [102.89429, 4.81545], [102.89072, 4.81275], [102.89158, 4.8079], [102.88751, 4.80939], [102.87331, 4.80632], [102.87322, 4.80954], [102.87896, 4.8138], [102.87946, 4.81663], [102.86527, 4.82842], [102.86408, 4.83791], [102.87128, 4.84216], [102.88087, 4.84326], [102.89212, 4.85538], [102.89351, 4.86569], [102.89798, 4.87334], [102.8969, 4.87725], [102.89923, 4.8822], [102.90538, 4.89019], [102.91246, 4.89535], [102.91409, 4.90255], [102.91801, 4.9078], [102.92711, 4.91191], [102.93293, 4.9059], [102.93788, 4.90656], [102.94087, 4.90501], [102.94438, 4.90669], [102.94953, 4.90639], [102.95348, 4.90257], [102.9552, 4.90397], [102.96336, 4.9009], [102.96658, 4.90163], [102.96853, 4.89993], [102.97585, 4.90418], [102.97802, 4.90944], [102.98294, 4.90758], [102.98583, 4.91393], [102.98493, 4.91848], [102.99006, 4.92319], [102.98978, 4.93289], [102.99291, 4.93305], [102.99302, 4.93641], [102.99853, 4.93844], [103.00532, 4.93563], [103.00927, 4.93671], [103.01095, 4.9458], [103.00756, 4.95546], [103.00716, 4.96335], [103.00956, 4.96443], [103.01106, 4.96268], [103.01277, 4.9645], [103.00703, 4.96913], [103.0114, 4.96981], [103.01348, 4.97383], [103.0128, 4.9759], [103.01677, 4.97682], [103.02527, 4.98278], [103.01709, 4.98346], [103.01636, 4.98626], [103.01704, 4.9916], [103.02327, 4.99324], [103.02256, 4.99984], [103.01161, 4.99758], [103.01149, 5.00909], [103.01764, 5.01215], [103.01813, 5.01402], [103.0136, 5.02023], [103.01308, 5.02921], [103.01198, 5.02938], [103.01559, 5.02893], [103.01942, 5.03445], [103.02965, 5.03725], [103.02961, 5.03986], [103.02687, 5.04276], [103.02986, 5.04558], [103.02964, 5.05059], [103.02748, 5.05322], [103.02278, 5.054], [103.02135, 5.06591], [103.02605, 5.06509], [103.02679, 5.05926], [103.03409, 5.05933], [103.03501, 5.05514], [103.03784, 5.05544], [103.03744, 5.05971], [103.04289, 5.05939], [103.04102, 5.06206], [103.03745, 5.0624], [103.03744, 5.06706], [103.04069, 5.06958], [103.05307, 5.06989], [103.05354, 5.07502], [103.04991, 5.0798], [103.0475, 5.07656], [103.04191, 5.07658], [103.03743, 5.07919], [103.03653, 5.08163], [103.03309, 5.08166], [103.03329, 5.08358], [103.02996, 5.08415], [103.03028, 5.08848], [103.03211, 5.0882], [103.03121, 5.09114], [103.03313, 5.10482], [103.03484, 5.10588], [103.03522, 5.10458], [103.04019, 5.10585], [103.0439, 5.10482], [103.04546, 5.10608], [103.04577, 5.10487], [103.05162, 5.10443], [103.05389, 5.10578], [103.06269, 5.10381], [103.06407, 5.10565], [103.06646, 5.1042], [103.06852, 5.10634], [103.08118, 5.10404], [103.07853, 5.11017], [103.08263, 5.11037]]]]}}, {"type": "Feature", "properties": {"state": "Terengganu", "seat": "N.25 Bukit Besi", "seat_name": "Bukit Besi"}, "geometry": {"type": "MultiPolygon", "coordinates": [[[[103.22846, 4.95528], [103.23455, 4.9095], [103.26373, 4.90098], [103.26887, 4.89774], [103.27088, 4.89509], [103.27052, 4.89103], [103.27242, 4.88753], [103.28002, 4.88598], [103.28574, 4.87033], [103.26307, 4.83538], [103.26135, 4.82714], [103.25795, 4.8293], [103.25513, 4.82567], [103.25635, 4.82405], [103.25243, 4.82339], [103.25151, 4.82005], [103.25325, 4.81959], [103.25263, 4.81739], [103.25077, 4.81813], [103.24864, 4.81299], [103.23946, 4.81698], [103.23847, 4.82249], [103.23234, 4.82555], [103.23025, 4.82437], [103.22587, 4.81605], [103.21364, 4.82048], [103.21148, 4.8175], [103.21368, 4.81608], [103.21147, 4.81275], [103.21313, 4.8085], [103.21168, 4.80837], [103.211, 4.80365], [103.21102, 4.79541], [103.21309, 4.79112], [103.2101, 4.78618], [103.21134, 4.78532], [103.21029, 4.78343], [103.21165, 4.78321], [103.2099, 4.78113], [103.21176, 4.77761], [103.21166, 4.72888], [103.24327, 4.73261], [103.24432, 4.7349], [103.24339, 4.7386], [103.24623, 4.74041], [103.24917, 4.74766], [103.24689, 4.75176], [103.24227, 4.75277], [103.24152, 4.75518], [103.23528, 4.7583], [103.24206, 4.7614], [103.24671, 4.76557], [103.26206, 4.77006], [103.26777, 4.77327], [103.26614, 4.77048], [103.26683, 4.76688], [103.26216, 4.76352], [103.26144, 4.74882], [103.26555, 4.7447], [103.26288, 4.73879], [103.25942, 4.73541], [103.26136, 4.73099], [103.25996, 4.71971], [103.26689, 4.70023], [103.27359, 4.65334], [103.27856, 4.64034], [103.27682, 4.63982], [103.2775, 4.63488], [103.283, 4.63116], [103.28054, 4.62584], [103.28491, 4.61199], [103.28243, 4.6074], [103.28485, 4.59337], [103.28364, 4.58716], [103.28582, 4.58002], [103.29048, 4.57615], [103.28796, 4.56682], [103.28965, 4.55809], [103.29395, 4.55397], [103.29474, 4.54719], [103.29243, 4.5455], [103.29329, 4.53857], [103.29049, 4.53556], [103.2958, 4.52561], [103.29836, 4.51637], [103.29635, 4.51151], [103.29669, 4.50698], [103.28965, 4.50089], [103.28461, 4.49387], [103.28798, 4.4731], [103.28718, 4.46966], [103.27194, 4.46024], [103.26826, 4.45563], [103.26203, 4.46476], [103.24928, 4.45745], [103.23665, 4.45645], [103.2307, 4.4547], [103.23054, 4.45255], [103.22643, 4.45222], [103.22283, 4.45662], [103.22409, 4.45752], [103.22295, 4.46089], [103.2242, 4.46331], [103.22107, 4.47387], [103.22234, 4.47698], [103.21746, 4.48211], [103.21503, 4.48906], [103.21478, 4.4965], [103.20918, 4.49609], [103.20378, 4.4895], [103.19927, 4.48656], [103.19323, 4.48483], [103.18997, 4.4867], [103.18839, 4.486], [103.18412, 4.46833], [103.18036, 4.46556], [103.17907, 4.46209], [103.1739, 4.45901], [103.16879, 4.44066], [103.15683, 4.43147], [103.1577, 4.42218], [103.15378, 4.4186], [103.15244, 4.4194], [103.15246, 4.42404], [103.14439, 4.42243], [103.14228, 4.42428], [103.14074, 4.42969], [103.13789, 4.43106], [103.12888, 4.44386], [103.12709, 4.4449], [103.12461, 4.44279], [103.12187, 4.44451], [103.11449, 4.44316], [103.11001, 4.43725], [103.10326, 4.43852], [103.10122, 4.43281], [103.09695, 4.42954], [103.09267, 4.42945], [103.09069, 4.42622], [103.08352, 4.42619], [103.07967, 4.42253], [103.07472, 4.42371], [103.06614, 4.4333], [103.05989, 4.43279], [103.05849, 4.4342], [103.05317, 4.43293], [103.04941, 4.43778], [103.0453, 4.43749], [103.03718, 4.43092], [103.03598, 4.42355], [103.02938, 4.42102], [103.02547, 4.40992], [103.01912, 4.40753], [103.01323, 4.41162], [103.01007, 4.41687], [103.00999, 4.42304], [103.012, 4.42641], [103.01275, 4.43441], [103.01092, 4.43742], [103.00201, 4.44476], [102.99814, 4.45015], [102.99171, 4.44981], [102.98552, 4.45483], [102.98612, 4.46233], [102.98157, 4.46501], [102.98161, 4.46685], [102.97648, 4.47124], [102.97685, 4.47491], [102.97082, 4.47992], [102.96914, 4.4798], [102.96318, 4.47132], [102.95442, 4.46934], [102.95434, 4.4557], [102.95091, 4.45172], [102.9432, 4.44884], [102.94191, 4.45393], [102.93542, 4.45849], [102.92807, 4.4672], [102.91564, 4.46482], [102.91316, 4.46287], [102.91127, 4.46827], [102.90099, 4.46646], [102.8871, 4.4684], [102.87891, 4.4638], [102.87495, 4.46479], [102.87255, 4.46743], [102.87172, 4.47251], [102.87388, 4.48197], [102.86962, 4.48328], [102.86541, 4.48764], [102.86188, 4.48725], [102.85466, 4.49427], [102.84721, 4.4964], [102.84376, 4.50075], [102.84635, 4.51741], [102.83667, 4.5323], [102.83627, 4.54457], [102.83944, 4.5508], [102.83751, 4.559], [102.84417, 4.55899], [102.85248, 4.5616], [102.86116, 4.55946], [102.8646, 4.56338], [102.86812, 4.57236], [102.86804, 4.57665], [102.87134, 4.58119], [102.87098, 4.58718], [102.85891, 4.59643], [102.85852, 4.60074], [102.86346, 4.60325], [102.87263, 4.60232], [102.87725, 4.60408], [102.88004, 4.60602], [102.88103, 4.61014], [102.87354, 4.61963], [102.86539, 4.6259], [102.87048, 4.63669], [102.86848, 4.64501], [102.85108, 4.66494], [102.84064, 4.67156], [102.84466, 4.69969], [102.84175, 4.70818], [102.84444, 4.71334], [102.84419, 4.71687], [102.8414, 4.72336], [102.8458, 4.72987], [102.86715, 4.73454], [102.8669, 4.73792], [102.87533, 4.74431], [102.87864, 4.74399], [102.89112, 4.74883], [102.89334, 4.75293], [102.89417, 4.761], [102.89025, 4.76862], [102.88782, 4.76973], [102.88731, 4.77587], [102.88906, 4.77937], [102.88855, 4.78489], [102.89481, 4.79321], [102.89595, 4.79718], [102.89072, 4.81275], [102.89429, 4.81545], [102.90689, 4.81394], [102.91821, 4.81746], [102.92656, 4.81425], [102.92972, 4.81143], [102.94326, 4.81042], [102.94795, 4.81248], [102.95372, 4.81851], [102.96112, 4.8219], [102.96935, 4.81991], [102.97597, 4.82179], [102.98485, 4.84306], [102.99023, 4.8437], [102.99242, 4.84654], [103.00143, 4.84347], [103.00345, 4.83995], [103.0177, 4.83499], [103.02946, 4.83488], [103.03508, 4.83893], [103.03962, 4.84568], [103.03897, 4.85211], [103.03648, 4.85365], [103.03574, 4.85855], [103.04373, 4.86257], [103.04494, 4.86478], [103.05062, 4.86235], [103.05128, 4.85718], [103.05443, 4.85494], [103.05764, 4.85957], [103.06313, 4.85918], [103.06483, 4.85642], [103.06669, 4.85621], [103.06899, 4.85761], [103.06757, 4.86177], [103.06997, 4.86409], [103.07535, 4.86348], [103.08109, 4.86047], [103.08151, 4.87025], [103.08682, 4.87596], [103.0845, 4.88263], [103.08586, 4.88397], [103.08198, 4.88756], [103.08473, 4.8912], [103.08379, 4.90022], [103.0805, 4.90817], [103.07653, 4.91159], [103.07995, 4.91554], [103.07836, 4.91807], [103.07998, 4.9216], [103.07851, 4.92651], [103.08405, 4.9256], [103.08725, 4.92414], [103.0872, 4.92284], [103.09012, 4.92312], [103.09865, 4.9179], [103.1107, 4.90048], [103.11374, 4.89746], [103.12023, 4.89494], [103.12407, 4.90336], [103.1346, 4.89575], [103.13524, 4.89281], [103.13996, 4.89031], [103.15661, 4.8931], [103.16105, 4.89686], [103.16794, 4.89921], [103.17097, 4.89587], [103.1753, 4.89568], [103.17831, 4.89903], [103.17728, 4.90065], [103.17996, 4.90244], [103.18005, 4.90488], [103.17776, 4.90478], [103.17755, 4.90761], [103.17548, 4.90918], [103.17821, 4.91425], [103.18276, 4.91518], [103.18664, 4.91832], [103.19022, 4.91606], [103.19375, 4.92036], [103.21139, 4.92842], [103.21264, 4.93172], [103.20767, 4.94051], [103.21107, 4.94969], [103.22275, 4.95067], [103.22846, 4.95528]]]]}}, {"type": "Feature", "properties": {"state": "Terengganu", "seat": "N.26 Rantau Abang", "seat_name": "Rantau Abang"}, "geometry": {"type": "MultiPolygon", "coordinates": [[[[103.68917, 4.7827], [103.68914, 4.782], [103.68742, 4.78201], [103.68809, 4.78261], [103.68917, 4.7827]]], [[[103.68149, 4.81699], [103.67986, 4.81558], [103.682, 4.8137], [103.68548, 4.81389], [103.69093, 4.81047], [103.68546, 4.80748], [103.68758, 4.80444], [103.68453, 4.80021], [103.68568, 4.79655], [103.68137, 4.79369], [103.6778, 4.79616], [103.67605, 4.80118], [103.67261, 4.80324], [103.67415, 4.80565], [103.67859, 4.80726], [103.6778, 4.81054], [103.67551, 4.8107], [103.67891, 4.81657], [103.68149, 4.81699]]], [[[103.66416, 4.84784], [103.66758, 4.84318], [103.66653, 4.84129], [103.66187, 4.84707], [103.66416, 4.84784]]], [[[103.66147, 4.8648], [103.66189, 4.8648], [103.66198, 4.86334], [103.66103, 4.86383], [103.66147, 4.8648]]], [[[103.31606, 4.87336], [103.3212, 4.87413], [103.32126, 4.87173], [103.33261, 4.86268], [103.33409, 4.8555], [103.33935, 4.85166], [103.34042, 4.84856], [103.34437, 4.85252], [103.34846, 4.85021], [103.35276, 4.8506], [103.35556, 4.85315], [103.36867, 4.85812], [103.37415, 4.86486], [103.37397, 4.8709], [103.3883, 4.87842], [103.40252, 4.85104], [103.42607, 4.81346], [103.43026, 4.79686], [103.43869, 4.78051], [103.43825, 4.77888], [103.42296, 4.78276], [103.4148, 4.78283], [103.39306, 4.77642], [103.39648, 4.76812], [103.39646, 4.76326], [103.39888, 4.75979], [103.40617, 4.75624], [103.40625, 4.75437], [103.40886, 4.75415], [103.40917, 4.74881], [103.41344, 4.74884], [103.42243, 4.73097], [103.41972, 4.71681], [103.41609, 4.71717], [103.41174, 4.72285], [103.39151, 4.72169], [103.38712, 4.72372], [103.37998, 4.73123], [103.37833, 4.73561], [103.38046, 4.7376], [103.38089, 4.74256], [103.37716, 4.74356], [103.37777, 4.74838], [103.37473, 4.74928], [103.37566, 4.75114], [103.37412, 4.75448], [103.36355, 4.75177], [103.35846, 4.75536], [103.35275, 4.75306], [103.35081, 4.75662], [103.34755, 4.7566], [103.34447, 4.75253], [103.34058, 4.75056], [103.33683, 4.75139], [103.33557, 4.74918], [103.3283, 4.7652], [103.32364, 4.76568], [103.32093, 4.76772], [103.31903, 4.77249], [103.31005, 4.77734], [103.30138, 4.77395], [103.30027, 4.77533], [103.2979, 4.77463], [103.29113, 4.77657], [103.28512, 4.77012], [103.27941, 4.7692], [103.27427, 4.77045], [103.27375, 4.77221], [103.26977, 4.77417], [103.26206, 4.77006], [103.24671, 4.76557], [103.24206, 4.7614], [103.23528, 4.7583], [103.24152, 4.75518], [103.24227, 4.75277], [103.24689, 4.75176], [103.24917, 4.74766], [103.24623, 4.74041], [103.24339, 4.7386], [103.24401, 4.73337], [103.21166, 4.72888], [103.21176, 4.77761], [103.2099, 4.78113], [103.21165, 4.78321], [103.21029, 4.78343], [103.21134, 4.78532], [103.2101, 4.78618], [103.21309, 4.79112], [103.21102, 4.79541], [103.21168, 4.80837], [103.21313, 4.8085], [103.21147, 4.81275], [103.21368, 4.81608], [103.21185, 4.81805], [103.21364, 4.82048], [103.2262, 4.81615], [103.23004, 4.82406], [103.23234, 4.82555], [103.23847, 4.82249], [103.23946, 4.81698], [103.24864, 4.81299], [103.25077, 4.81813], [103.25263, 4.81739], [103.25325, 4.81959], [103.25151, 4.82005], [103.25243, 4.82339], [103.25635, 4.82405], [103.25513, 4.82567], [103.25795, 4.8293], [103.26135, 4.82714], [103.26307, 4.83538], [103.28574, 4.87033], [103.28885, 4.86802], [103.29779, 4.86918], [103.30106, 4.87198], [103.30411, 4.87807], [103.30738, 4.87939], [103.30941, 4.87926], [103.31606, 4.87336]]]]}}, {"type": "Feature", "properties": {"state": "Terengganu", "seat": "N.27 Sura", "seat_name": "Sura"}, "geometry": {"type": "MultiPolygon", "coordinates": [[[[103.42148, 4.78291], [103.43828, 4.77888], [103.42716, 4.77871], [103.4214, 4.7656], [103.42624, 4.74497], [103.44587, 4.69882], [103.44686, 4.69529], [103.4446, 4.69429], [103.43759, 4.6944], [103.4352, 4.69795], [103.43114, 4.69829], [103.42607, 4.70584], [103.42878, 4.70817], [103.42808, 4.71149], [103.42928, 4.7127], [103.42137, 4.72266], [103.42243, 4.73097], [103.41731, 4.74161], [103.41343, 4.74885], [103.40917, 4.74881], [103.40886, 4.75415], [103.40625, 4.75437], [103.40617, 4.75624], [103.39888, 4.75979], [103.39599, 4.76435], [103.39648, 4.76812], [103.39306, 4.77642], [103.41271, 4.78252], [103.42148, 4.78291]]]]}}, {"type": "Feature", "properties": {"state": "Terengganu", "seat": "N.28 Paka", "seat_name": "Paka"}, "geometry": {"type": "MultiPolygon", "coordinates": [[[[103.31005, 4.77734], [103.31903, 4.77249], [103.32093, 4.76772], [103.32364, 4.76568], [103.3283, 4.7652], [103.33557, 4.74918], [103.33683, 4.75139], [103.34058, 4.75056], [103.34447, 4.75253], [103.34755, 4.7566], [103.35081, 4.75662], [103.35275, 4.75306], [103.35846, 4.75536], [103.36355, 4.75177], [103.37412, 4.75448], [103.37566, 4.75114], [103.37473, 4.74928], [103.37777, 4.74838], [103.37716, 4.74356], [103.38089, 4.74256], [103.38046, 4.7376], [103.37833, 4.73561], [103.37998, 4.73123], [103.38712, 4.72372], [103.39151, 4.72169], [103.41174, 4.72285], [103.41715, 4.71679], [103.41972, 4.71681], [103.42174, 4.72256], [103.42928, 4.7127], [103.42808, 4.71149], [103.42878, 4.70817], [103.42607, 4.70584], [103.43114, 4.69829], [103.4352, 4.69795], [103.43759, 4.6944], [103.44686, 4.69529], [103.44873, 4.68666], [103.44749, 4.68472], [103.44807, 4.67972], [103.4452, 4.67592], [103.44826, 4.66255], [103.44773, 4.65727], [103.44711, 4.65478], [103.43989, 4.65265], [103.43831, 4.64303], [103.44868, 4.60935], [103.45457, 4.59544], [103.44293, 4.59148], [103.37362, 4.58633], [103.37284, 4.58162], [103.36807, 4.58106], [103.36369, 4.58351], [103.36327, 4.58802], [103.35576, 4.58658], [103.3536, 4.5902], [103.34397, 4.59798], [103.33914, 4.58765], [103.33444, 4.58382], [103.3306, 4.58279], [103.33043, 4.57571], [103.32735, 4.56948], [103.31962, 4.56839], [103.31555, 4.56358], [103.30926, 4.56645], [103.3054, 4.56283], [103.30215, 4.56215], [103.29395, 4.55397], [103.28965, 4.55809], [103.28796, 4.56682], [103.29048, 4.57615], [103.28582, 4.58002], [103.28364, 4.58716], [103.28485, 4.59337], [103.28243, 4.6074], [103.28491, 4.61199], [103.28054, 4.62584], [103.283, 4.63116], [103.2775, 4.63488], [103.27682, 4.63982], [103.27856, 4.64034], [103.27359, 4.65334], [103.26689, 4.70023], [103.25996, 4.71971], [103.26136, 4.73099], [103.25942, 4.73541], [103.26288, 4.73879], [103.26555, 4.7447], [103.26144, 4.74882], [103.26141, 4.75783], [103.26216, 4.76352], [103.26683, 4.76688], [103.26631, 4.77151], [103.26977, 4.77417], [103.27375, 4.77221], [103.27427, 4.77045], [103.27941, 4.7692], [103.28512, 4.77012], [103.29113, 4.77657], [103.2979, 4.77463], [103.30027, 4.77533], [103.30138, 4.77395], [103.31005, 4.77734]]]]}}, {"type": "Feature", "properties": {"state": "Terengganu", "seat": "N.29 Kemasik", "seat_name": "Kemasik"}, "geometry": {"type": "MultiPolygon", "coordinates": [[[[103.35379, 4.5894], [103.35576, 4.58658], [103.36327, 4.58802], [103.3628, 4.58483], [103.36574, 4.58126], [103.37197, 4.58123], [103.37362, 4.58633], [103.44293, 4.59148], [103.45458, 4.59542], [103.47078, 4.55555], [103.47194, 4.54211], [103.47024, 4.53882], [103.47336, 4.52527], [103.46703, 4.5139], [103.46233, 4.51613], [103.45621, 4.51609], [103.44719, 4.50705], [103.44799, 4.5043], [103.44511, 4.49566], [103.44605, 4.47904], [103.44397, 4.47217], [103.44824, 4.45299], [103.45554, 4.43658], [103.45486, 4.42602], [103.4568, 4.41856], [103.45449, 4.41869], [103.45444, 4.4175], [103.45664, 4.41636], [103.45543, 4.41306], [103.45618, 4.40502], [103.45549, 4.39812], [103.43945, 4.38951], [103.4273, 4.38503], [103.4189, 4.38667], [103.41166, 4.38341], [103.40617, 4.38401], [103.40599, 4.38598], [103.40239, 4.388], [103.39504, 4.38506], [103.38935, 4.38533], [103.38816, 4.38686], [103.38706, 4.38335], [103.37707, 4.37723], [103.36966, 4.38205], [103.37036, 4.38977], [103.37195, 4.3896], [103.37418, 4.3923], [103.37251, 4.39765], [103.37433, 4.39917], [103.37118, 4.40509], [103.36022, 4.41448], [103.36062, 4.41849], [103.35809, 4.42326], [103.37397, 4.42429], [103.37732, 4.43624], [103.37592, 4.46598], [103.37093, 4.49334], [103.34984, 4.48792], [103.3421, 4.48031], [103.32968, 4.47274], [103.3283, 4.47036], [103.33, 4.46792], [103.32768, 4.46004], [103.32472, 4.45495], [103.32337, 4.45352], [103.32191, 4.45458], [103.319, 4.44999], [103.31549, 4.45108], [103.31418, 4.45643], [103.30756, 4.4587], [103.2979, 4.45671], [103.29594, 4.46542], [103.28718, 4.46966], [103.28798, 4.4731], [103.28461, 4.49387], [103.28965, 4.50089], [103.29669, 4.50698], [103.29635, 4.51151], [103.29835, 4.51602], [103.2958, 4.52561], [103.29049, 4.53556], [103.29329, 4.53857], [103.29243, 4.5455], [103.29474, 4.54719], [103.29383, 4.55388], [103.30215, 4.56215], [103.3054, 4.56283], [103.30926, 4.56645], [103.31555, 4.56358], [103.31962, 4.56839], [103.32735, 4.56948], [103.33043, 4.57571], [103.3306, 4.58279], [103.33444, 4.58382], [103.33914, 4.58765], [103.34397, 4.59798], [103.35379, 4.5894]]]]}}, {"type": "Feature", "properties": {"state": "Terengganu", "seat": "N.30 Kijal", "seat_name": "Kijal"}, "geometry": {"type": "MultiPolygon", "coordinates": [[[[103.21652, 4.48581], [103.21823, 4.48021], [103.22234, 4.47698], [103.22107, 4.47387], [103.2242, 4.46331], [103.22295, 4.46089], [103.22409, 4.45752], [103.22283, 4.45662], [103.22643, 4.45222], [103.23054, 4.45255], [103.2307, 4.4547], [103.23665, 4.45645], [103.24928, 4.45745], [103.26203, 4.46476], [103.26826, 4.45563], [103.27194, 4.46024], [103.28718, 4.46966], [103.29594, 4.46542], [103.2979, 4.45671], [103.30756, 4.4587], [103.31418, 4.45643], [103.31549, 4.45108], [103.319, 4.44999], [103.32191, 4.45458], [103.32337, 4.45352], [103.32472, 4.45495], [103.32768, 4.46004], [103.33, 4.46792], [103.3283, 4.47036], [103.32968, 4.47274], [103.3421, 4.48031], [103.34984, 4.48792], [103.37093, 4.49334], [103.37592, 4.46598], [103.37732, 4.43624], [103.37397, 4.42429], [103.35809, 4.42326], [103.36062, 4.41849], [103.36022, 4.41448], [103.37118, 4.40509], [103.37433, 4.39917], [103.37251, 4.39765], [103.37418, 4.3923], [103.37195, 4.3896], [103.37036, 4.38977], [103.36966, 4.38205], [103.37707, 4.37723], [103.38706, 4.38335], [103.38816, 4.38686], [103.38935, 4.38533], [103.39504, 4.38506], [103.40239, 4.388], [103.40599, 4.38598], [103.40617, 4.38401], [103.41093, 4.38341], [103.4189, 4.38667], [103.4273, 4.38503], [103.43945, 4.38951], [103.45549, 4.39812], [103.45617, 4.39263], [103.46521, 4.3724], [103.47721, 4.35095], [103.47609, 4.35052], [103.49154, 4.32944], [103.49023, 4.30644], [103.48529, 4.299], [103.48661, 4.29266], [103.47737, 4.28746], [103.47826, 4.27576], [103.4763, 4.27247], [103.47773, 4.27104], [103.47274, 4.26636], [103.47331, 4.25635], [103.4715, 4.24833], [103.46116, 4.24888], [103.46008, 4.23757], [103.45548, 4.23703], [103.45127, 4.24051], [103.44951, 4.23861], [103.44699, 4.24113], [103.4418, 4.24137], [103.43573, 4.24644], [103.43334, 4.25394], [103.42273, 4.25442], [103.41617, 4.25903], [103.4185, 4.26427], [103.41236, 4.26822], [103.41618, 4.27104], [103.41572, 4.27403], [103.40948, 4.27458], [103.4086, 4.28172], [103.40359, 4.27427], [103.37438, 4.27962], [103.37111, 4.2791], [103.37172, 4.27793], [103.36829, 4.27323], [103.36631, 4.28054], [103.36433, 4.27883], [103.364, 4.2809], [103.2843, 4.29685], [103.27551, 4.30032], [103.27173, 4.30025], [103.2605, 4.30689], [103.25812, 4.30734], [103.25897, 4.30403], [103.25731, 4.30347], [103.25556, 4.30804], [103.25432, 4.3062], [103.25418, 4.30766], [103.25126, 4.30885], [103.24234, 4.30785], [103.23845, 4.31216], [103.23394, 4.31285], [103.23048, 4.3159], [103.23834, 4.32572], [103.24024, 4.33001], [103.23901, 4.33453], [103.23773, 4.33555], [103.23404, 4.33294], [103.23378, 4.33795], [103.22628, 4.33794], [103.21683, 4.34665], [103.20796, 4.36044], [103.20467, 4.37504], [103.19991, 4.37907], [103.19198, 4.38114], [103.18768, 4.37382], [103.18096, 4.3741], [103.17894, 4.37721], [103.17979, 4.39549], [103.17025, 4.40188], [103.16663, 4.40223], [103.16181, 4.40862], [103.1548, 4.41144], [103.15376, 4.41427], [103.15488, 4.42039], [103.1577, 4.42218], [103.15683, 4.43147], [103.16879, 4.44066], [103.1739, 4.45901], [103.17907, 4.46209], [103.18036, 4.46556], [103.18493, 4.47011], [103.18839, 4.486], [103.19683, 4.4855], [103.20378, 4.4895], [103.20827, 4.49585], [103.21388, 4.49695], [103.21652, 4.48581]]]]}}, {"type": "Feature", "properties": {"state": "Terengganu", "seat": "N.31 Cukai", "seat_name": "Cukai"}, "geometry": {"type": "MultiPolygon", "coordinates": [[[[103.42605, 4.2537], [103.43334, 4.25394], [103.43573, 4.24644], [103.4418, 4.24137], [103.44699, 4.24113], [103.44951, 4.23861], [103.44546, 4.23389], [103.44125, 4.21865], [103.43906, 4.2157], [103.4397, 4.20665], [103.44444, 4.18906], [103.44169, 4.18494], [103.44015, 4.18595], [103.43687, 4.18485], [103.43508, 4.17879], [103.42054, 4.18263], [103.39805, 4.17767], [103.34484, 4.1773], [103.34243, 4.18155], [103.33453, 4.18702], [103.32517, 4.18882], [103.32174, 4.19386], [103.31933, 4.21355], [103.336, 4.21025], [103.34204, 4.2136], [103.34655, 4.21947], [103.34909, 4.21541], [103.355, 4.21376], [103.35942, 4.20794], [103.36091, 4.21273], [103.36529, 4.21683], [103.39342, 4.22162], [103.39581, 4.21927], [103.39171, 4.2085], [103.39357, 4.20356], [103.40247, 4.20591], [103.4104, 4.22014], [103.41441, 4.22068], [103.41616, 4.23242], [103.40471, 4.23666], [103.39739, 4.23575], [103.3949, 4.23829], [103.40457, 4.24042], [103.40534, 4.24257], [103.41166, 4.24086], [103.42014, 4.25624], [103.42605, 4.2537]]]]}}, {"type": "Feature", "properties": {"state": "Terengganu", "seat": "N.32 Air Putih", "seat_name": "Air Putih"}, "geometry": {"type": "MultiPolygon", "coordinates": [[[[103.12888, 4.44386], [103.13789, 4.43106], [103.14074, 4.42969], [103.14143, 4.42533], [103.14406, 4.42257], [103.15265, 4.42387], [103.1548, 4.41144], [103.16181, 4.40862], [103.16663, 4.40223], [103.17025, 4.40188], [103.17979, 4.39549], [103.17894, 4.37721], [103.18096, 4.3741], [103.18768, 4.37382], [103.19198, 4.38114], [103.19991, 4.37907], [103.20467, 4.37504], [103.20796, 4.36044], [103.21683, 4.34665], [103.22628, 4.33794], [103.23378, 4.33795], [103.23404, 4.33294], [103.23773, 4.33555], [103.23901, 4.33453], [103.24024, 4.33001], [103.23834, 4.32572], [103.23048, 4.3159], [103.23394, 4.31285], [103.23845, 4.31216], [103.24234, 4.30785], [103.25126, 4.30885], [103.25418, 4.30766], [103.25432, 4.3062], [103.25556, 4.30804], [103.25731, 4.30347], [103.25897, 4.30403], [103.25812, 4.30734], [103.2605, 4.30689], [103.27173, 4.30025], [103.27551, 4.30032], [103.2843, 4.29685], [103.364, 4.2809], [103.36433, 4.27883], [103.36631, 4.28054], [103.36829, 4.27323], [103.37172, 4.27793], [103.37111, 4.2791], [103.37438, 4.27962], [103.40359, 4.27427], [103.40758, 4.28174], [103.40917, 4.28109], [103.40948, 4.27458], [103.41572, 4.27403], [103.41638, 4.27139], [103.41241, 4.26781], [103.4185, 4.26427], [103.41617, 4.25903], [103.42014, 4.25624], [103.41638, 4.25098], [103.41685, 4.24875], [103.4132, 4.24199], [103.40996, 4.24085], [103.40534, 4.24257], [103.40457, 4.24042], [103.3949, 4.23829], [103.39739, 4.23575], [103.40471, 4.23666], [103.41616, 4.23242], [103.41441, 4.22068], [103.4104, 4.22014], [103.40247, 4.20591], [103.39357, 4.20356], [103.39171, 4.2085], [103.39581, 4.21927], [103.39321, 4.22167], [103.36529, 4.21683], [103.36091, 4.21273], [103.35942, 4.20794], [103.35441, 4.21424], [103.349, 4.21548], [103.34708, 4.21952], [103.34204, 4.2136], [103.3371, 4.21057], [103.31933, 4.21355], [103.31869, 4.2112], [103.32079, 4.20747], [103.32031, 4.19984], [103.32174, 4.19386], [103.31887, 4.19098], [103.31724, 4.18585], [103.32174, 4.17853], [103.32008, 4.17035], [103.3231, 4.16805], [103.32237, 4.16463], [103.32815, 4.1617], [103.32414, 4.15634], [103.32766, 4.15038], [103.32858, 4.14385], [103.32423, 4.14164], [103.32266, 4.13295], [103.3239, 4.12595], [103.31685, 4.12134], [103.30826, 4.11858], [103.30709, 4.11637], [103.30732, 4.10788], [103.30539, 4.10176], [103.30687, 4.09475], [103.30403, 4.08698], [103.30081, 4.08621], [103.30008, 4.08155], [103.30721, 4.06202], [103.31303, 4.06106], [103.31737, 4.06294], [103.31895, 4.05798], [103.32188, 4.05567], [103.32644, 4.04745], [103.32818, 4.03256], [103.3254, 4.02425], [103.32631, 4.02301], [103.32411, 4.00901], [103.32584, 3.99231], [103.32865, 3.98589], [103.33144, 3.98557], [103.3334, 3.98261], [103.33101, 3.97905], [103.33181, 3.97259], [103.3354, 3.96422], [103.33471, 3.95863], [103.33306, 3.95765], [103.33502, 3.94846], [103.33388, 3.94883], [103.32703, 3.93618], [103.32727, 3.92955], [103.32344, 3.92978], [103.31684, 3.9254], [103.31032, 3.92401], [103.3039, 3.9193], [103.31706, 3.89877], [103.31765, 3.89336], [103.31412, 3.88929], [103.31301, 3.88631], [103.31393, 3.88364], [103.31052, 3.88097], [103.30129, 3.89309], [103.30131, 3.89901], [103.28094, 3.93357], [103.27862, 3.94001], [103.27611, 3.93942], [103.2729, 3.94645], [103.26934, 3.94886], [103.26628, 3.94831], [103.26705, 3.95318], [103.26995, 3.95485], [103.26979, 3.96076], [103.27596, 3.96237], [103.27154, 3.9724], [103.27175, 3.97537], [103.27066, 3.9749], [103.2707, 3.97688], [103.26595, 3.97958], [103.26354, 3.98304], [103.25614, 3.98573], [103.25199, 3.99019], [103.24633, 3.99164], [103.24502, 3.99748], [103.23949, 4.00448], [103.24093, 4.01656], [103.23972, 4.01766], [103.23418, 4.01577], [103.22481, 4.01997], [103.21574, 4.01012], [103.20691, 4.01243], [103.20086, 4.0248], [103.20194, 4.03367], [103.20019, 4.0383], [103.19346, 4.03858], [103.18653, 4.02706], [103.18429, 4.02986], [103.18045, 4.0287], [103.17466, 4.03003], [103.16777, 4.02924], [103.16312, 4.03188], [103.16028, 4.03835], [103.1608, 4.0403], [103.15758, 4.04133], [103.15668, 4.04548], [103.15307, 4.04794], [103.15255, 4.04625], [103.14946, 4.046], [103.14701, 4.04975], [103.14327, 4.04923], [103.14263, 4.05371], [103.13928, 4.05558], [103.13483, 4.05144], [103.13412, 4.05429], [103.13193, 4.05558], [103.13257, 4.06179], [103.12909, 4.06943], [103.12149, 4.07164], [103.12188, 4.07552], [103.12372, 4.07737], [103.12136, 4.0807], [103.11868, 4.0804], [103.11621, 4.0851], [103.10641, 4.08743], [103.1028, 4.09222], [103.09919, 4.08769], [103.09365, 4.08925], [103.08785, 4.09534], [103.08217, 4.09624], [103.07682, 4.09323], [103.07503, 4.09426], [103.07361, 4.09648], [103.07247, 4.10353], [103.07358, 4.10765], [103.07196, 4.11288], [103.06657, 4.11185], [103.06256, 4.11649], [103.05647, 4.1152], [103.05313, 4.11876], [103.0508, 4.11556], [103.04649, 4.11415], [103.04469, 4.11647], [103.03324, 4.11721], [103.02942, 4.12054], [103.02429, 4.12117], [103.02123, 4.11736], [103.01861, 4.11675], [103.01426, 4.12123], [103.01419, 4.12418], [103.00675, 4.12814], [103.00608, 4.12991], [103.00175, 4.12773], [102.99477, 4.12967], [102.99242, 4.12859], [102.99142, 4.12416], [102.98725, 4.12242], [102.98566, 4.11852], [102.98207, 4.12225], [102.97754, 4.12204], [102.97432, 4.11866], [102.97204, 4.12001], [102.96535, 4.11799], [102.96103, 4.11208], [102.94207, 4.10627], [102.93122, 4.09803], [102.92632, 4.0972], [102.91373, 4.1031], [102.91166, 4.10727], [102.90488, 4.11291], [102.89534, 4.12703], [102.88844, 4.13419], [102.88972, 4.13817], [102.90075, 4.14763], [102.91243, 4.1511], [102.91883, 4.15739], [102.91917, 4.16953], [102.91703, 4.1783], [102.91943, 4.18409], [102.91952, 4.18914], [102.91665, 4.20023], [102.91059, 4.21184], [102.91125, 4.21458], [102.91985, 4.22531], [102.91813, 4.23194], [102.92843, 4.23512], [102.93031, 4.2377], [102.93114, 4.24454], [102.92787, 4.25583], [102.92741, 4.26427], [102.9301, 4.26958], [102.9298, 4.27817], [102.93771, 4.28746], [102.94047, 4.28792], [102.94519, 4.28376], [102.95107, 4.28515], [102.95659, 4.29439], [102.95866, 4.30156], [102.95867, 4.31161], [102.96085, 4.32016], [102.96987, 4.33034], [102.97617, 4.33299], [102.97605, 4.33484], [102.98158, 4.33657], [102.98607, 4.33426], [102.99159, 4.33495], [102.99671, 4.33087], [102.9987, 4.33183], [103.00198, 4.32943], [103.0079, 4.32922], [103.00999, 4.33176], [103.01476, 4.33332], [103.01533, 4.33751], [103.01254, 4.34011], [103.00902, 4.34013], [103.0085, 4.34291], [103.00579, 4.34384], [103.00815, 4.3556], [103.00603, 4.35997], [103.00744, 4.36309], [103.00507, 4.36585], [103.00634, 4.37365], [103.00436, 4.37617], [103.00877, 4.38403], [103.01131, 4.38604], [103.01621, 4.38634], [103.01805, 4.39114], [103.02642, 4.39775], [103.02606, 4.40305], [103.02779, 4.40513], [103.02549, 4.41194], [103.02938, 4.42102], [103.03598, 4.42355], [103.03718, 4.43092], [103.04583, 4.43763], [103.04941, 4.43778], [103.05317, 4.43293], [103.05849, 4.4342], [103.05989, 4.43279], [103.06614, 4.4333], [103.07472, 4.42371], [103.07967, 4.42253], [103.08352, 4.42619], [103.09069, 4.42622], [103.09267, 4.42945], [103.09695, 4.42954], [103.10122, 4.43281], [103.10326, 4.43852], [103.10978, 4.43719], [103.11568, 4.44375], [103.12198, 4.44451], [103.12461, 4.44279], [103.12734, 4.44494], [103.12888, 4.44386]]]]}}], "_provenance": {"source": "https://github.com/atifmustaffa/malaysia-geojson (malaysia.dun.geojson)", "licence": "MIT (c) 2026 Atif Mustaffa — see LICENSE in this directory", "downloaded": "2026-08-29", "simplification": "none (original coordinates)", "modified_by": "HitungKerusi 222 research pipeline (seat-name normalisation, per-state split)"}}