{"type": "FeatureCollection", "features": [{"type": "Feature", "properties": {"state": "Melaka", "seat": "N.01 Kuala Linggi", "seat_name": "Kuala Linggi"}, "geometry": {"type": "MultiPolygon", "coordinates": [[[[102.04358, 2.34524], [102.04455, 2.34445], [102.04403, 2.3435], [102.04313, 2.34405], [102.04358, 2.34524]]], [[[102.02907, 2.44093], [102.03783, 2.43404], [102.03515, 2.4312], [102.03465, 2.42676], [102.0431, 2.42027], [102.04048, 2.41761], [102.04248, 2.41338], [102.06211, 2.40276], [102.06925, 2.39721], [102.06393, 2.3968], [102.0648, 2.39317], [102.06152, 2.38999], [102.06257, 2.38964], [102.06237, 2.3809], [102.0606, 2.38185], [102.05736, 2.37732], [102.05285, 2.3749], [102.05484, 2.37053], [102.05308, 2.36975], [102.05339, 2.36841], [102.05879, 2.3678], [102.06468, 2.36455], [102.06763, 2.36213], [102.06869, 2.35871], [102.07007, 2.34707], [102.06555, 2.33753], [102.06878, 2.33295], [102.06532, 2.32993], [102.05437, 2.34304], [102.05004, 2.34535], [102.04905, 2.34363], [102.04793, 2.34426], [102.04933, 2.34563], [102.03915, 2.34806], [102.02505, 2.36027], [102.01317, 2.36617], [101.99897, 2.3689], [101.99583, 2.36529], [101.98807, 2.36937], [101.9861, 2.36912], [101.98629, 2.36685], [101.98361, 2.36685], [101.98303, 2.36938], [101.97985, 2.36985], [101.97851, 2.36715], [101.97904, 2.37042], [101.97623, 2.37035], [101.97262, 2.37504], [101.96886, 2.38419], [101.96853, 2.39188], [101.97728, 2.3909], [101.98382, 2.39828], [101.99562, 2.40149], [102.01393, 2.41184], [102.02748, 2.4288], [102.02907, 2.44093]]]]}}, {"type": "Feature", "properties": {"state": "Melaka", "seat": "N.02 Tanjung Bidara", "seat_name": "Tanjung Bidara"}, "geometry": {"type": "MultiPolygon", "coordinates": [[[[102.07645, 2.3973], [102.08107, 2.39364], [102.08291, 2.39392], [102.08673, 2.38913], [102.08921, 2.38894], [102.09045, 2.38232], [102.0869, 2.37391], [102.09177, 2.36216], [102.09038, 2.36196], [102.09302, 2.35881], [102.09623, 2.35855], [102.09657, 2.35581], [102.10016, 2.35531], [102.10039, 2.35691], [102.10211, 2.35484], [102.09872, 2.35163], [102.10024, 2.35026], [102.10124, 2.35146], [102.10183, 2.34958], [102.10016, 2.3501], [102.09877, 2.34731], [102.10158, 2.34781], [102.10145, 2.34669], [102.09728, 2.34507], [102.09937, 2.34274], [102.10237, 2.34354], [102.10259, 2.34125], [102.09933, 2.34094], [102.09892, 2.33883], [102.10751, 2.33181], [102.1044, 2.33029], [102.10354, 2.32736], [102.09993, 2.32748], [102.09763, 2.32314], [102.0991, 2.32166], [102.09817, 2.31994], [102.10037, 2.31828], [102.09951, 2.31607], [102.10077, 2.31337], [102.10272, 2.31272], [102.10365, 2.30555], [102.09595, 2.30627], [102.09564, 2.2998], [102.08749, 2.29916], [102.09015, 2.29244], [102.08868, 2.29121], [102.08388, 2.29222], [102.07869, 2.29573], [102.07153, 2.31787], [102.06532, 2.32993], [102.06878, 2.33295], [102.06555, 2.33753], [102.07016, 2.3479], [102.06769, 2.362], [102.05943, 2.36753], [102.05305, 2.36928], [102.05484, 2.37053], [102.05315, 2.37576], [102.05736, 2.37732], [102.0606, 2.38185], [102.06237, 2.3809], [102.06257, 2.38964], [102.06152, 2.38999], [102.0648, 2.39317], [102.06396, 2.39687], [102.07645, 2.3973]]]]}}, {"type": "Feature", "properties": {"state": "Melaka", "seat": "N.03 Ayer Limau", "seat_name": "Ayer Limau"}, "geometry": {"type": "MultiPolygon", "coordinates": [[[[102.12591, 2.45095], [102.12434, 2.45076], [102.12332, 2.44459], [102.12636, 2.44282], [102.1216, 2.43664], [102.1167, 2.43411], [102.11795, 2.43178], [102.11673, 2.42974], [102.10959, 2.42641], [102.11367, 2.42061], [102.11545, 2.40946], [102.11135, 2.40787], [102.11146, 2.40636], [102.12098, 2.38871], [102.12308, 2.38686], [102.12385, 2.38815], [102.1291, 2.38635], [102.13385, 2.38767], [102.13652, 2.38672], [102.14031, 2.38406], [102.13981, 2.37973], [102.1374, 2.37845], [102.13746, 2.37576], [102.1344, 2.37603], [102.13289, 2.37155], [102.12652, 2.36882], [102.12154, 2.36109], [102.11923, 2.36155], [102.11817, 2.35842], [102.11343, 2.35389], [102.11, 2.35351], [102.1065, 2.35634], [102.09657, 2.35581], [102.09623, 2.35855], [102.09302, 2.35881], [102.09038, 2.36196], [102.09177, 2.36216], [102.0869, 2.37391], [102.09045, 2.38232], [102.08921, 2.38894], [102.08673, 2.38913], [102.08291, 2.39392], [102.08107, 2.39364], [102.07578, 2.39785], [102.06925, 2.39721], [102.05621, 2.40626], [102.0468, 2.40998], [102.04248, 2.41338], [102.04048, 2.41761], [102.04309, 2.42027], [102.04761, 2.41928], [102.05075, 2.42146], [102.04951, 2.42821], [102.05247, 2.43396], [102.06076, 2.43441], [102.0629, 2.43671], [102.06543, 2.44226], [102.06309, 2.4439], [102.06169, 2.44208], [102.0597, 2.44395], [102.06202, 2.44839], [102.06107, 2.4537], [102.0638, 2.45755], [102.06692, 2.45636], [102.06983, 2.45781], [102.07763, 2.45403], [102.0814, 2.45488], [102.08724, 2.45016], [102.08896, 2.44531], [102.08978, 2.44761], [102.12157, 2.46227], [102.12019, 2.45966], [102.12571, 2.45502], [102.12591, 2.45095]]]]}}, {"type": "Feature", "properties": {"state": "Melaka", "seat": "N.04 Lendu", "seat_name": "Lendu"}, "geometry": {"type": "MultiPolygon", "coordinates": [[[[102.17482, 2.382], [102.1761, 2.38113], [102.17632, 2.3761], [102.17413, 2.37502], [102.17628, 2.37156], [102.17517, 2.37044], [102.17817, 2.36135], [102.17434, 2.35782], [102.18067, 2.34441], [102.18098, 2.33797], [102.1841, 2.33059], [102.18386, 2.32576], [102.17991, 2.32452], [102.18045, 2.31611], [102.18776, 2.316], [102.18987, 2.31221], [102.18492, 2.31239], [102.1845, 2.30853], [102.17761, 2.31], [102.15924, 2.30514], [102.15674, 2.30751], [102.1558, 2.30386], [102.14432, 2.30147], [102.14683, 2.29236], [102.14594, 2.29007], [102.13389, 2.2947], [102.13046, 2.28964], [102.12556, 2.28991], [102.12162, 2.28757], [102.12039, 2.28499], [102.11818, 2.28502], [102.11481, 2.28846], [102.11023, 2.28808], [102.10989, 2.28984], [102.09407, 2.28944], [102.09015, 2.29244], [102.08749, 2.29916], [102.09564, 2.2998], [102.09595, 2.30627], [102.10365, 2.30555], [102.10272, 2.31272], [102.10077, 2.31337], [102.09951, 2.31607], [102.10037, 2.31828], [102.09817, 2.31994], [102.0991, 2.32166], [102.09763, 2.32314], [102.09993, 2.32748], [102.10354, 2.32736], [102.1044, 2.33029], [102.10751, 2.33181], [102.09892, 2.33883], [102.09933, 2.34094], [102.10259, 2.34125], [102.10237, 2.34354], [102.09937, 2.34274], [102.09728, 2.34507], [102.10145, 2.34669], [102.10158, 2.34781], [102.09877, 2.34731], [102.10016, 2.3501], [102.10188, 2.34981], [102.10124, 2.35146], [102.10024, 2.35026], [102.09872, 2.35163], [102.10211, 2.35484], [102.10062, 2.35662], [102.10807, 2.35607], [102.11, 2.35351], [102.11441, 2.35444], [102.11923, 2.36155], [102.12154, 2.36109], [102.12652, 2.36882], [102.13289, 2.37155], [102.13465, 2.37626], [102.13746, 2.37576], [102.1374, 2.37845], [102.14061, 2.37679], [102.14228, 2.37857], [102.14428, 2.37804], [102.15114, 2.37156], [102.15378, 2.36681], [102.15937, 2.36591], [102.16308, 2.37043], [102.16481, 2.36991], [102.16546, 2.37262], [102.17123, 2.37386], [102.17285, 2.37701], [102.17257, 2.38268], [102.17482, 2.382]]]]}}, {"type": "Feature", "properties": {"state": "Melaka", "seat": "N.05 Taboh Naning", "seat_name": "Taboh Naning"}, "geometry": {"type": "MultiPolygon", "coordinates": [[[[102.17853, 2.49786], [102.19031, 2.49303], [102.19398, 2.48633], [102.20229, 2.48341], [102.20459, 2.4809], [102.20652, 2.47717], [102.20399, 2.47642], [102.20429, 2.4712], [102.2024, 2.46885], [102.20555, 2.46894], [102.20295, 2.46237], [102.20534, 2.46228], [102.20765, 2.45669], [102.21147, 2.45345], [102.21085, 2.44765], [102.20244, 2.44328], [102.19161, 2.4405], [102.19095, 2.43157], [102.18795, 2.42723], [102.19038, 2.42663], [102.19258, 2.4211], [102.19402, 2.42099], [102.19234, 2.41731], [102.19495, 2.41125], [102.18912, 2.40512], [102.19176, 2.40175], [102.19178, 2.3965], [102.18967, 2.39629], [102.19029, 2.39264], [102.19209, 2.39204], [102.18711, 2.38838], [102.18776, 2.38511], [102.18605, 2.38405], [102.18767, 2.38452], [102.18844, 2.38214], [102.19003, 2.385], [102.1897, 2.38135], [102.18395, 2.38277], [102.17509, 2.38127], [102.17293, 2.38332], [102.17285, 2.37701], [102.17123, 2.37386], [102.16546, 2.37262], [102.16481, 2.36991], [102.16308, 2.37043], [102.16164, 2.36754], [102.15654, 2.36556], [102.15378, 2.36681], [102.15114, 2.37156], [102.14428, 2.37804], [102.14228, 2.37857], [102.14061, 2.37679], [102.13796, 2.37819], [102.13981, 2.37973], [102.14031, 2.38406], [102.13652, 2.38672], [102.13385, 2.38767], [102.1291, 2.38635], [102.12385, 2.38815], [102.12308, 2.38686], [102.12098, 2.38871], [102.11146, 2.40636], [102.11135, 2.40787], [102.11545, 2.40946], [102.11367, 2.42061], [102.10959, 2.42641], [102.11673, 2.42974], [102.11795, 2.43178], [102.1167, 2.43411], [102.1216, 2.43664], [102.12636, 2.44282], [102.12332, 2.44459], [102.12578, 2.45447], [102.12019, 2.45966], [102.12156, 2.46226], [102.14161, 2.45719], [102.1765, 2.49886], [102.17853, 2.49786]]]]}}, {"type": "Feature", "properties": {"state": "Melaka", "seat": "N.06 Rembia", "seat_name": "Rembia"}, "geometry": {"type": "MultiPolygon", "coordinates": [[[[102.19936, 2.40184], [102.20193, 2.39957], [102.20315, 2.39501], [102.2012, 2.39161], [102.2044, 2.39424], [102.20749, 2.39335], [102.20749, 2.39579], [102.21471, 2.38885], [102.23444, 2.39156], [102.2328, 2.3864], [102.23704, 2.38286], [102.23408, 2.38288], [102.23026, 2.37983], [102.22971, 2.37359], [102.22273, 2.37201], [102.22371, 2.36871], [102.21903, 2.36596], [102.22194, 2.36126], [102.22217, 2.35725], [102.22978, 2.35374], [102.23137, 2.35135], [102.23591, 2.35093], [102.23893, 2.34889], [102.23718, 2.34661], [102.239, 2.3322], [102.23626, 2.32919], [102.23745, 2.32749], [102.23621, 2.32141], [102.23466, 2.32185], [102.23401, 2.32058], [102.23888, 2.32056], [102.23776, 2.31942], [102.23999, 2.31509], [102.23989, 2.31317], [102.23659, 2.31114], [102.2398, 2.30715], [102.238, 2.30499], [102.23788, 2.2985], [102.23622, 2.29611], [102.22941, 2.29928], [102.22697, 2.30384], [102.22411, 2.30483], [102.22467, 2.30792], [102.2216, 2.31069], [102.2169, 2.30857], [102.20824, 2.31734], [102.19527, 2.31501], [102.19453, 2.31297], [102.1908, 2.31319], [102.18625, 2.31656], [102.18045, 2.31611], [102.17991, 2.32452], [102.18386, 2.32576], [102.1841, 2.33059], [102.18098, 2.33797], [102.18067, 2.34441], [102.17434, 2.35782], [102.17817, 2.36135], [102.17517, 2.37044], [102.17628, 2.37156], [102.17413, 2.37502], [102.17632, 2.3761], [102.17568, 2.38175], [102.18395, 2.38277], [102.1897, 2.38135], [102.19003, 2.385], [102.18844, 2.38214], [102.18767, 2.38452], [102.18659, 2.38394], [102.18605, 2.38405], [102.18776, 2.38511], [102.18711, 2.38838], [102.19209, 2.39204], [102.19029, 2.39264], [102.18967, 2.39629], [102.19178, 2.3965], [102.19077, 2.40059], [102.19796, 2.40307], [102.19936, 2.40184]]]]}}, {"type": "Feature", "properties": {"state": "Melaka", "seat": "N.07 Gadek", "seat_name": "Gadek"}, "geometry": {"type": "MultiPolygon", "coordinates": [[[[102.20927, 2.48146], [102.21115, 2.47851], [102.23131, 2.46636], [102.2774, 2.45834], [102.27086, 2.4574], [102.26848, 2.45108], [102.26838, 2.44253], [102.27021, 2.43735], [102.26241, 2.44231], [102.25345, 2.43742], [102.25571, 2.43193], [102.25909, 2.43205], [102.26208, 2.43454], [102.26544, 2.4333], [102.26544, 2.42796], [102.26693, 2.42589], [102.26509, 2.42096], [102.26772, 2.41825], [102.27017, 2.41801], [102.26978, 2.41508], [102.26752, 2.41404], [102.26935, 2.41288], [102.26982, 2.40927], [102.27684, 2.40275], [102.26704, 2.39802], [102.26899, 2.39638], [102.26903, 2.39254], [102.26519, 2.3916], [102.27261, 2.37966], [102.27179, 2.37904], [102.26459, 2.3777], [102.25646, 2.39041], [102.25619, 2.39537], [102.25389, 2.39821], [102.24761, 2.39579], [102.24696, 2.39177], [102.24528, 2.39069], [102.2466, 2.39039], [102.24121, 2.38497], [102.23827, 2.38614], [102.23611, 2.38371], [102.2328, 2.3864], [102.23444, 2.39156], [102.21471, 2.38885], [102.20749, 2.39579], [102.20749, 2.39335], [102.2044, 2.39424], [102.2012, 2.39161], [102.20315, 2.39501], [102.20193, 2.39957], [102.19796, 2.40307], [102.19176, 2.40175], [102.19011, 2.40319], [102.19039, 2.40489], [102.18912, 2.40512], [102.19495, 2.41125], [102.19234, 2.41731], [102.19402, 2.42099], [102.19258, 2.4211], [102.19038, 2.42663], [102.18795, 2.42723], [102.19095, 2.43157], [102.19164, 2.44057], [102.20244, 2.44328], [102.21085, 2.44765], [102.21147, 2.45345], [102.20765, 2.45669], [102.20534, 2.46228], [102.20295, 2.46237], [102.20555, 2.46894], [102.2024, 2.46885], [102.20429, 2.4712], [102.20399, 2.47642], [102.20652, 2.47717], [102.20459, 2.4809], [102.20927, 2.48146]]]]}}, {"type": "Feature", "properties": {"state": "Melaka", "seat": "N.08 Machap Jaya", "seat_name": "Machap Jaya"}, "geometry": {"type": "MultiPolygon", "coordinates": [[[[102.36416, 2.48726], [102.36192, 2.47327], [102.36328, 2.47255], [102.36087, 2.46488], [102.36459, 2.46483], [102.3678, 2.46693], [102.36555, 2.46103], [102.36793, 2.45959], [102.36128, 2.45355], [102.35824, 2.44632], [102.35636, 2.44635], [102.35141, 2.44001], [102.3408, 2.43384], [102.33907, 2.43089], [102.34187, 2.42716], [102.3393, 2.42416], [102.34721, 2.41181], [102.34613, 2.40901], [102.34907, 2.40053], [102.34801, 2.39416], [102.35003, 2.39388], [102.34992, 2.38368], [102.35128, 2.37995], [102.35729, 2.38216], [102.35641, 2.37858], [102.35931, 2.36699], [102.35142, 2.3639], [102.34953, 2.35726], [102.35116, 2.35739], [102.35327, 2.35356], [102.34682, 2.33737], [102.34562, 2.33768], [102.34414, 2.32454], [102.3389, 2.32643], [102.33361, 2.32496], [102.33108, 2.32192], [102.32587, 2.3219], [102.31953, 2.32798], [102.30727, 2.33115], [102.30491, 2.33668], [102.3034, 2.33707], [102.30331, 2.34337], [102.30104, 2.33839], [102.29723, 2.3385], [102.29554, 2.34219], [102.29246, 2.34384], [102.29027, 2.34317], [102.29032, 2.34583], [102.28243, 2.34677], [102.28151, 2.34822], [102.2829, 2.34818], [102.2782, 2.34998], [102.2799, 2.35368], [102.2777, 2.3574], [102.27688, 2.35429], [102.27179, 2.35321], [102.26986, 2.35842], [102.26377, 2.35826], [102.26311, 2.35601], [102.25323, 2.36028], [102.25028, 2.35653], [102.2513, 2.35309], [102.24811, 2.35141], [102.24655, 2.3524], [102.24757, 2.35426], [102.24573, 2.35471], [102.24298, 2.34941], [102.2403, 2.34812], [102.23591, 2.35093], [102.23067, 2.3517], [102.22978, 2.35374], [102.22217, 2.35725], [102.22194, 2.36126], [102.21903, 2.36596], [102.22371, 2.36871], [102.22273, 2.37201], [102.22971, 2.37359], [102.23026, 2.37983], [102.23408, 2.38288], [102.23704, 2.38286], [102.23767, 2.38595], [102.24121, 2.38497], [102.2466, 2.39039], [102.24528, 2.39069], [102.24696, 2.39177], [102.24761, 2.39579], [102.25389, 2.39821], [102.25619, 2.39537], [102.25646, 2.39041], [102.26459, 2.3777], [102.27261, 2.37966], [102.26519, 2.3916], [102.26903, 2.39254], [102.26899, 2.39638], [102.26704, 2.39802], [102.27684, 2.40275], [102.26982, 2.40927], [102.26935, 2.41288], [102.26752, 2.41404], [102.26978, 2.41508], [102.27017, 2.41801], [102.26772, 2.41825], [102.26509, 2.42096], [102.26693, 2.42589], [102.26544, 2.42796], [102.26544, 2.4333], [102.26208, 2.43454], [102.25909, 2.43205], [102.25571, 2.43193], [102.25345, 2.43742], [102.26241, 2.44231], [102.27021, 2.43735], [102.26838, 2.44253], [102.26835, 2.45052], [102.27086, 2.4574], [102.27741, 2.45809], [102.31899, 2.47959], [102.3646, 2.49005], [102.36416, 2.48726]]]]}}, {"type": "Feature", "properties": {"state": "Melaka", "seat": "N.09 Durian Tunggal", "seat_name": "Durian Tunggal"}, "geometry": {"type": "MultiPolygon", "coordinates": [[[[102.25619, 2.35832], [102.26311, 2.35601], [102.26377, 2.35826], [102.26986, 2.35842], [102.27179, 2.35321], [102.27688, 2.35429], [102.2777, 2.3574], [102.2799, 2.35368], [102.2782, 2.34998], [102.2829, 2.34818], [102.28151, 2.34822], [102.28243, 2.34677], [102.29032, 2.34583], [102.29027, 2.34317], [102.29246, 2.34384], [102.29554, 2.34219], [102.29723, 2.3385], [102.30104, 2.33839], [102.30331, 2.34337], [102.3034, 2.33707], [102.30491, 2.33668], [102.30727, 2.33115], [102.31953, 2.32798], [102.32634, 2.32171], [102.33108, 2.32192], [102.33361, 2.32496], [102.3389, 2.32643], [102.34491, 2.32454], [102.34355, 2.31363], [102.34178, 2.31322], [102.33684, 2.29115], [102.33331, 2.28316], [102.32452, 2.28222], [102.31346, 2.28403], [102.30666, 2.28898], [102.29581, 2.28837], [102.27802, 2.28289], [102.27606, 2.2793], [102.27003, 2.28081], [102.26828, 2.27485], [102.26552, 2.27507], [102.26434, 2.27225], [102.26223, 2.27344], [102.26214, 2.27091], [102.25878, 2.26951], [102.24188, 2.27772], [102.25329, 2.28527], [102.26314, 2.30121], [102.2605, 2.3054], [102.25578, 2.30803], [102.25644, 2.31271], [102.25421, 2.3182], [102.25729, 2.32373], [102.25752, 2.3303], [102.25059, 2.33361], [102.24769, 2.33175], [102.23876, 2.33795], [102.23718, 2.34661], [102.23893, 2.34889], [102.24298, 2.34941], [102.24573, 2.35471], [102.24757, 2.35426], [102.24655, 2.3524], [102.24811, 2.35141], [102.2513, 2.35309], [102.25028, 2.35653], [102.25323, 2.36028], [102.25619, 2.35832]]]]}}, {"type": "Feature", "properties": {"state": "Melaka", "seat": "N.10 Asahan", "seat_name": "Asahan"}, "geometry": {"type": "MultiPolygon", "coordinates": [[[[102.3733, 2.48746], [102.4179, 2.47414], [102.43341, 2.46745], [102.43204, 2.45706], [102.51006, 2.43748], [102.56341, 2.4191], [102.58723, 2.41619], [102.59432, 2.40944], [102.56542, 2.39629], [102.55495, 2.3962], [102.53999, 2.39073], [102.53515, 2.38271], [102.53766, 2.37702], [102.52468, 2.36701], [102.52102, 2.36661], [102.51604, 2.36933], [102.51361, 2.37523], [102.50901, 2.37713], [102.51001, 2.37812], [102.50774, 2.37947], [102.50032, 2.37765], [102.49776, 2.37921], [102.49677, 2.37459], [102.48427, 2.37162], [102.4871, 2.36095], [102.42478, 2.36624], [102.40583, 2.37531], [102.39451, 2.37608], [102.39186, 2.38521], [102.38789, 2.38241], [102.3873, 2.37998], [102.38113, 2.37898], [102.37693, 2.38075], [102.36745, 2.38061], [102.36361, 2.38407], [102.36072, 2.38418], [102.35128, 2.37995], [102.34932, 2.38633], [102.35003, 2.39388], [102.34801, 2.39416], [102.34907, 2.40053], [102.34616, 2.4087], [102.34721, 2.41181], [102.3393, 2.42416], [102.34187, 2.42716], [102.33907, 2.43089], [102.3408, 2.43384], [102.35141, 2.44001], [102.35636, 2.44635], [102.35824, 2.44632], [102.36128, 2.45355], [102.36793, 2.45959], [102.36555, 2.46103], [102.3678, 2.46693], [102.36459, 2.46483], [102.36087, 2.46488], [102.36328, 2.47255], [102.36192, 2.47327], [102.36448, 2.48929], [102.3733, 2.48746]]]]}}, {"type": "Feature", "properties": {"state": "Melaka", "seat": "N.11 Sungai Udang", "seat_name": "Sungai Udang"}, "geometry": {"type": "MultiPolygon", "coordinates": [[[[102.15923, 2.30516], [102.16865, 2.30779], [102.17127, 2.29465], [102.17391, 2.29234], [102.17979, 2.29754], [102.18215, 2.29606], [102.18132, 2.29425], [102.18275, 2.29278], [102.18542, 2.2923], [102.18834, 2.29781], [102.19131, 2.29848], [102.1921, 2.29271], [102.19466, 2.29366], [102.19613, 2.29102], [102.20234, 2.29016], [102.20514, 2.28382], [102.19939, 2.28361], [102.20455, 2.27506], [102.2055, 2.2654], [102.19897, 2.26553], [102.19782, 2.27024], [102.19581, 2.2708], [102.19405, 2.2685], [102.18904, 2.27224], [102.18112, 2.26922], [102.17856, 2.26473], [102.17413, 2.26911], [102.17476, 2.27278], [102.17348, 2.27333], [102.17236, 2.27147], [102.1637, 2.27857], [102.16331, 2.27022], [102.15542, 2.27359], [102.14416, 2.26396], [102.13795, 2.26293], [102.13989, 2.25551], [102.14199, 2.25446], [102.13875, 2.25322], [102.13695, 2.24902], [102.1227, 2.26619], [102.11505, 2.2718], [102.10621, 2.27494], [102.10335, 2.27132], [102.10175, 2.27232], [102.09683, 2.2806], [102.09283, 2.28305], [102.08868, 2.29121], [102.09015, 2.29244], [102.09407, 2.28944], [102.1003, 2.29057], [102.1019, 2.2887], [102.1031, 2.29026], [102.10989, 2.28984], [102.11023, 2.28808], [102.11481, 2.28846], [102.11818, 2.28502], [102.12039, 2.28499], [102.12162, 2.28757], [102.12556, 2.28991], [102.13046, 2.28964], [102.13389, 2.2947], [102.14594, 2.29007], [102.14683, 2.29236], [102.14432, 2.30147], [102.1558, 2.30386], [102.15586, 2.30698], [102.15777, 2.30781], [102.15923, 2.30516]]]]}}, {"type": "Feature", "properties": {"state": "Melaka", "seat": "N.12 Pantai Kundor", "seat_name": "Pantai Kundor"}, "geometry": {"type": "MultiPolygon", "coordinates": [[[[102.1703, 2.27318], [102.17236, 2.27147], [102.17348, 2.27333], [102.17476, 2.27278], [102.17413, 2.26911], [102.17691, 2.26724], [102.17651, 2.2653], [102.17128, 2.26364], [102.16311, 2.26635], [102.16072, 2.26083], [102.16377, 2.25537], [102.16038, 2.25396], [102.16012, 2.25103], [102.16128, 2.24733], [102.16782, 2.24603], [102.16771, 2.24154], [102.17322, 2.23268], [102.17616, 2.22105], [102.16646, 2.2198], [102.16414, 2.21836], [102.16476, 2.21665], [102.15443, 2.21691], [102.13695, 2.24902], [102.13875, 2.25322], [102.14199, 2.25446], [102.13989, 2.25551], [102.13795, 2.26293], [102.14416, 2.26396], [102.15542, 2.27359], [102.16331, 2.27022], [102.1637, 2.27857], [102.1703, 2.27318]]]]}}, {"type": "Feature", "properties": {"state": "Melaka", "seat": "N.13 Paya Rumput", "seat_name": "Paya Rumput"}, "geometry": {"type": "MultiPolygon", "coordinates": [[[[102.24271, 2.33512], [102.24769, 2.33175], [102.25059, 2.33361], [102.25752, 2.3303], [102.25729, 2.32373], [102.25421, 2.3182], [102.25644, 2.31271], [102.25578, 2.30803], [102.2605, 2.3054], [102.26314, 2.30121], [102.25329, 2.28527], [102.2398, 2.27604], [102.23797, 2.26381], [102.23605, 2.26284], [102.23589, 2.25469], [102.23092, 2.24663], [102.22777, 2.24656], [102.22716, 2.25614], [102.21576, 2.25722], [102.20622, 2.25489], [102.20623, 2.24932], [102.19863, 2.25392], [102.19088, 2.25613], [102.17856, 2.26473], [102.18112, 2.26922], [102.18904, 2.27224], [102.19405, 2.2685], [102.19581, 2.2708], [102.19782, 2.27024], [102.19897, 2.26553], [102.2055, 2.2654], [102.20455, 2.27506], [102.19939, 2.28361], [102.20514, 2.28382], [102.20502, 2.28546], [102.20234, 2.29016], [102.19613, 2.29102], [102.19466, 2.29366], [102.1921, 2.29271], [102.19131, 2.29848], [102.18834, 2.29781], [102.18542, 2.2923], [102.18275, 2.29278], [102.18132, 2.29425], [102.18215, 2.29606], [102.17979, 2.29754], [102.17391, 2.29234], [102.17127, 2.29465], [102.16901, 2.3072], [102.17761, 2.31], [102.1845, 2.30853], [102.1852, 2.31253], [102.18987, 2.31221], [102.18953, 2.31378], [102.19453, 2.31297], [102.19527, 2.31501], [102.20824, 2.31734], [102.2169, 2.30857], [102.2216, 2.31069], [102.22467, 2.30792], [102.22411, 2.30483], [102.22697, 2.30384], [102.22941, 2.29928], [102.23622, 2.29611], [102.23788, 2.2985], [102.238, 2.30499], [102.2398, 2.30715], [102.23659, 2.31114], [102.23989, 2.31317], [102.23999, 2.31509], [102.23776, 2.31942], [102.23888, 2.32056], [102.23401, 2.32058], [102.23621, 2.32141], [102.23745, 2.32749], [102.23626, 2.32919], [102.239, 2.3322], [102.23876, 2.33795], [102.24271, 2.33512]]]]}}, {"type": "Feature", "properties": {"state": "Melaka", "seat": "N.14 Kelebang", "seat_name": "Kelebang"}, "geometry": {"type": "MultiPolygon", "coordinates": [[[[102.17763, 2.26611], [102.19088, 2.25613], [102.19863, 2.25392], [102.20623, 2.24932], [102.20603, 2.25102], [102.21185, 2.23603], [102.21108, 2.23476], [102.2133, 2.23457], [102.21495, 2.23164], [102.20993, 2.22569], [102.2085, 2.22098], [102.21646, 2.21764], [102.2194, 2.2181], [102.21601, 2.20713], [102.19575, 2.21819], [102.17585, 2.22028], [102.17322, 2.23268], [102.16771, 2.24154], [102.16782, 2.24603], [102.16128, 2.24733], [102.16012, 2.25103], [102.16038, 2.25396], [102.16377, 2.25537], [102.16072, 2.26083], [102.16311, 2.26635], [102.17128, 2.26364], [102.17651, 2.2653], [102.17691, 2.26724], [102.17763, 2.26611]]]]}}, {"type": "Feature", "properties": {"state": "Melaka", "seat": "N.15 Pengkalan Batu", "seat_name": "Pengkalan Batu"}, "geometry": {"type": "MultiPolygon", "coordinates": [[[[102.25026, 2.23957], [102.25114, 2.23708], [102.26015, 2.23474], [102.26142, 2.23915], [102.26605, 2.24264], [102.27179, 2.23127], [102.26954, 2.22651], [102.26567, 2.22708], [102.26212, 2.22433], [102.26496, 2.22097], [102.26594, 2.21515], [102.27516, 2.2169], [102.27545, 2.21126], [102.27847, 2.21008], [102.27625, 2.2054], [102.2686, 2.20369], [102.26322, 2.2059], [102.26245, 2.21116], [102.24307, 2.21792], [102.24264, 2.2238], [102.23428, 2.22635], [102.2285, 2.23156], [102.23416, 2.23332], [102.23894, 2.23847], [102.24229, 2.23932], [102.2425, 2.24362], [102.24589, 2.2456], [102.24973, 2.24341], [102.25026, 2.23957]]]]}}, {"type": "Feature", "properties": {"state": "Melaka", "seat": "N.16 Ayer Keroh", "seat_name": "Ayer Keroh"}, "geometry": {"type": "MultiPolygon", "coordinates": [[[[102.30435, 2.28923], [102.31346, 2.28403], [102.33162, 2.28224], [102.32845, 2.27884], [102.3301, 2.2763], [102.32883, 2.27459], [102.32914, 2.26399], [102.32023, 2.24735], [102.3157, 2.24284], [102.29665, 2.24444], [102.29232, 2.24686], [102.29068, 2.24324], [102.28196, 2.24234], [102.28086, 2.2409], [102.27752, 2.24357], [102.27717, 2.24168], [102.27013, 2.2371], [102.26596, 2.24271], [102.26142, 2.23915], [102.26118, 2.23587], [102.25492, 2.24956], [102.25354, 2.25635], [102.25579, 2.26878], [102.26214, 2.27091], [102.26223, 2.27344], [102.26434, 2.27225], [102.26552, 2.27507], [102.26828, 2.27485], [102.27003, 2.28081], [102.27606, 2.2793], [102.27802, 2.28289], [102.29581, 2.28837], [102.30435, 2.28923]]]]}}, {"type": "Feature", "properties": {"state": "Melaka", "seat": "N.17 Bukit Katil", "seat_name": "Bukit Katil"}, "geometry": {"type": "MultiPolygon", "coordinates": [[[[102.29615, 2.24474], [102.3157, 2.24284], [102.31685, 2.23868], [102.31375, 2.23718], [102.3126, 2.2312], [102.31363, 2.22777], [102.31104, 2.22145], [102.31487, 2.21309], [102.30061, 2.21077], [102.29843, 2.21332], [102.29409, 2.21274], [102.28968, 2.21563], [102.28266, 2.2162], [102.28, 2.20962], [102.27545, 2.21126], [102.27549, 2.21609], [102.27395, 2.21758], [102.26594, 2.21515], [102.26496, 2.22097], [102.26212, 2.22433], [102.26567, 2.22708], [102.26954, 2.22651], [102.27179, 2.23127], [102.2681, 2.23959], [102.27013, 2.2371], [102.27717, 2.24168], [102.27752, 2.24357], [102.28086, 2.2409], [102.28196, 2.24234], [102.29068, 2.24324], [102.29232, 2.24686], [102.29615, 2.24474]]]]}}, {"type": "Feature", "properties": {"state": "Melaka", "seat": "N.18 Ayer Molek", "seat_name": "Ayer Molek"}, "geometry": {"type": "MultiPolygon", "coordinates": [[[[102.3881, 2.24629], [102.38842, 2.24396], [102.3904, 2.245], [102.39165, 2.24357], [102.39072, 2.24012], [102.39433, 2.24207], [102.39562, 2.23987], [102.39199, 2.22392], [102.39938, 2.21208], [102.39467, 2.20644], [102.39567, 2.20594], [102.3904, 2.20192], [102.39071, 2.19983], [102.38656, 2.19906], [102.38666, 2.19505], [102.38122, 2.19314], [102.37821, 2.18387], [102.37305, 2.17913], [102.37336, 2.17552], [102.37122, 2.17518], [102.36405, 2.17865], [102.36095, 2.17459], [102.36119, 2.17902], [102.35924, 2.18421], [102.35764, 2.18312], [102.35811, 2.18028], [102.34712, 2.1843], [102.34521, 2.1817], [102.33943, 2.18571], [102.33606, 2.1844], [102.33455, 2.18744], [102.33149, 2.1882], [102.33003, 2.19151], [102.32776, 2.18855], [102.32531, 2.1887], [102.32439, 2.18635], [102.32205, 2.18739], [102.31919, 2.18466], [102.31701, 2.18674], [102.31084, 2.18419], [102.308, 2.18432], [102.30821, 2.18643], [102.297, 2.18582], [102.29269, 2.19066], [102.29693, 2.19793], [102.30078, 2.19922], [102.30559, 2.19281], [102.31115, 2.19309], [102.31425, 2.20396], [102.31256, 2.20891], [102.31504, 2.21425], [102.31104, 2.2203], [102.31376, 2.22899], [102.32168, 2.22862], [102.32292, 2.23139], [102.32953, 2.23559], [102.33705, 2.23565], [102.34153, 2.22999], [102.34159, 2.2273], [102.35294, 2.23515], [102.35706, 2.23511], [102.36494, 2.23846], [102.37136, 2.23526], [102.37769, 2.23599], [102.38266, 2.24288], [102.3881, 2.24629]]]]}}, {"type": "Feature", "properties": {"state": "Melaka", "seat": "N.19 Kesidang", "seat_name": "Kesidang"}, "geometry": {"type": "MultiPolygon", "coordinates": [[[[102.25185, 2.27276], [102.25714, 2.27016], [102.25328, 2.25837], [102.25492, 2.24956], [102.26118, 2.23587], [102.2569, 2.23489], [102.25114, 2.23708], [102.25014, 2.24279], [102.24589, 2.2456], [102.2425, 2.24362], [102.24229, 2.23932], [102.23894, 2.23847], [102.23416, 2.23332], [102.22863, 2.23184], [102.23428, 2.22635], [102.24264, 2.2238], [102.24326, 2.21868], [102.24285, 2.21714], [102.24007, 2.21801], [102.23405, 2.22312], [102.2276, 2.20825], [102.22757, 2.20332], [102.22634, 2.20151], [102.22477, 2.20255], [102.22567, 2.2038], [102.22352, 2.20425], [102.2216, 2.20155], [102.2191, 2.20293], [102.22025, 2.2049], [102.21601, 2.20713], [102.2194, 2.2181], [102.21646, 2.21764], [102.2085, 2.22098], [102.20993, 2.22569], [102.21495, 2.23164], [102.2133, 2.23457], [102.21108, 2.23476], [102.21185, 2.23603], [102.20603, 2.25102], [102.20604, 2.25483], [102.21576, 2.25722], [102.22716, 2.25614], [102.22777, 2.24656], [102.23092, 2.24663], [102.23589, 2.25469], [102.23605, 2.26284], [102.23797, 2.26381], [102.2398, 2.27604], [102.24189, 2.27772], [102.25185, 2.27276]]]]}}, {"type": "Feature", "properties": {"state": "Melaka", "seat": "N.20 Kota Laksamana", "seat_name": "Kota Laksamana"}, "geometry": {"type": "MultiPolygon", "coordinates": [[[[102.24066, 2.21774], [102.24556, 2.21743], [102.25663, 2.21321], [102.25286, 2.20764], [102.25253, 2.19998], [102.24789, 2.20071], [102.25055, 2.1961], [102.24388, 2.18928], [102.23257, 2.19419], [102.23747, 2.19893], [102.23672, 2.20114], [102.22757, 2.20332], [102.2276, 2.20825], [102.23405, 2.22312], [102.24066, 2.21774]]]]}}, {"type": "Feature", "properties": {"state": "Melaka", "seat": "N.21 Duyong", "seat_name": "Duyong"}, "geometry": {"type": "MultiPolygon", "coordinates": [[[[102.28429, 2.21598], [102.28968, 2.21563], [102.29409, 2.21274], [102.29843, 2.21332], [102.30061, 2.21077], [102.31487, 2.21309], [102.31256, 2.20891], [102.31425, 2.20396], [102.31115, 2.19309], [102.30559, 2.19281], [102.3012, 2.19905], [102.29779, 2.19859], [102.29084, 2.18784], [102.28856, 2.18799], [102.28577, 2.19061], [102.28521, 2.18952], [102.27488, 2.19183], [102.27836, 2.19563], [102.26503, 2.19589], [102.26493, 2.19963], [102.2619, 2.20176], [102.26133, 2.20486], [102.25727, 2.20268], [102.25291, 2.20374], [102.25286, 2.20764], [102.25663, 2.21321], [102.26334, 2.2104], [102.26322, 2.2059], [102.2686, 2.20369], [102.27276, 2.20391], [102.27625, 2.2054], [102.27842, 2.21028], [102.28, 2.20962], [102.28179, 2.21585], [102.28429, 2.21598]]]]}}, {"type": "Feature", "properties": {"state": "Melaka", "seat": "N.22 Bandar Hilir", "seat_name": "Bandar Hilir"}, "geometry": {"type": "MultiPolygon", "coordinates": [[[[102.24685, 2.18067], [102.2462, 2.18219], [102.24889, 2.18265], [102.25667, 2.18018], [102.25688, 2.17874], [102.25405, 2.177], [102.24367, 2.18146], [102.24533, 2.18315], [102.24473, 2.18135], [102.24685, 2.18067]]], [[[102.26182, 2.20311], [102.26493, 2.19963], [102.26503, 2.19589], [102.26734, 2.19544], [102.26431, 2.19316], [102.26343, 2.18869], [102.27436, 2.18654], [102.27273, 2.17957], [102.26569, 2.18358], [102.26526, 2.182], [102.26149, 2.18139], [102.25788, 2.18376], [102.25739, 2.1821], [102.25174, 2.18462], [102.25203, 2.1858], [102.24349, 2.18776], [102.25055, 2.1961], [102.24797, 2.20086], [102.25253, 2.19998], [102.25291, 2.20374], [102.25727, 2.20268], [102.26017, 2.20505], [102.26182, 2.20311]]]]}}, {"type": "Feature", "properties": {"state": "Melaka", "seat": "N.23 Telok Mas", "seat_name": "Telok Mas"}, "geometry": {"type": "MultiPolygon", "coordinates": [[[[102.33532, 2.0726], [102.33177, 2.07299], [102.33245, 2.07501], [102.33497, 2.07388], [102.33532, 2.0726]]], [[[102.34047, 2.11599], [102.34013, 2.11617], [102.34101, 2.11638], [102.34089, 2.1161], [102.34047, 2.11599]]], [[[102.32578, 2.11718], [102.32843, 2.11544], [102.33513, 2.11572], [102.33445, 2.1122], [102.32998, 2.10836], [102.32771, 2.10286], [102.32515, 2.10329], [102.32513, 2.10889], [102.32149, 2.10871], [102.31882, 2.11197], [102.32578, 2.11718]]], [[[102.316, 2.12067], [102.31518, 2.1203], [102.31397, 2.12146], [102.31471, 2.12184], [102.316, 2.12067]]], [[[102.27273, 2.19518], [102.27836, 2.19563], [102.27496, 2.1918], [102.28521, 2.18952], [102.28577, 2.19061], [102.28824, 2.18811], [102.29084, 2.18784], [102.29269, 2.19066], [102.297, 2.18582], [102.30853, 2.18639], [102.30851, 2.18416], [102.31434, 2.18469], [102.31701, 2.18674], [102.31919, 2.18466], [102.32205, 2.18739], [102.32439, 2.18635], [102.32531, 2.1887], [102.32776, 2.18855], [102.33003, 2.19151], [102.33149, 2.1882], [102.33455, 2.18744], [102.33606, 2.1844], [102.33943, 2.18571], [102.34521, 2.1817], [102.34173, 2.17974], [102.33828, 2.17158], [102.33862, 2.15943], [102.33608, 2.15534], [102.32951, 2.15719], [102.32591, 2.15512], [102.32596, 2.15666], [102.32398, 2.15746], [102.31687, 2.15871], [102.31665, 2.16079], [102.31149, 2.1654], [102.30318, 2.16859], [102.2905, 2.17058], [102.27285, 2.17905], [102.27436, 2.18654], [102.26343, 2.18869], [102.26431, 2.19316], [102.26734, 2.19544], [102.27273, 2.19518]]]]}}, {"type": "Feature", "properties": {"state": "Melaka", "seat": "N.24 Bemban", "seat_name": "Bemban"}, "geometry": {"type": "MultiPolygon", "coordinates": [[[[102.39373, 2.38008], [102.39664, 2.37038], [102.39953, 2.33846], [102.39833, 2.33626], [102.40472, 2.33439], [102.41212, 2.32867], [102.40724, 2.31654], [102.40844, 2.31373], [102.41419, 2.31579], [102.42025, 2.3127], [102.42334, 2.31475], [102.42694, 2.31308], [102.42868, 2.31379], [102.43544, 2.30796], [102.44108, 2.3074], [102.40872, 2.28437], [102.39938, 2.28452], [102.399, 2.27805], [102.39792, 2.27788], [102.40215, 2.27272], [102.397, 2.26779], [102.39416, 2.26172], [102.3988, 2.24986], [102.39825, 2.24771], [102.39349, 2.25045], [102.39188, 2.24571], [102.38842, 2.24396], [102.38751, 2.24612], [102.38266, 2.24288], [102.37769, 2.23599], [102.37136, 2.23526], [102.36494, 2.23846], [102.35706, 2.23511], [102.35294, 2.23515], [102.34159, 2.2273], [102.34153, 2.22999], [102.33705, 2.23565], [102.32953, 2.23559], [102.32292, 2.23139], [102.32168, 2.22862], [102.31376, 2.22899], [102.3126, 2.2312], [102.31375, 2.23718], [102.31685, 2.23868], [102.31593, 2.24354], [102.32044, 2.24767], [102.32914, 2.26399], [102.32883, 2.27459], [102.3301, 2.2763], [102.32845, 2.27884], [102.33516, 2.28574], [102.34178, 2.31322], [102.34355, 2.31363], [102.34415, 2.32826], [102.34596, 2.33178], [102.34422, 2.33257], [102.35327, 2.35356], [102.35116, 2.35739], [102.34953, 2.35726], [102.35142, 2.3639], [102.35931, 2.36699], [102.35641, 2.37858], [102.35729, 2.38216], [102.36361, 2.38407], [102.36745, 2.38061], [102.37693, 2.38075], [102.38113, 2.37898], [102.3873, 2.37998], [102.38789, 2.38241], [102.39186, 2.38521], [102.39373, 2.38008]]]]}}, {"type": "Feature", "properties": {"state": "Melaka", "seat": "N.25 Rim", "seat_name": "Rim"}, "geometry": {"type": "MultiPolygon", "coordinates": [[[[102.50993, 2.37805], [102.50901, 2.37713], [102.51361, 2.37523], [102.51604, 2.36933], [102.52102, 2.36661], [102.52563, 2.3674], [102.53465, 2.37415], [102.53554, 2.37163], [102.53493, 2.3698], [102.53197, 2.36973], [102.52533, 2.36479], [102.52484, 2.35856], [102.52111, 2.35771], [102.52075, 2.35614], [102.51806, 2.35673], [102.5165, 2.35455], [102.51564, 2.35592], [102.51418, 2.35428], [102.51353, 2.35532], [102.51351, 2.35331], [102.51186, 2.35261], [102.51237, 2.34726], [102.51074, 2.34725], [102.50896, 2.33956], [102.51521, 2.32983], [102.51574, 2.32484], [102.51072, 2.32079], [102.50822, 2.31352], [102.50994, 2.30449], [102.50776, 2.30344], [102.50663, 2.296], [102.50324, 2.29347], [102.50104, 2.28882], [102.49718, 2.26928], [102.49392, 2.26374], [102.49187, 2.2497], [102.49306, 2.24711], [102.48903, 2.24605], [102.48772, 2.24413], [102.49547, 2.2351], [102.48848, 2.23695], [102.4454, 2.24002], [102.44454, 2.24419], [102.44573, 2.24629], [102.4423, 2.25064], [102.43829, 2.26216], [102.44561, 2.26424], [102.44711, 2.2658], [102.44683, 2.26878], [102.44086, 2.27628], [102.43634, 2.27651], [102.43577, 2.27865], [102.43374, 2.2781], [102.43366, 2.27944], [102.42993, 2.27898], [102.42342, 2.28456], [102.41511, 2.28893], [102.44108, 2.3074], [102.43544, 2.30796], [102.42868, 2.31379], [102.42694, 2.31308], [102.42334, 2.31475], [102.42025, 2.3127], [102.41419, 2.31579], [102.40844, 2.31373], [102.40724, 2.31654], [102.41212, 2.32867], [102.40472, 2.33439], [102.39833, 2.33626], [102.39953, 2.33846], [102.39664, 2.37038], [102.39451, 2.37608], [102.40583, 2.37531], [102.42478, 2.36624], [102.4871, 2.36095], [102.48427, 2.37162], [102.49677, 2.37459], [102.49776, 2.37921], [102.50032, 2.37765], [102.50774, 2.37947], [102.50993, 2.37805]]]]}}, {"type": "Feature", "properties": {"state": "Melaka", "seat": "N.26 Serkam", "seat_name": "Serkam"}, "geometry": {"type": "MultiPolygon", "coordinates": [[[[102.41518, 2.2136], [102.41651, 2.21263], [102.41613, 2.19756], [102.41286, 2.19587], [102.41182, 2.19795], [102.41026, 2.19427], [102.40837, 2.19498], [102.4076, 2.19381], [102.40757, 2.18842], [102.40946, 2.1862], [102.4061, 2.18528], [102.40407, 2.17508], [102.4009, 2.17391], [102.40095, 2.17209], [102.40328, 2.17147], [102.4037, 2.16822], [102.40176, 2.16383], [102.40002, 2.16408], [102.39986, 2.15594], [102.4025, 2.15227], [102.40041, 2.14888], [102.40177, 2.14788], [102.40019, 2.1333], [102.37886, 2.13257], [102.36713, 2.13571], [102.35382, 2.1439], [102.34455, 2.15221], [102.33608, 2.15534], [102.33896, 2.16083], [102.33877, 2.17314], [102.34206, 2.18019], [102.34613, 2.18209], [102.34712, 2.1843], [102.35811, 2.18028], [102.35764, 2.18312], [102.35924, 2.18421], [102.36119, 2.17902], [102.36095, 2.17459], [102.36405, 2.17865], [102.37122, 2.17518], [102.37336, 2.17552], [102.37305, 2.17913], [102.37821, 2.18387], [102.38122, 2.19314], [102.38666, 2.19505], [102.3869, 2.19937], [102.39071, 2.19983], [102.3904, 2.20192], [102.3958, 2.20633], [102.40865, 2.20521], [102.40954, 2.21483], [102.41197, 2.21951], [102.41518, 2.2136]]]]}}, {"type": "Feature", "properties": {"state": "Melaka", "seat": "N.27 Merlimau", "seat_name": "Merlimau"}, "geometry": {"type": "MultiPolygon", "coordinates": [[[[102.41637, 2.28756], [102.42039, 2.28654], [102.42993, 2.27898], [102.43366, 2.27944], [102.43374, 2.2781], [102.43577, 2.27865], [102.43634, 2.27651], [102.44086, 2.27628], [102.4473, 2.26652], [102.44561, 2.26424], [102.43829, 2.26216], [102.4423, 2.25064], [102.44573, 2.24629], [102.44489, 2.24083], [102.44916, 2.23954], [102.44814, 2.23088], [102.4439, 2.225], [102.4425, 2.21771], [102.44242, 2.20374], [102.44069, 2.19707], [102.44173, 2.19074], [102.43545, 2.1742], [102.44586, 2.16607], [102.44909, 2.16591], [102.45031, 2.16073], [102.45399, 2.15936], [102.45885, 2.16203], [102.4677, 2.16186], [102.47049, 2.16448], [102.46881, 2.16014], [102.46513, 2.15912], [102.46608, 2.15457], [102.46029, 2.15635], [102.4608, 2.15444], [102.4559, 2.15364], [102.46083, 2.15185], [102.45879, 2.14963], [102.45667, 2.15101], [102.45419, 2.14949], [102.45423, 2.14651], [102.44535, 2.12402], [102.44552, 2.11607], [102.42986, 2.12031], [102.40748, 2.13172], [102.40019, 2.1333], [102.40177, 2.14788], [102.40041, 2.14888], [102.4025, 2.15227], [102.39986, 2.15594], [102.40002, 2.16408], [102.40176, 2.16383], [102.4037, 2.16822], [102.40328, 2.17147], [102.40095, 2.17209], [102.4009, 2.17391], [102.40407, 2.17508], [102.4061, 2.18528], [102.40946, 2.1862], [102.40757, 2.18842], [102.4076, 2.19381], [102.40837, 2.19498], [102.41026, 2.19427], [102.41182, 2.19795], [102.41286, 2.19587], [102.41613, 2.19756], [102.41651, 2.21263], [102.415, 2.21261], [102.41534, 2.21448], [102.41197, 2.21951], [102.40954, 2.21483], [102.40865, 2.20521], [102.39467, 2.20644], [102.39935, 2.21249], [102.39199, 2.22392], [102.39562, 2.23987], [102.39433, 2.24207], [102.39072, 2.24012], [102.39165, 2.24357], [102.3904, 2.245], [102.39349, 2.25045], [102.39753, 2.24731], [102.39863, 2.24881], [102.39416, 2.26172], [102.397, 2.26779], [102.40215, 2.27272], [102.39792, 2.27788], [102.399, 2.27805], [102.39938, 2.28452], [102.40872, 2.28437], [102.41511, 2.28893], [102.41637, 2.28756]]]]}}, {"type": "Feature", "properties": {"state": "Melaka", "seat": "N.28 Sungai Rambai", "seat_name": "Sungai Rambai"}, "geometry": {"type": "MultiPolygon", "coordinates": [[[[102.47094, 2.23814], [102.49547, 2.2351], [102.49688, 2.22778], [102.49502, 2.22046], [102.48381, 2.21354], [102.48233, 2.20942], [102.47177, 2.20513], [102.46794, 2.19926], [102.46972, 2.19783], [102.47389, 2.19791], [102.47548, 2.19511], [102.47844, 2.18701], [102.4753, 2.18358], [102.47904, 2.18061], [102.48145, 2.18074], [102.48155, 2.17866], [102.48359, 2.17744], [102.48746, 2.17783], [102.48906, 2.18144], [102.49196, 2.18286], [102.49332, 2.18075], [102.49251, 2.17643], [102.49512, 2.17243], [102.50127, 2.17429], [102.50253, 2.17071], [102.50456, 2.17065], [102.50412, 2.16771], [102.50642, 2.16632], [102.512, 2.16613], [102.51641, 2.16873], [102.51721, 2.16348], [102.52075, 2.16384], [102.52431, 2.16681], [102.52529, 2.16375], [102.52933, 2.16676], [102.53043, 2.16401], [102.5293, 2.15927], [102.53359, 2.15774], [102.53111, 2.15176], [102.53335, 2.14939], [102.53318, 2.14699], [102.53563, 2.14556], [102.53527, 2.14192], [102.53788, 2.13999], [102.53579, 2.1383], [102.53879, 2.1368], [102.53296, 2.13128], [102.53213, 2.12758], [102.53325, 2.12528], [102.52953, 2.12248], [102.53037, 2.11696], [102.52568, 2.11961], [102.51764, 2.11345], [102.5142, 2.11337], [102.51326, 2.11553], [102.51522, 2.11988], [102.50762, 2.11977], [102.50563, 2.12481], [102.50356, 2.12585], [102.5017, 2.12425], [102.50384, 2.12067], [102.50322, 2.11814], [102.49521, 2.11852], [102.49141, 2.12054], [102.4917, 2.11735], [102.48683, 2.11638], [102.48625, 2.11779], [102.48587, 2.1161], [102.48215, 2.11552], [102.48256, 2.11428], [102.48463, 2.11466], [102.48282, 2.11235], [102.48535, 2.11046], [102.48668, 2.11043], [102.48545, 2.11316], [102.48811, 2.11199], [102.48845, 2.11414], [102.48891, 2.11212], [102.49381, 2.10937], [102.49449, 2.10545], [102.48977, 2.1055], [102.48882, 2.10021], [102.46468, 2.11105], [102.44552, 2.11607], [102.44535, 2.12402], [102.45423, 2.14651], [102.45419, 2.14949], [102.45667, 2.15101], [102.45879, 2.14963], [102.46083, 2.15185], [102.4559, 2.15364], [102.4608, 2.15444], [102.46029, 2.15635], [102.46608, 2.15457], [102.46513, 2.15912], [102.46881, 2.16014], [102.47049, 2.16448], [102.4677, 2.16186], [102.45885, 2.16203], [102.45399, 2.15936], [102.45031, 2.16073], [102.44909, 2.16591], [102.44586, 2.16607], [102.43543, 2.17425], [102.44173, 2.19074], [102.44069, 2.19707], [102.44242, 2.20374], [102.4425, 2.21771], [102.4439, 2.225], [102.44814, 2.23088], [102.44923, 2.24033], [102.47094, 2.23814]]]]}}], "_provenance": {"source": "https://github.com/atifmustaffa/malaysia-geojson (malaysia.dun.geojson)", "licence": "MIT (c) 2026 Atif Mustaffa — see LICENSE in this directory", "downloaded": "2026-08-29", "simplification": "none (original coordinates)", "modified_by": "HitungKerusi 222 research pipeline (seat-name normalisation, per-state split)"}}